{"type":"FeatureCollection","features":[{"type":"Feature","geometry":{"type":"Polygon","coordinates":[[[36.5192425,45.2939885,0],[36.5071402,45.2955583,0],[36.5182982,45.288856,0],[36.5333187,45.2797976,0],[36.5377819,45.2739994,0],[36.54585,45.2680798,0],[36.5491116,45.2613139,0],[36.5715991,45.2500758,0],[36.5782939,45.2490485,0],[36.557012,45.2670518,0],[36.5470516,45.2796768,0],[36.5317737,45.2861989,0],[36.5192425,45.2939885,0]]]},"properties":{"name":"Острів Тузла /// Occupied Tuzla Island","styleUrl":"#poly-880E4F-1200-77-nodesc","styleHash":"-6b23f4d9","styleMapHash":{"normal":"#poly-880E4F-1200-77-nodesc-normal","highlight":"#poly-880E4F-1200-77-nodesc-highlight"},"stroke-opacity":1,"stroke":"#880e4f","stroke-width":1.2,"fill-opacity":0.30196078431372547,"fill":"#880e4f"}},{"type":"Feature","geometry":{"type":"Polygon","coordinates":[[[39.0828906,47.8516037,0],[39.1093893,47.8517524,0],[39.1095354,47.8427473,0],[39.1496824,47.8425817,0],[39.2362131,47.8539532,0],[39.2417337,47.8670136,0],[39.3904498,47.8661846,0],[39.4125292,47.830898,0],[39.4373545,47.8398339,0],[39.4462501,47.850644,0],[39.4784743,47.8594741,0],[39.5203078,47.825141,0],[39.5344907,47.83253,0],[39.542168,47.8249813,0],[39.5655871,47.836556,0],[39.7379104,47.8277291,0],[39.7631843,47.8465373,0],[39.7625051,47.8701448,0],[39.7949406,47.8668329,0],[39.7939036,47.9158973,0],[39.8065943,47.9336659,0],[39.8058884,47.9505616,0],[39.8273909,47.9508344,0],[39.8198438,47.9677616,0],[39.8154078,47.9708664,0],[39.8151166,47.9736166,0],[39.8175382,47.9766456,0],[39.8198493,47.9774461,0],[39.8227982,47.979535,0],[39.8230314,47.9835403,0],[39.8167173,47.9845419,0],[39.8161798,47.9927984,0],[39.8179161,47.9947777,0],[39.8137713,47.9966971,0],[39.8137357,47.9985021,0],[39.8165185,48.0001159,0],[39.8167197,48.0014626,0],[39.8109753,48.0048562,0],[39.8045408,48.0064594,0],[39.8029984,48.0079476,0],[39.7976869,48.0093062,0],[39.7952175,48.0107026,0],[39.7850806,48.023125,0],[39.7867767,48.0250342,0],[39.7796623,48.0393364,0],[39.8772075,48.0413783,0],[39.8858862,48.0478658,0],[39.8322015,48.0664997,0],[39.8685845,48.0794444,0],[39.8799506,48.1151645,0],[39.9102753,48.1384164,0],[39.9091838,48.1693296,0],[39.9138857,48.178015,0],[39.9409345,48.1808104,0],[39.9421938,48.2307436,0],[39.9533041,48.2294084,0],[39.9722759,48.2270247,0],[40.0008684,48.2252447,0],[40.0033787,48.2236859,0],[40.0075402,48.2233125,0],[40.0083965,48.2251387,0],[40.0082215,48.2281045,0],[40.007443,48.2300907,0],[40.0043418,48.2323477,0],[40.0039768,48.2360612,0],[40.0027322,48.2375353,0],[40.0030757,48.2394758,0],[40.0073233,48.2420581,0],[40.0195095,48.2525075,0],[40.0188624,48.2531159,0],[40.0189201,48.2541039,0],[40.018671,48.2550513,0],[40.0189886,48.2570604,0],[40.0155045,48.2626787,0],[40.0167773,48.2694579,0],[40.0138295,48.2715898,0],[40.0089633,48.2726545,0],[39.9997448,48.28929,0],[40.0005341,48.2917165,0],[39.9966002,48.2979383,0],[39.9950166,48.3008469,0],[39.994253,48.303181,0],[39.9926583,48.3056192,0],[39.9919216,48.3060016,0],[39.9920796,48.3097349,0],[39.9939839,48.3120065,0],[39.9941876,48.3126963,0],[39.9935222,48.3128773,0],[39.9932215,48.3135961,0],[39.9909894,48.3160613,0],[39.9910744,48.3165824,0],[39.9908152,48.3170825,0],[39.9869491,48.3175119,0],[39.9853108,48.317001,0],[39.9841797,48.3162073,0],[39.9825182,48.3157045,0],[39.9803108,48.3157835,0],[39.9788999,48.315713,0],[39.9776231,48.3151726,0],[39.9754983,48.31432,0],[39.9744246,48.3134708,0],[39.9724916,48.3129711,0],[39.9710288,48.3116291,0],[39.9718799,48.3097157,0],[39.9707928,48.3089713,0],[39.9712364,48.3077965,0],[39.9712653,48.3073022,0],[39.9708083,48.3070844,0],[39.9687353,48.3071341,0],[39.9676365,48.3068053,0],[39.9663829,48.3067758,0],[39.9656782,48.3064027,0],[39.9658139,48.3056564,0],[39.9654414,48.3046777,0],[39.9648377,48.3044577,0],[39.9638819,48.3034631,0],[39.9632084,48.3032599,0],[39.9630632,48.3025965,0],[39.9635452,48.3021261,0],[39.9644662,48.3020989,0],[39.9657931,48.3027154,0],[39.9669698,48.3028323,0],[39.9680178,48.3028349,0],[39.9694631,48.3031312,0],[39.9710106,48.3027963,0],[39.9710313,48.3014874,0],[39.9706155,48.3011791,0],[39.9702131,48.3003911,0],[39.9706103,48.2989864,0],[39.9702238,48.2987467,0],[39.9695797,48.2986384,0],[39.9674541,48.2991473,0],[39.9667219,48.2996514,0],[39.9661587,48.2998029,0],[39.9649464,48.2996493,0],[39.9633373,48.2990852,0],[39.9606769,48.2994413,0],[39.9596904,48.2992401,0],[39.9593054,48.2988376,0],[39.9582829,48.2980501,0],[39.9559754,48.2992555,0],[39.9557481,48.299894,0],[39.9559284,48.3003326,0],[39.9563748,48.3005247,0],[39.9568814,48.3011087,0],[39.9567444,48.3021637,0],[39.9568219,48.3026192,0],[39.9566599,48.3031852,0],[39.9556063,48.3037463,0],[39.954057,48.304012,0],[39.9529753,48.3039154,0],[39.9519708,48.303551,0],[39.9517212,48.3030504,0],[39.9519946,48.3023918,0],[39.9517688,48.3021309,0],[39.9522186,48.3010381,0],[39.9519575,48.3000927,0],[39.9498477,48.2994008,0],[39.949619,48.2988449,0],[39.9508356,48.2977331,0],[39.9507366,48.2972225,0],[39.9490366,48.2967152,0],[39.9484261,48.2961002,0],[39.9484112,48.2942947,0],[39.947227,48.2941626,0],[39.9465323,48.293784,0],[39.9459582,48.2927414,0],[39.9448101,48.2920266,0],[39.9437155,48.2919104,0],[39.9416121,48.2928487,0],[39.9385209,48.2921268,0],[39.9377029,48.292225,0],[39.9368823,48.2915646,0],[39.9366146,48.2899582,0],[39.9370235,48.288116,0],[39.9366398,48.2868873,0],[39.9362154,48.2850583,0],[39.9350232,48.2837704,0],[39.9340979,48.2834791,0],[39.9332772,48.2837532,0],[39.9321079,48.2837303,0],[39.9305846,48.2832846,0],[39.9301559,48.2827643,0],[39.9302856,48.2823805,0],[39.932176,48.2812133,0],[39.9341115,48.2807351,0],[39.9349784,48.2797503,0],[39.9346951,48.2790658,0],[39.9328753,48.2792411,0],[39.9315961,48.2779922,0],[39.9296385,48.2777793,0],[39.927869,48.2765821,0],[39.9272912,48.2753873,0],[39.9258355,48.2739687,0],[39.9256277,48.2735879,0],[39.9258988,48.2729692,0],[39.9259687,48.2721603,0],[39.9249068,48.2714851,0],[39.9229547,48.2713059,0],[39.9210688,48.2716602,0],[39.9196571,48.2712977,0],[39.9189796,48.2706011,0],[39.9174956,48.2700935,0],[39.9148291,48.2696779,0],[39.9142596,48.2698466,0],[39.9145799,48.2707552,0],[39.915049,48.2713442,0],[39.9147533,48.2718867,0],[39.9140654,48.2719578,0],[39.9130755,48.2711929,0],[39.9111386,48.2710199,0],[39.9102688,48.2716453,0],[39.9105891,48.2721534,0],[39.9118308,48.2727698,0],[39.9122543,48.2737457,0],[39.9113847,48.275269,0],[39.9104178,48.2760308,0],[39.9096855,48.2760119,0],[39.9095085,48.276717,0],[39.9082201,48.277008,0],[39.9084339,48.2781327,0],[39.9100639,48.2790105,0],[39.9093774,48.2807664,0],[39.910753,48.282907,0],[39.911103,48.2850178,0],[39.9097451,48.2875265,0],[39.9126952,48.2882023,0],[39.9101881,48.2929821,0],[39.9031174,48.2988902,0],[39.8869156,48.3040891,0],[39.8879682,48.3073167,0],[39.8871988,48.3087771,0],[39.8410685,48.3100513,0],[39.8421021,48.3183104,0],[39.8403939,48.3291167,0],[39.8452167,48.3294989,0],[39.8455931,48.3327736,0],[39.8597034,48.3345658,0],[39.8779341,48.3340733,0],[39.9185813,48.3416921,0],[39.9186034,48.3472072,0],[39.9307271,48.348957,0],[39.9436441,48.3481202,0],[39.9475073,48.3552302,0],[39.9425304,48.3549629,0],[39.944422,48.3571657,0],[39.939451,48.3607734,0],[39.9406678,48.365023,0],[39.9367499,48.3671357,0],[39.9347511,48.3722742,0],[39.9432775,48.3837913,0],[39.9415351,48.3870715,0],[39.9383089,48.3875623,0],[39.9352706,48.384697,0],[39.9318897,48.3769292,0],[39.9268452,48.3750751,0],[39.9212199,48.3759275,0],[39.9175221,48.3792278,0],[39.9163055,48.3842314,0],[39.9145583,48.3868273,0],[39.9078019,48.3887123,0],[39.9059615,48.3903159,0],[39.9067434,48.3922694,0],[39.9174051,48.3948097,0],[39.9186437,48.3976109,0],[39.9160499,48.4006103,0],[39.9084587,48.4020517,0],[39.906312,48.403562,0],[39.9064839,48.4074937,0],[39.9127632,48.4155801,0],[39.9102969,48.4219558,0],[39.8959257,48.4292418,0],[39.8888169,48.4419929,0],[39.8898644,48.4435709,0],[39.8967662,48.4442197,0],[39.8985547,48.4459723,0],[39.8973265,48.4481115,0],[39.8577522,48.4633633,0],[39.8463375,48.4737119,0],[39.847753,48.4856779,0],[39.8478837,48.4951083,0],[39.8464694,48.4993057,0],[39.84871,48.5028401,0],[39.8531911,48.5034246,0],[39.8566588,48.5016359,0],[39.861877,48.5019244,0],[39.8661347,48.5047748,0],[39.8667561,48.5088826,0],[39.8574855,48.5374008,0],[39.8580446,48.5453656,0],[39.8545326,48.5529988,0],[39.8576295,48.5614133,0],[39.846829,48.5729337,0],[39.8216849,48.5783323,0],[39.8206043,48.5792853,0],[39.8254818,48.5816452,0],[39.8263109,48.5842074,0],[39.8250511,48.5861523,0],[39.8223596,48.5866356,0],[39.8128554,48.5838551,0],[39.8086096,48.5839718,0],[39.8044954,48.5854536,0],[39.8002156,48.5895529,0],[39.796119,48.5918468,0],[39.7899853,48.5933692,0],[39.7734252,48.5923258,0],[39.7720625,48.5916013,0],[39.7703675,48.5879945,0],[39.754759,48.5829996,0],[39.7512953,48.5820902,0],[39.7505496,48.5833377,0],[39.7510542,48.5888356,0],[39.7490377,48.5902429,0],[39.7467209,48.5906731,0],[39.7443186,48.5900574,0],[39.7387429,48.5868384,0],[39.7346291,48.5858506,0],[39.7301775,48.585919,0],[39.726252,48.5866238,0],[39.7233788,48.5862164,0],[39.7212371,48.5848336,0],[39.714893,48.5852475,0],[39.7025463,48.5877777,0],[39.697765,48.5871601,0],[39.6916351,48.586378,0],[39.6872709,48.5870843,0],[39.6772879,48.5875629,0],[39.6765155,48.5881875,0],[39.6722238,48.5884145,0],[39.6675887,48.5867682,0],[39.6587483,48.5856325,0],[39.6575468,48.5846673,0],[39.6353165,48.5800397,0],[39.6319692,48.5806927,0],[39.6236436,48.5860867,0],[39.6228281,48.5863707,0],[39.6219268,48.5858029,0],[39.6212402,48.5819417,0],[39.6175495,48.5771153,0],[39.6137299,48.5749004,0],[39.6124855,48.5729129,0],[39.6080223,48.5727141,0],[39.6036449,48.5741055,0],[39.5963128,48.5750293,0],[39.5949886,48.5766912,0],[39.5948044,48.5793299,0],[39.6006408,48.5857461,0],[39.604074,48.5862571,0],[39.6050182,48.5867681,0],[39.6045891,48.5888119,0],[39.6017566,48.591537,0],[39.5963493,48.5923886,0],[39.5925357,48.5912967,0],[39.5817707,48.5850383,0],[39.5777793,48.5828806,0],[39.576535,48.581234,0],[39.5733466,48.5805224,0],[39.5680714,48.5818502,0],[39.5629675,48.5836321,0],[39.5631454,48.5862306,0],[39.5660509,48.588301,0],[39.5672772,48.5902388,0],[39.5673018,48.5921198,0],[39.5656345,48.5939516,0],[39.5633045,48.5974408,0],[39.5617595,48.5980085,0],[39.5586696,48.5980085,0],[39.5512023,48.5955676,0],[39.5494857,48.5932401,0],[39.5505587,48.5885848,0],[39.549314,48.5859732,0],[39.5450225,48.5839292,0],[39.5373836,48.58339,0],[39.5312037,48.5842699,0],[39.5287147,48.5859448,0],[39.5269121,48.58955,0],[39.5281312,48.5918406,0],[39.5332079,48.5936307,0],[39.5335878,48.5954605,0],[39.5324228,48.5964387,0],[39.5280455,48.5971767,0],[39.5253848,48.5981984,0],[39.5226333,48.6029769,0],[39.5234788,48.6051034,0],[39.5272799,48.6082749,0],[39.5278196,48.6094601,0],[39.5271823,48.6112629,0],[39.5257232,48.613022,0],[39.5167841,48.6180986,0],[39.5116469,48.6218737,0],[39.5119776,48.6235455,0],[39.5154235,48.6261855,0],[39.5162691,48.6279705,0],[39.5167109,48.6299864,0],[39.5160243,48.6321987,0],[39.5140876,48.6338368,0],[39.5104342,48.6344539,0],[39.5004348,48.6325537,0],[39.4955426,48.6321283,0],[39.4930106,48.6304265,0],[39.4862727,48.6288949,0],[39.4841484,48.6282,0],[39.4761018,48.628753,0],[39.4685916,48.6274483,0],[39.4656304,48.6281857,0],[39.4640108,48.6310641,0],[39.4642683,48.6340137,0],[39.4673899,48.6372332,0],[39.4658132,48.6386649,0],[39.4575623,48.6386512,0],[39.4542149,48.6397855,0],[39.45164,48.6410333,0],[39.4495753,48.6445574,0],[39.4497978,48.6504011,0],[39.4513078,48.6517082,0],[39.4533852,48.6528124,0],[39.4523728,48.6547104,0],[39.4501761,48.6556715,0],[39.4465013,48.6563009,0],[39.4389481,48.6549401,0],[39.4323232,48.6567488,0],[39.4207457,48.6582229,0],[39.4142323,48.6566918,0],[39.4106939,48.6576559,0],[39.4080332,48.6598104,0],[39.4082049,48.6614545,0],[39.4135262,48.6668399,0],[39.4138697,48.6684271,0],[39.4117239,48.6705243,0],[39.4058209,48.6738115,0],[39.4026452,48.6744349,0],[39.3979909,48.6746052,0],[39.3905237,48.6787991,0],[39.3891696,48.6803857,0],[39.3909291,48.6837575,0],[39.3895988,48.6847492,0],[39.3817025,48.6855142,0],[39.3795566,48.6862791,0],[39.3779859,48.6862368,0],[39.3673165,48.6919737,0],[39.3658902,48.6922287,0],[39.3603112,48.695798,0],[39.3559531,48.697214,0],[39.3505029,48.7076367,0],[39.3486574,48.708713,0],[39.346855,48.7122245,0],[39.3486382,48.7134707,0],[39.3541314,48.7132442,0],[39.3601589,48.7156791,0],[39.3652658,48.7168401,0],[39.3704585,48.7159622,0],[39.3720796,48.7159341,0],[39.3737867,48.7174915,0],[39.3741826,48.7186523,0],[39.3726043,48.7198696,0],[39.3691283,48.7200679,0],[39.3615322,48.7223045,0],[39.3552238,48.7252488,0],[39.3537216,48.7268908,0],[39.3540724,48.729646,0],[39.3588751,48.7339014,0],[39.3588714,48.7361753,0],[39.3581923,48.7370054,0],[39.3492658,48.742496,0],[39.3472058,48.7457787,0],[39.3470266,48.7502121,0],[39.3461759,48.751042,0],[39.3431385,48.7573608,0],[39.3433628,48.7592092,0],[39.3455281,48.7616611,0],[39.3491724,48.7621516,0],[39.3513257,48.7630943,0],[39.3538932,48.7654897,0],[39.3545015,48.7668284,0],[39.3527812,48.7679412,0],[39.3510607,48.7685446,0],[39.3472429,48.7683845,0],[39.3403355,48.7663007,0],[39.3361337,48.7659798,0],[39.3316705,48.766602,0],[39.3266028,48.7683087,0],[39.326084,48.7700153,0],[39.3274828,48.7721084,0],[39.3279722,48.7736923,0],[39.3262557,48.7755589,0],[39.3245465,48.776049,0],[39.3145901,48.7748045,0],[39.3118435,48.7740692,0],[39.3088319,48.7719953,0],[39.3030887,48.765414,0],[39.2999129,48.7630378,0],[39.2926174,48.760605,0],[39.2914941,48.7594358,0],[39.2906433,48.756248,0],[39.2892807,48.7536832,0],[39.28952,48.7515136,0],[39.2864338,48.7489009,0],[39.2820603,48.7486084,0],[39.2788874,48.749339,0],[39.2766585,48.7523332,0],[39.2747755,48.753681,0],[39.2723828,48.7538866,0],[39.2708089,48.7527587,0],[39.2703015,48.7512117,0],[39.2716747,48.7477596,0],[39.270809,48.7439866,0],[39.2686631,48.741949,0],[39.264468,48.7412523,0],[39.258535,48.7427414,0],[39.256311,48.7422696,0],[39.2550234,48.7406847,0],[39.255282,48.7387742,0],[39.2592291,48.7338353,0],[39.2561392,48.7268717,0],[39.2539624,48.7244016,0],[39.2533069,48.7220589,0],[39.2539001,48.7201527,0],[39.2497802,48.7125643,0],[39.2435147,48.7096192,0],[39.2395879,48.7091247,0],[39.2359905,48.711088,0],[39.2323641,48.7114125,0],[39.2267852,48.7089771,0],[39.2248968,48.7067682,0],[39.2194036,48.7051822,0],[39.2071728,48.6982998,0],[39.2031818,48.6986114,0],[39.2003706,48.6999993,0],[39.1991476,48.702265,0],[39.1983536,48.705777,0],[39.1975167,48.706485,0],[39.1965081,48.7065134,0],[39.1951061,48.7038985,0],[39.1909003,48.6998199,0],[39.1854146,48.6933991,0],[39.1816381,48.6857501,0],[39.1742491,48.680329,0],[39.1633486,48.6757386,0],[39.1574337,48.6753794,0],[39.1519406,48.6762862,0],[39.1486715,48.6752851,0],[39.1445122,48.6709112,0],[39.1418984,48.6666505,0],[39.141641,48.6650633,0],[39.1426709,48.6635326,0],[39.1419842,48.6608682,0],[39.1394876,48.65964,0],[39.1273071,48.6604713,0],[39.1231872,48.6600178,0],[39.1168282,48.6567485,0],[39.1119359,48.6533466,0],[39.1036178,48.6498687,0],[39.0985539,48.6508893,0],[39.0849068,48.6506625,0],[39.0758944,48.6516264,0],[39.0743495,48.6504357,0],[39.0548659,48.6470333,0],[39.042678,48.6464662,0],[39.0380823,48.6471847,0],[39.0355464,48.6482432,0],[39.0334474,48.6519761,0],[39.0322065,48.6528738,0],[39.0285083,48.6530064,0],[39.0191528,48.6569753,0],[39.0123721,48.658336,0],[39.010316,48.660084,0],[39.009633,48.6626256,0],[39.0129804,48.6640429,0],[39.0185594,48.6640995,0],[39.0216493,48.6623989,0],[39.0254258,48.6619737,0],[39.0274858,48.6632492,0],[39.0262842,48.667274,0],[39.0238809,48.6698815,0],[39.0205336,48.6722621,0],[39.0202761,48.6756061,0],[39.0195819,48.6791389,0],[39.0163671,48.6809428,0],[39.0143537,48.6834267,0],[39.015727,48.6886399,0],[39.0155478,48.6948913,0],[39.0048265,48.6963452,0],[39.0018149,48.6980072,0],[38.9998483,48.7001975,0],[38.999505,48.7039927,0],[38.9982176,48.7076745,0],[38.9989862,48.7111956,0],[38.9969225,48.7116016,0],[38.9919227,48.7100017,0],[38.9869231,48.7101575,0],[38.9843054,48.7118281,0],[38.9847421,48.7136213,0],[38.9888619,48.715207,0],[38.9939184,48.7161888,0],[38.9980459,48.7174722,0],[38.9993333,48.7196241,0],[38.9983893,48.7242672,0],[38.9914368,48.7306084,0],[38.9895411,48.7349866,0],[38.9844561,48.7375798,0],[38.9822031,48.7402861,0],[38.9823319,48.7421893,0],[38.981216,48.7438449,0],[38.9788122,48.7448922,0],[38.9749968,48.7447632,0],[38.9725628,48.7435836,0],[38.9698324,48.7437464,0],[38.9669464,48.7452039,0],[38.9640925,48.7461943,0],[38.9611311,48.7461373,0],[38.9599296,48.7429109,0],[38.961217,48.739911,0],[38.9610453,48.736515,0],[38.9569464,48.7340668,0],[38.9460674,48.7344489,0],[38.9437074,48.7338543,0],[38.9340086,48.7357792,0],[38.9324635,48.736798,0],[38.9343519,48.7429112,0],[38.9379568,48.7440714,0],[38.9388581,48.7458118,0],[38.9382788,48.746682,0],[38.9369591,48.7471171,0],[38.9350546,48.7468536,0],[38.9336652,48.7460241,0],[38.9306501,48.7452743,0],[38.9227216,48.7450054,0],[38.9213055,48.7446091,0],[38.9199671,48.7434206,0],[38.9180279,48.7429113,0],[38.9143212,48.7443829,0],[38.9125725,48.7468732,0],[38.9111349,48.7480051,0],[38.9087746,48.7492502,0],[38.9047401,48.7506082,0],[38.9010923,48.7509054,0],[38.8988178,48.750184,0],[38.8920372,48.7504385,0],[38.8813299,48.7501841,0],[38.8802356,48.7506085,0],[38.8790769,48.752476,0],[38.8776176,48.7525889,0],[38.8716924,48.7513053,0],[38.863879,48.7513796,0],[38.8609553,48.7507359,0],[38.8606013,48.749788,0],[38.8593783,48.7495899,0],[38.8553874,48.7496462,0],[38.8471476,48.7429112,0],[38.8360755,48.7232671,0],[38.8300673,48.7170382,0],[38.8084379,48.7134138,0],[38.7670674,48.71432,0],[38.7535137,48.7184915,0],[38.6917155,48.7293629,0],[38.6745492,48.7293629,0],[38.6784116,48.723701,0],[38.6301672,48.721172,0],[38.5832177,48.7198696,0],[38.5784187,48.7094303,0],[38.577732,48.6967418,0],[38.5722313,48.6890556,0],[38.5594455,48.6866947,0],[38.5489783,48.6752945,0],[38.5394514,48.6735091,0],[38.5272842,48.6746424,0],[38.5161483,48.6705617,0],[38.5152472,48.6663671,0],[38.4967076,48.6631925,0],[38.4802281,48.6591107,0],[38.4644278,48.6564083,0],[38.4452016,48.6550476,0],[38.4314762,48.6504924,0],[38.4198032,48.6450485,0],[38.4143025,48.6382619,0],[38.4088093,48.62964,0],[38.4046894,48.6169314,0],[38.4048036,48.6090985,0],[38.4060702,48.6019302,0],[38.402637,48.5919397,0],[38.402637,48.5478669,0],[38.4143026,48.5206053,0],[38.4115634,48.5105796,0],[38.4053767,48.4733655,0],[38.3930237,48.436606,0],[38.3892474,48.4322779,0],[38.390964,48.4158739,0],[38.3672748,48.3996925,0],[38.3542284,48.390346,0],[38.3435779,48.3844372,0],[38.3217544,48.3710529,0],[38.2907061,48.361631,0],[38.2736891,48.3591918,0],[38.2591203,48.359806,0],[38.2276837,48.3671755,0],[38.2149807,48.3690002,0],[38.2074276,48.371509,0],[38.1847683,48.3749299,0],[38.1500926,48.3854193,0],[38.1544451,48.395536,0],[38.1630936,48.4021166,0],[38.1484618,48.4144818,0],[38.135158,48.4190391,0],[38.1174769,48.420805,0],[38.1137059,48.4080126,0],[38.0685038,48.4086727,0],[38.0421228,48.4090856,0],[38.0048018,48.3939537,0],[37.9786234,48.391275,0],[37.9749586,48.3811152,0],[37.9470402,48.3751555,0],[37.9346295,48.3739913,0],[37.9096311,48.3518021,0],[37.8901968,48.2991598,0],[37.8881602,48.2836394,0],[37.8953466,48.268546,0],[37.89157,48.2550609,0],[37.8929432,48.2335689,0],[37.8965706,48.2154292,0],[37.8833302,48.1997121,0],[37.8562077,48.1928465,0],[37.8285927,48.1751503,0],[37.824622,48.1578177,0],[37.8198549,48.1438969,0],[37.8061045,48.1173377,0],[37.7920214,48.1045282,0],[37.7892831,48.1001774,0],[37.7730529,48.0920319,0],[37.7564355,48.0866703,0],[37.7543362,48.0840036,0],[37.7463065,48.0734746,0],[37.7427884,48.0727514,0],[37.6997015,48.0722042,0],[37.6930492,48.0693073,0],[37.6877494,48.0618935,0],[37.6942941,48.0565448,0],[37.6911989,48.0534065,0],[37.6878504,48.0547535,0],[37.6699861,48.0433634,0],[37.6478104,48.0289444,0],[37.6226618,48.0194438,0],[37.6164821,48.0180947,0],[37.575455,48.0139608,0],[37.5733939,48.0068986,0],[37.556143,48.0098553,0],[37.5496206,47.9973638,0],[37.5585462,47.986451,0],[37.548504,47.9792696,0],[37.5394871,47.9726323,0],[37.5251581,47.9572022,0],[37.5218536,47.94582,0],[37.5285901,47.9414985,0],[37.5428393,47.9324766,0],[37.5394068,47.9242357,0],[37.5350286,47.917986,0],[37.5685999,47.9077685,0],[37.5759066,47.9077328,0],[37.6440338,47.8866264,0],[37.6342622,47.838423,0],[37.6345486,47.8025384,0],[37.623169,47.7731102,0],[37.6375888,47.7519939,0],[37.6726795,47.7247168,0],[37.7644947,47.6847015,0],[37.8039769,47.6601962,0],[37.801917,47.6423879,0],[37.7686147,47.6354478,0],[37.7823477,47.5859162,0],[37.8194267,47.5463034,0],[37.8925547,47.4697729,0],[37.8784784,47.4416839,0],[37.8637154,47.4265885,0],[37.855819,47.403124,0],[37.856849,47.3928985,0],[37.8503258,47.3842983,0],[37.8383096,47.3780216,0],[37.841643,47.3690218,0],[37.8515994,47.3655338,0],[37.8417428,47.3584893,0],[37.8376229,47.3524422,0],[37.8486092,47.3501161,0],[37.8591525,47.3543707,0],[37.8612124,47.3478578,0],[37.856849,47.3436027,0],[37.8444894,47.3419742,0],[37.8292834,47.3425074,0],[37.8273232,47.3284792,0],[37.8245766,47.3214977,0],[37.8317864,47.3149807,0],[37.8348763,47.3082302,0],[37.8276665,47.3026429,0],[37.8338464,47.2854117,0],[37.833503,47.249301,0],[37.8513558,47.198938,0],[37.8499825,47.1742053,0],[37.8180535,47.1190987,0],[37.8292834,47.1127418,0],[37.8383095,47.0997045,0],[37.8621706,47.1062479,0],[37.8795803,47.1066666,0],[37.8954729,47.1109213,0],[37.9839645,47.0835761,0],[37.9902301,47.0914656,0],[37.9790722,47.0928096,0],[37.9758825,47.0956826,0],[37.9930627,47.0990033,0],[38.0325448,47.0890697,0],[38.040012,47.0918746,0],[38.0407846,47.0962571,0],[38.054332,47.1083022,0],[38.0626714,47.1108045,0],[38.08885,47.1059558,0],[38.1046619,47.0956273,0],[38.1228691,47.0806216,0],[38.1328256,47.0640197,0],[38.1317956,47.0537286,0],[38.1060463,47.0471788,0],[38.0804081,47.0265446,0],[38.0849876,47.0204182,0],[38.1632652,47.0654551,0],[38.1865557,47.0937123,0],[38.2115022,47.1071826,0],[38.2301175,47.119406,0],[38.2284514,47.1226729,0],[38.2292468,47.1270853,0],[38.2319091,47.129692,0],[38.2340685,47.1355459,0],[38.2363121,47.1395266,0],[38.2355903,47.1961289,0],[38.234781,47.2025886,0],[38.2373783,47.2083908,0],[38.2396567,47.208713,0],[38.2410554,47.2101138,0],[38.2411519,47.2105429,0],[38.2408246,47.2108546,0],[38.2412215,47.2117534,0],[38.2418471,47.2121661,0],[38.2415415,47.2125292,0],[38.2418929,47.2148436,0],[38.2422759,47.2153019,0],[38.2422804,47.2162117,0],[38.2427899,47.217117,0],[38.2425054,47.2178107,0],[38.2412876,47.2184817,0],[38.240507,47.2183364,0],[38.2398263,47.218731,0],[38.2398971,47.2199239,0],[38.2400827,47.2201486,0],[38.2400467,47.2213613,0],[38.2397605,47.2216179,0],[38.2387591,47.2217389,0],[38.2382548,47.2224089,0],[38.2387143,47.2232165,0],[38.2385172,47.22364,0],[38.2364423,47.2242619,0],[38.2362738,47.2244999,0],[38.2364096,47.2254132,0],[38.2361448,47.2256075,0],[38.2346481,47.2254071,0],[38.2338694,47.2258012,0],[38.2340111,47.227113,0],[38.2336742,47.2280166,0],[38.2328621,47.2284101,0],[38.2329066,47.2291897,0],[38.2343344,47.2309856,0],[38.2351234,47.2310967,0],[38.2362475,47.2308171,0],[38.237346,47.2312165,0],[38.2378094,47.2320427,0],[38.2398865,47.2324121,0],[38.2407512,47.2321463,0],[38.2416486,47.232812,0],[38.2427674,47.2326826,0],[38.2460906,47.2341102,0],[38.2477027,47.2334227,0],[38.2535413,47.2336156,0],[38.2605024,47.2383163,0],[38.288189,47.2385598,0],[38.288043,47.2564998,0],[38.3244906,47.2568209,0],[38.3307851,47.2634492,0],[38.3309967,47.2645747,0],[38.3291431,47.266503,0],[38.3332861,47.2682715,0],[38.3337354,47.2689381,0],[38.3308099,47.2759325,0],[38.3276326,47.27668,0],[38.3261871,47.2774834,0],[38.3271856,47.2795435,0],[38.3233941,47.2811323,0],[38.3257662,47.2846011,0],[38.3284365,47.2848084,0],[38.3296901,47.2896121,0],[38.3333538,47.2921318,0],[38.3337391,47.2962532,0],[38.3332879,47.2969749,0],[38.3275474,47.2975272,0],[38.3270914,47.2990089,0],[38.3282045,47.3003972,0],[38.3345111,47.3014077,0],[38.3363045,47.3064075,0],[38.2209779,47.3053796,0],[38.2214722,47.3273446,0],[38.2272145,47.3297102,0],[38.2257943,47.3321154,0],[38.2220794,47.3328526,0],[38.230493,47.3389025,0],[38.2306932,47.3431686,0],[38.2402401,47.346223,0],[38.246788,47.3514449,0],[38.2504613,47.357713,0],[38.2473631,47.3617371,0],[38.2455592,47.3631933,0],[38.2587325,47.3733532,0],[38.2864922,47.3735598,0],[38.2864155,47.3914768,0],[38.3004094,47.391514,0],[38.3020854,47.3928698,0],[38.3020221,47.4751206,0],[38.2894022,47.4767537,0],[38.2940999,47.4907448,0],[38.2950717,47.5080641,0],[38.2849085,47.5083765,0],[38.2848038,47.5444646,0],[38.3051136,47.5448513,0],[38.3111495,47.5536189,0],[38.3109696,47.5760278,0],[38.3507371,47.5762058,0],[38.3501205,47.6166892,0],[38.4566884,47.6170037,0],[38.4562749,47.6442531,0],[38.620087,47.6448705,0],[38.6295892,47.6533363,0],[38.6292745,47.6692783,0],[38.6658873,47.6694185,0],[38.6656155,47.6971765,0],[38.6591995,47.7000572,0],[38.6707962,47.6989544,0],[38.7291235,47.6988072,0],[38.7303052,47.680361,0],[38.7540691,47.6848875,0],[38.7731639,47.6857642,0],[38.7708688,47.7206292,0],[38.7889429,47.7370148,0],[38.7981571,47.7784404,0],[38.7886773,47.8159738,0],[38.8351025,47.816059,0],[38.8421825,47.8631185,0],[39.0827779,47.8699273,0],[39.0828906,47.8516037,0]]]},"properties":{"name":"ОРДЛО /// CADR and CALR\n","styleUrl":"#poly-880E4F-1200-77-nodesc","styleHash":"-6b23f4d9","styleMapHash":{"normal":"#poly-880E4F-1200-77-nodesc-normal","highlight":"#poly-880E4F-1200-77-nodesc-highlight"},"stroke-opacity":1,"stroke":"#880e4f","stroke-width":1.2,"fill-opacity":0.30196078431372547,"fill":"#880e4f"}},{"type":"Feature","geometry":{"type":"Polygon","coordinates":[[[35.2014582,45.5233432,0],[35.1098671,45.5990246,0],[35.0500557,45.6672021,0],[34.9770528,45.765285,0],[34.9582188,45.7600372,0],[34.9493437,45.7629357,0],[34.8008812,45.8047349,0],[34.796134,45.8920532,0],[34.7828789,45.9049747,0],[34.7527159,45.9102311,0],[34.7008834,45.9591791,0],[34.6514148,45.9739079,0],[34.5560425,45.988691,0],[34.4785519,45.9469467,0],[34.4367261,45.9681642,0],[34.3824645,46.0346918,0],[34.2277542,46.0608165,0],[34.1607715,46.0804296,0],[34.1225822,46.1081224,0],[34.0383336,46.1169353,0],[33.82395,46.1870691,0],[33.7405319,46.1851281,0],[33.7145537,46.1968941,0],[33.6897001,46.204334,0],[33.6066801,46.1468776,0],[33.6125276,46.1382376,0],[33.612957,46.1291484,0],[33.616561,46.11536,0],[33.6330381,46.0973809,0],[33.6372819,46.0813513,0],[33.623699,46.0717219,0],[33.6113376,46.054819,0],[33.6187235,46.0125197,0],[33.6228726,45.9976173,0],[33.6285431,45.9876045,0],[33.6293845,45.9774581,0],[33.6296884,45.9674259,0],[33.6277585,45.9588485,0],[33.6164792,45.9490678,0],[33.6176055,45.9442427,0],[33.6244967,45.942516,0],[33.6349923,45.9413261,0],[33.6420789,45.942885,0],[33.6475011,45.9451658,0],[33.640135,45.9493564,0],[33.6597606,45.9545864,0],[33.682856,45.9528033,0],[33.6923145,45.9552601,0],[33.7229645,45.950158,0],[33.744939,45.9503295,0],[33.7472783,45.9466852,0],[33.7510765,45.9487997,0],[33.7557842,45.9392824,0],[33.7579871,45.9344939,0],[33.7560271,45.9311086,0],[33.7495064,45.9282755,0],[33.7309277,45.9301884,0],[33.7202438,45.9246362,0],[33.7019952,45.9110037,0],[33.6975452,45.911367,0],[33.6919706,45.9134707,0],[33.6877728,45.9127518,0],[33.6800935,45.9085396,0],[33.6762137,45.9039535,0],[33.6751147,45.8988677,0],[33.6783673,45.8851388,0],[33.6799532,45.8750482,0],[33.6790774,45.8673135,0],[33.6847163,45.8588878,0],[33.6841906,45.8500979,0],[33.6741263,45.8574315,0],[33.6615976,45.86426,0],[33.6622334,45.8715236,0],[33.6546628,45.8752329,0],[33.642234,45.8763254,0],[33.6340965,45.8826144,0],[33.6162717,45.892143,0],[33.5937246,45.8852915,0],[33.5816528,45.8712065,0],[33.5687155,45.8740076,0],[33.5586395,45.8617199,0],[33.5517154,45.8516275,0],[33.5482128,45.8435307,0],[33.5421287,45.8402584,0],[33.5371159,45.8457964,0],[33.527171,45.849723,0],[33.5176551,45.846594,0],[33.5076216,45.8410719,0],[33.5008905,45.8483554,0],[33.5200621,45.8577082,0],[33.5441019,45.8803349,0],[33.5405932,45.8849133,0],[33.5179512,45.8677769,0],[33.4829745,45.8543957,0],[33.4322068,45.8385764,0],[33.4170901,45.8302054,0],[33.3734938,45.7971871,0],[33.3224096,45.7750369,0],[33.2806132,45.7626695,0],[33.2386596,45.7528042,0],[33.2119202,45.7577279,0],[33.1821144,45.7739016,0],[33.1724861,45.7866032,0],[33.1806246,45.7972106,0],[33.1858308,45.8079522,0],[33.1823381,45.8099302,0],[33.1758381,45.8057417,0],[33.1657369,45.7882695,0],[33.1591843,45.749182,0],[33.1529186,45.7333554,0],[33.1378005,45.7198138,0],[33.1279075,45.7198415,0],[33.1146383,45.7127746,0],[33.0957044,45.7155026,0],[33.0776807,45.7073927,0],[33.0691004,45.7068331,0],[33.0501444,45.6969593,0],[33.0171537,45.6870091,0],[33.0063371,45.6793833,0],[32.9993935,45.6811474,0],[32.908691,45.6403382,0],[32.8250404,45.5906112,0],[32.8201811,45.5868413,0],[32.8201285,45.5843929,0],[32.8212988,45.5830103,0],[32.8292518,45.583603,0],[32.8372907,45.5833543,0],[32.8410082,45.582406,0],[32.8435558,45.5768336,0],[32.8431411,45.5705971,0],[32.8406482,45.56511,0],[32.8339615,45.5602345,0],[32.8259738,45.5573298,0],[32.8203169,45.5598252,0],[32.7931783,45.56389,0],[32.7721049,45.5578694,0],[32.7368771,45.5430069,0],[32.7232198,45.5330262,0],[32.6917844,45.523882,0],[32.5905805,45.4855798,0],[32.562144,45.4702233,0],[32.5382082,45.4548835,0],[32.5242712,45.4388715,0],[32.500388,45.4246631,0],[32.4880695,45.4079563,0],[32.4797029,45.4042634,0],[32.4789393,45.3891629,0],[32.4886441,45.3849884,0],[32.5074454,45.3819566,0],[32.5134582,45.3720378,0],[32.5103771,45.3608842,0],[32.4894526,45.3461358,0],[32.5518462,45.3323851,0],[32.5698164,45.3328876,0],[32.578538,45.3276418,0],[32.599462,45.325318,0],[32.622109,45.317634,0],[32.6529901,45.313322,0],[32.6756878,45.3206142,0],[32.6855021,45.3321019,0],[32.7121592,45.3413068,0],[32.7353927,45.3549724,0],[32.7652199,45.3638364,0],[32.8467096,45.3652645,0],[32.9070191,45.3594365,0],[32.9667646,45.3366935,0],[32.9918481,45.3224993,0],[33.0352435,45.2901602,0],[33.0627764,45.2756598,0],[33.0812306,45.2584206,0],[33.0931987,45.2488335,0],[33.107907,45.2315099,0],[33.124087,45.225712,0],[33.1389117,45.216317,0],[33.1434036,45.2070898,0],[33.1488252,45.2021432,0],[33.1573263,45.1987744,0],[33.1658262,45.1934696,0],[33.1798209,45.1876511,0],[33.1852357,45.1837167,0],[33.2019842,45.1832253,0],[33.2252923,45.1746946,0],[33.2343482,45.1682187,0],[33.2459386,45.1569381,0],[33.2572946,45.1478037,0],[33.2680362,45.1456289,0],[33.2751597,45.1459006,0],[33.2842888,45.1482765,0],[33.2882929,45.1541048,0],[33.2960348,45.1577192,0],[33.3001384,45.1620272,0],[33.29792,45.1656334,0],[33.2989631,45.1677871,0],[33.3012214,45.170642,0],[33.3052393,45.1727705,0],[33.3100572,45.1740999,0],[33.3183942,45.1745814,0],[33.3251431,45.1741248,0],[33.3315483,45.1718832,0],[33.3500155,45.1736994,0],[33.3584289,45.1782517,0],[33.3749698,45.1836789,0],[33.3802818,45.1859091,0],[33.3762863,45.1876599,0],[33.3764355,45.1918448,0],[33.3827498,45.1964713,0],[33.3911961,45.1973752,0],[33.4007706,45.1960654,0],[33.408547,45.1934437,0],[33.4159888,45.1914041,0],[33.4326521,45.1840929,0],[33.4508543,45.1742382,0],[33.4807573,45.1558915,0],[33.5092654,45.1344501,0],[33.5363775,45.1095514,0],[33.5614904,45.0810729,0],[33.5808605,45.0508807,0],[33.6025946,44.9979727,0],[33.6043773,44.9804712,0],[33.5976519,44.9765496,0],[33.6109623,44.9257206,0],[33.6105925,44.8993192,0],[33.6064479,44.8717023,0],[33.6052004,44.8663859,0],[33.6008626,44.857663,0],[33.5946361,44.847578,0],[33.5906429,44.8457225,0],[33.5868637,44.8470001,0],[33.5789642,44.8404874,0],[33.5696937,44.838843,0],[33.5610313,44.8423184,0],[33.556915,44.840587,0],[33.5529705,44.8416549,0],[33.5485127,44.8345975,0],[33.5502309,44.8222419,0],[33.549545,44.8108275,0],[33.5471428,44.8101296,0],[33.54552,44.8041697,0],[33.5406327,44.802652,0],[33.533513,44.7926079,0],[33.5407223,44.7617581,0],[33.5397766,44.7443212,0],[33.5475831,44.7244447,0],[33.5457743,44.7077982,0],[33.5474419,44.698563,0],[33.5463628,44.6779794,0],[33.5418641,44.6589325,0],[33.5356674,44.6459898,0],[33.5311908,44.6411069,0],[33.5256907,44.6383616,0],[33.5210499,44.6402578,0],[33.5124742,44.6331489,0],[33.5082713,44.6319164,0],[33.4946154,44.6177665,0],[33.4501548,44.6159461,0],[33.373305,44.5840556,0],[33.4036944,44.5532389,0],[33.4601297,44.522891,0],[33.4727333,44.5111351,0],[33.4862427,44.4949678,0],[33.5060714,44.5008455,0],[33.5540478,44.4868769,0],[33.6019479,44.4917389,0],[33.6270126,44.4795789,0],[33.6383395,44.4586871,0],[33.6455297,44.4219238,0],[33.673869,44.4128073,0],[33.7028925,44.4169259,0],[33.7330924,44.3833316,0],[33.7590046,44.3869324,0],[33.7787368,44.3814524,0],[33.8460272,44.4011421,0],[33.8824227,44.4002681,0],[33.939412,44.3896463,0],[33.9634064,44.3888504,0],[34.0349861,44.4036735,0],[34.0572323,44.4165212,0],[34.1289364,44.4278782,0],[34.1719835,44.4910109,0],[34.2603617,44.5075556,0],[34.3089458,44.5520875,0],[34.3201349,44.5510937,0],[34.334843,44.5455071,0],[34.3490348,44.5467673,0],[34.349805,44.5718498,0],[34.3543535,44.5856814,0],[34.3758165,44.5917031,0],[34.3778919,44.612309,0],[34.3834201,44.6158768,0],[34.3896775,44.6288837,0],[34.4039237,44.6397506,0],[34.4121761,44.6588071,0],[34.4321494,44.682765,0],[34.4749636,44.7150709,0],[34.5446135,44.7410058,0],[34.6256282,44.773956,0],[34.6778578,44.7878556,0],[34.7288112,44.8078253,0],[34.7479866,44.8070582,0],[34.763731,44.815057,0],[34.8309312,44.8169077,0],[34.8451661,44.8132958,0],[34.9120951,44.8157703,0],[34.9203178,44.8215301,0],[34.9209884,44.8287508,0],[34.9350343,44.8300421,0],[34.9425288,44.8338415,0],[34.9678234,44.8380274,0],[34.9809909,44.8344654,0],[34.9887006,44.8280748,0],[35.0007004,44.8320303,0],[35.0295032,44.8282486,0],[35.0472737,44.8148367,0],[35.0436659,44.7994591,0],[35.0644251,44.7971082,0],[35.0810615,44.7906125,0],[35.0939798,44.8013751,0],[35.1110222,44.8070199,0],[35.1184551,44.81723,0],[35.1331009,44.8228116,0],[35.1305686,44.8293107,0],[35.1393909,44.861252,0],[35.1441549,44.8670023,0],[35.1562446,44.8869106,0],[35.1693108,44.9002472,0],[35.177573,44.9009364,0],[35.1905563,44.9078868,0],[35.2056017,44.9102155,0],[35.2166123,44.9090052,0],[35.2436533,44.9167916,0],[35.2565197,44.9384226,0],[35.2498252,44.9528227,0],[35.2584087,44.9609038,0],[35.2712818,44.9675955,0],[35.2836408,44.9661604,0],[35.2949869,44.9597113,0],[35.3015176,44.9657761,0],[35.3228067,44.9664406,0],[35.3224657,44.9592101,0],[35.3443152,44.9641879,0],[35.3518029,44.954952,0],[35.3829729,44.943891,0],[35.3940383,44.954933,0],[35.3561029,44.9773304,0],[35.3584162,44.9855521,0],[35.3667392,44.9925592,0],[35.395224,44.999343,0],[35.4286932,45.0129122,0],[35.4126517,45.0257778,0],[35.3859656,45.0352458,0],[35.3893992,45.0494442,0],[35.4146384,45.0754096,0],[35.4510629,45.0973661,0],[35.5413462,45.1258609,0],[35.5849604,45.1293588,0],[35.6297695,45.1223028,0],[35.6921353,45.1046258,0],[35.7487927,45.0814648,0],[35.7778784,45.0663038,0],[35.7853272,45.0576281,0],[35.8048863,45.0455584,0],[35.8144831,45.0333055,0],[35.8101654,45.0214182,0],[35.8219474,45.0192032,0],[35.8297795,45.0140758,0],[35.8341133,45.0091003,0],[35.8282777,45.0045517,0],[35.834801,44.9992133,0],[35.8420962,44.9983656,0],[35.870587,45.0041863,0],[35.8793425,45.009765,0],[35.9002865,45.0141894,0],[35.907658,45.0180791,0],[35.9258506,45.019111,0],[35.9540827,45.0112187,0],[35.9842147,45.0228593,0],[35.994952,45.0351096,0],[36.0125613,45.0449319,0],[36.035405,45.0492158,0],[36.07129,45.0482523,0],[36.1600369,45.035925,0],[36.2010446,45.0330226,0],[36.2134931,45.0280697,0],[36.2256841,45.0268156,0],[36.2479305,45.0406804,0],[36.2491529,45.0476867,0],[36.2821366,45.0549895,0],[36.3093286,45.0579225,0],[36.3377238,45.0583023,0],[36.372884,45.0574746,0],[36.3909776,45.0653589,0],[36.4400958,45.0833272,0],[36.456018,45.095623,0],[36.4546058,45.105555,0],[36.4396986,45.1167266,0],[36.4331798,45.1176913,0],[36.4256283,45.1288927,0],[36.4258005,45.1344018,0],[36.4225424,45.1369381,0],[36.4214277,45.1529159,0],[36.4177792,45.1642945,0],[36.4077775,45.1728889,0],[36.4077336,45.1934044,0],[36.4039117,45.2141617,0],[36.4120194,45.2258774,0],[36.4230493,45.2372296,0],[36.4237068,45.2452621,0],[36.4357829,45.2580657,0],[36.4396195,45.2716223,0],[36.4363329,45.2762391,0],[36.4260118,45.2786405,0],[36.4216626,45.286584,0],[36.4351793,45.2950728,0],[36.4844376,45.3054783,0],[36.499502,45.3186747,0],[36.4888368,45.3246085,0],[36.4732904,45.3307439,0],[36.4720407,45.3412333,0],[36.4778117,45.3491316,0],[36.4836435,45.3508635,0],[36.5182864,45.351539,0],[36.535225,45.3499175,0],[36.5349814,45.3456374,0],[36.5443505,45.3447352,0],[36.564437,45.3471145,0],[36.5923381,45.3465005,0],[36.5965542,45.3450314,0],[36.6059899,45.3477328,0],[36.6120254,45.3559382,0],[36.6256434,45.3607631,0],[36.6305692,45.360521,0],[36.6332174,45.362811,0],[36.6301062,45.3737863,0],[36.6334998,45.3756526,0],[36.6432106,45.3778134,0],[36.6487328,45.3829201,0],[36.6411992,45.3906659,0],[36.6346424,45.391737,0],[36.6112727,45.407542,0],[36.607593,45.4125733,0],[36.611498,45.4149214,0],[36.6155303,45.4222714,0],[36.6063464,45.4287203,0],[36.5982765,45.438662,0],[36.5870361,45.4412702,0],[36.57528,45.442252,0],[36.5656719,45.4366253,0],[36.5659405,45.4284433,0],[36.5544666,45.4243677,0],[36.5478306,45.4256107,0],[36.5326724,45.4271898,0],[36.5188279,45.433521,0],[36.506954,45.4422601,0],[36.4997463,45.4454839,0],[36.495456,45.450514,0],[36.4820621,45.455771,0],[36.4705485,45.4585138,0],[36.4610927,45.4564353,0],[36.4471741,45.4601348,0],[36.4415354,45.4554057,0],[36.4420638,45.4532818,0],[36.4340095,45.4506761,0],[36.4324737,45.4478753,0],[36.4214228,45.4460021,0],[36.4154584,45.4468248,0],[36.40184,45.450177,0],[36.3766024,45.4636891,0],[36.372894,45.4713796,0],[36.357563,45.4716171,0],[36.3455144,45.4808912,0],[36.3448483,45.4843068,0],[36.3393304,45.4825134,0],[36.3400479,45.4775846,0],[36.3363024,45.4742206,0],[36.3228675,45.4712969,0],[36.307976,45.4754137,0],[36.2936833,45.483861,0],[36.2653446,45.4785656,0],[36.1703899,45.4723606,0],[36.1238705,45.4636175,0],[36.0687847,45.4454632,0],[36.0689422,45.404374,0],[36.0428495,45.3840091,0],[35.99701,45.3714908,0],[35.9412212,45.3800441,0],[35.8868417,45.4077745,0],[35.8465069,45.446506,0],[35.8636895,45.4542195,0],[35.8760595,45.4638555,0],[35.8678308,45.4732506,0],[35.8417749,45.4744726,0],[35.8236493,45.4663203,0],[35.8177466,45.4588693,0],[35.8183678,45.4514182,0],[35.8264752,45.4401288,0],[35.8023584,45.4242928,0],[35.7489289,45.3963309,0],[35.7457265,45.3906603,0],[35.7488888,45.3846329,0],[35.7609848,45.3812582,0],[35.7537278,45.3665483,0],[35.7248509,45.3515944,0],[35.7155703,45.3384578,0],[35.6329034,45.3245839,0],[35.5258253,45.2911927,0],[35.4987587,45.3061765,0],[35.467835,45.3075439,0],[35.3820643,45.3525144,0],[35.3112561,45.411424,0],[35.2014582,45.5233432,0]]]},"properties":{"name":"Окупований Крим /// Occupied Crimea","styleUrl":"#poly-880E4F-1200-77-nodesc","styleHash":"-6b23f4d9","styleMapHash":{"normal":"#poly-880E4F-1200-77-nodesc-normal","highlight":"#poly-880E4F-1200-77-nodesc-highlight"},"stroke-opacity":1,"stroke":"#880e4f","stroke-width":1.2,"fill-opacity":0.30196078431372547,"fill":"#880e4f"}},{"type":"Feature","geometry":{"type":"Polygon","coordinates":[[[29.244774,47.1684368,0],[29.2476923,47.1639435,0],[29.2700511,47.151804,0],[29.275716,47.1483016,0],[29.2885906,47.1438651,0],[29.2952854,47.1400119,0],[29.2968303,47.1313706,0],[29.2940837,47.1224942,0],[29.2915088,47.1154855,0],[29.2935688,47.1092937,0],[29.3011219,47.1056718,0],[29.3083594,47.103346,0],[29.3143676,47.1028786,0],[29.3196891,47.1032292,0],[29.3286155,47.1054492,0],[29.3371986,47.1075523,0],[29.3457816,47.1057997,0],[29.3500732,47.1005416,0],[29.354193,47.0953999,0],[29.3586562,47.0840629,0],[29.3602012,47.077166,0],[29.3650077,47.0714375,0],[29.366896,47.0699175,0],[29.3741057,47.062785,0],[29.3777106,47.0614987,0],[29.3832038,47.0604462,0],[29.3895553,47.060797,0],[29.3924735,47.0590429,0],[29.3880103,47.0569379,0],[29.3830321,47.0560023,0],[29.3802856,47.0524937,0],[29.3790839,47.048283,0],[29.3795989,47.0434872,0],[29.3804572,47.0391588,0],[29.3837188,47.0360001,0],[29.3880103,47.0329582,0],[29.3873237,47.02898,0],[29.3837188,47.0258206,0],[29.3778823,47.0257036,0],[29.3725608,47.0264057,0],[29.3656943,47.0282779,0],[29.3627761,47.0317881,0],[29.3615745,47.0381059,0],[29.3589995,47.0406796,0],[29.3545364,47.0392758,0],[29.3545364,47.0356491,0],[29.3565963,47.0312031,0],[29.3591712,47.0267568,0],[29.3617461,47.0233632,0],[29.3655227,47.0172778,0],[29.3689559,47.0135325,0],[29.3722175,47.0082653,0],[29.3763373,47.0029976,0],[29.3761657,46.9963244,0],[29.3739341,46.9937486,0],[29.3614028,46.9926948,0],[29.3462966,46.9922264,0],[29.3310187,46.992929,0],[29.3178008,46.9959732,0],[29.3088744,46.9959732,0],[29.3083594,46.9904701,0],[29.3081878,46.9849664,0],[29.3040679,46.98239,0],[29.2990897,46.9853177,0],[29.3006347,46.9896504,0],[29.3033813,46.9933973,0],[29.3061278,46.9980806,0],[29.3021796,47.0007733,0],[29.2953132,46.9984318,0],[29.2920516,46.9950365,0],[29.291365,46.988011,0],[29.2930816,46.9800477,0],[29.2987464,46.97548,0],[29.3054412,46.9714975,0],[29.3100761,46.9662262,0],[29.312136,46.9642346,0],[29.3155692,46.9598999,0],[29.3224357,46.9524011,0],[29.3299888,46.9495887,0],[29.3402885,46.9430261,0],[29.3489595,46.9385073,0],[29.3605445,46.9345872,0],[29.3722175,46.933415,0],[29.3811439,46.9345872,0],[29.3928168,46.9378691,0],[29.4003699,46.9444324,0],[29.4065497,46.9495887,0],[29.4141028,46.9556819,0],[29.4199393,46.9615401,0],[29.4271491,46.9655233,0],[29.4384788,46.965289,0],[29.4494651,46.9617744,0],[29.4518684,46.9584939,0],[29.4580482,46.9526354,0],[29.463198,46.9502918,0],[29.4714377,46.9505262,0],[29.4752143,46.9441981,0],[29.4764159,46.9363454,0],[29.4755576,46.9298984,0],[29.4736693,46.9253263,0],[29.4729827,46.9193469,0],[29.4680045,46.9106698,0],[29.464743,46.9062134,0],[29.4480918,46.9018739,0],[29.4546149,46.8908478,0],[29.4635413,46.8881495,0],[29.4673179,46.8809927,0],[29.4848273,46.8843952,0],[29.4846557,46.8762991,0],[29.4841407,46.8706664,0],[29.4837974,46.8649156,0],[29.4884322,46.8555253,0],[29.4891832,46.8537645,0],[29.4792269,46.8531188,0],[29.4744633,46.8469846,0],[29.4706867,46.8508002,0],[29.4692276,46.8536177,0],[29.4681118,46.8562003,0],[29.4657086,46.8572568,0],[29.4593571,46.8576089,0],[29.4550655,46.855496,0],[29.4529198,46.8547329,0],[29.4484566,46.8544395,0],[29.4379852,46.8598392,0],[29.4333504,46.8614825,0],[29.4321488,46.8596044,0],[29.4357536,46.8529133,0],[29.4357536,46.8493914,0],[29.4103478,46.8466911,0],[29.4048546,46.8462214,0],[29.4041679,46.8328351,0],[29.4050263,46.8158038,0],[29.3978165,46.8185057,0],[29.3964432,46.8068749,0],[29.3969582,46.8046425,0],[29.4069145,46.8033499,0],[29.4084595,46.7766701,0],[29.4024513,46.774554,0],[29.4014214,46.7584451,0],[29.4120644,46.7590331,0],[29.414296,46.7551521,0],[29.4582413,46.7592683,0],[29.4621895,46.773731,0],[29.4697426,46.7716148,0],[29.4754074,46.7803144,0],[29.4839905,46.7824303,0],[29.4875954,46.781725,0],[29.4891403,46.7781984,0],[29.5059631,46.7799618,0],[29.5081947,46.7846637,0],[29.5104263,46.7883075,0],[29.5123146,46.7888951,0],[29.5148895,46.784076,0],[29.5251892,46.7805495,0],[29.5349739,46.777258,0],[29.5418404,46.7781984,0],[29.5340298,46.7746716,0],[29.5366905,46.7709093,0],[29.5410679,46.767676,0],[29.5499943,46.7669705,0],[29.5586632,46.7557402,0],[29.5598648,46.7420961,0],[29.5567749,46.7353903,0],[29.5586632,46.7242123,0],[29.5562599,46.7173867,0],[29.5629547,46.7142089,0],[29.5825241,46.7138559,0],[29.5742844,46.72433,0],[29.5718811,46.7325666,0],[29.5727394,46.7403315,0],[29.5811508,46.7432724,0],[29.5935104,46.7431548,0],[29.6070717,46.7409197,0],[29.6273277,46.7412726,0],[29.6426056,46.7431548,0],[29.6573685,46.7443311,0],[29.6573685,46.7358609,0],[29.6693848,46.7330373,0],[29.6697281,46.7212703,0],[29.6635483,46.7123258,0],[29.6669815,46.7036151,0],[29.6583126,46.7014373,0],[29.6486137,46.7010841,0],[29.6483563,46.6953741,0],[29.6549652,46.6953152,0],[29.6511887,46.6910764,0],[29.6599434,46.6897812,0],[29.6547936,46.6856597,0],[29.6527336,46.6822446,0],[29.6551369,46.6767093,0],[29.6635483,46.6752959,0],[29.6676682,46.6754137,0],[29.6741913,46.6763559,0],[29.6779678,46.6755315,0],[29.6814011,46.673058,0],[29.6858643,46.6717623,0],[29.6912716,46.6727635,0],[29.6943615,46.6741769,0],[29.6952198,46.6790059,0],[29.6993397,46.678417,0],[29.7013996,46.6760615,0],[29.7008846,46.6708789,0],[29.6984814,46.666756,0],[29.7000263,46.6649889,0],[29.7063778,46.6642821,0],[29.7091244,46.6620437,0],[29.7147892,46.6589806,0],[29.7182224,46.6576846,0],[29.722514,46.6589806,0],[29.7268055,46.6613369,0],[29.7254322,46.6652246,0],[29.721999,46.6681696,0],[29.7244022,46.6718212,0],[29.7292088,46.6718212,0],[29.7357319,46.6700543,0],[29.7369335,46.667345,0],[29.7400234,46.6646355,0],[29.7434567,46.6659314,0],[29.7451733,46.6682874,0],[29.754958,46.6688764,0],[29.7619961,46.668523,0],[29.7649143,46.6651068,0],[29.7592495,46.656742,0],[29.7547863,46.6514397,0],[29.7561596,46.6473153,0],[29.7654293,46.6516754,0],[29.7734974,46.6556816,0],[29.774699,46.6502613,0],[29.7643993,46.6479045,0],[29.7595928,46.645312,0],[29.7673176,46.6376513,0],[29.7729824,46.6411871,0],[29.7786472,46.6364727,0],[29.7781323,46.633408,0],[29.7649143,46.6337617,0],[29.7585629,46.6338795,0],[29.7515247,46.6306969,0],[29.7597645,46.6259815,0],[29.7630261,46.6227984,0],[29.7626827,46.619733,0],[29.7585629,46.6212657,0],[29.7546146,46.6237415,0],[29.7482632,46.6262173,0],[29.7424267,46.625392,0],[29.7425984,46.6232699,0],[29.7455166,46.6204404,0],[29.7522114,46.6172569,0],[29.7558163,46.615842,0],[29.7504948,46.614427,0],[29.7479199,46.614427,0],[29.7496365,46.6117149,0],[29.7472332,46.6079413,0],[29.7420834,46.6061724,0],[29.7374485,46.6098282,0],[29.7338436,46.6057006,0],[29.731097,46.6007472,0],[29.7232006,46.6021625,0],[29.722514,46.5990959,0],[29.731097,46.5948496,0],[29.7389935,46.5931982,0],[29.7513531,46.5898952,0],[29.7602795,46.5901311,0],[29.7671459,46.5894233,0],[29.7664593,46.5856481,0],[29.7760723,46.5814008,0],[29.7843121,46.578569,0],[29.7925518,46.5823447,0],[29.795985,46.5804569,0],[29.7983883,46.5851762,0],[29.7946117,46.5896592,0],[29.795985,46.5948496,0],[29.8042248,46.5922545,0],[29.806628,46.5870639,0],[29.8107479,46.5894233,0],[29.807658,46.5943778,0],[29.8055981,46.6016907,0],[29.7977017,46.6021625,0],[29.8018215,46.6059365,0],[29.8090313,46.6040495,0],[29.8176144,46.6014548,0],[29.8134945,46.5962651,0],[29.8138378,46.5856481,0],[29.8207043,46.590603,0],[29.8237942,46.5969728,0],[29.8217342,46.6026343,0],[29.828944,46.6016907,0],[29.8306606,46.5974446,0],[29.8323773,46.5953215,0],[29.8399304,46.5969728,0],[29.8368404,46.5891874,0],[29.828944,46.586356,0],[29.8258541,46.5817547,0],[29.8311756,46.579631,0],[29.8394154,46.5817547,0],[29.8457668,46.5860021,0],[29.8495434,46.5891874,0],[29.8531483,46.586474,0],[29.8533199,46.5822267,0],[29.8560665,46.579513,0],[29.8625897,46.578333,0],[29.8713444,46.578687,0],[29.8718594,46.5822267,0],[29.8713444,46.5875358,0],[29.8770092,46.5861201,0],[29.8780392,46.5825806,0],[29.8752926,46.578333,0],[29.8685978,46.5760911,0],[29.8625897,46.5737311,0],[29.861388,46.571253,0],[29.8670528,46.5706629,0],[29.8734043,46.5704269,0],[29.8716877,46.5686567,0],[29.8596714,46.5696008,0],[29.8598431,46.5666504,0],[29.8631046,46.564408,0],[29.8696278,46.5626376,0],[29.8794125,46.5624016,0],[29.883189,46.5638179,0],[29.8897122,46.5594508,0],[29.893832,46.556854,0],[29.8964069,46.5526043,0],[29.8922871,46.5500072,0],[29.8869656,46.5524863,0],[29.8795841,46.5557916,0],[29.8795841,46.5588606,0],[29.8718594,46.5580344,0],[29.8739193,46.5504794,0],[29.8761509,46.5462293,0],[29.8778675,46.5426873,0],[29.8816441,46.5417427,0],[29.8845623,46.5462293,0],[29.8876522,46.5474099,0],[29.9455021,46.5549653,0],[29.9479054,46.5615754,0],[29.9386356,46.5596869,0],[29.9427555,46.5667684,0],[29.949622,46.5684207,0],[29.9376057,46.5703089,0],[29.9345158,46.5804569,0],[29.936919,46.5835245,0],[29.9352024,46.5884795,0],[29.9393223,46.5894233,0],[29.9444721,46.5842324,0],[29.9633549,46.5837605,0],[29.9681614,46.5990959,0],[29.9585484,46.6094744,0],[29.9544285,46.6182002,0],[29.9530552,46.6271604,0],[29.9558018,46.6387121,0],[29.9479054,46.6434264,0],[29.9489353,46.6521467,0],[29.9544285,46.6582737,0],[29.958205,46.6707611,0],[29.9623249,46.682068,0],[29.969878,46.6860719,0],[29.9678181,46.700672,0],[29.9659784,46.712263,0],[29.96821,46.7212076,0],[29.969755,46.72968,0],[29.9707849,46.736857,0],[29.9723299,46.7409746,0],[29.9742182,46.7450918,0],[29.974309,46.7536004,0],[29.9661551,46.7558938,0],[29.9655543,46.7595983,0],[29.9664126,46.771592,0],[29.9429415,46.7950167,0],[29.9343584,46.8060626,0],[29.9625108,46.818046,0],[29.9783037,46.8166363,0],[29.9803636,46.8201604,0],[29.9714372,46.8248588,0],[29.9676607,46.8319057,0],[29.958391,46.8370729,0],[29.9491213,46.8427092,0],[29.9250887,46.8349591,0],[29.9316118,46.8286173,0],[29.9062059,46.8192207,0],[29.8825166,46.850693,0],[29.8928163,46.8530409,0],[29.8825166,46.8882477,0],[29.8454378,46.8812082,0],[29.850931,46.8746371,0],[29.7486208,46.8614926,0],[29.7348543,46.9206888,0],[29.7184084,46.9182725,0],[29.7128816,46.9338188,0],[29.6991823,46.9239003,0],[29.6476839,46.9206175,0],[29.6366976,46.957186,0],[29.5694063,46.9403113,0],[29.5536134,46.957186,0],[29.6016786,46.9656213,0],[29.6003053,47.0414794,0],[29.6284578,47.0456906,0],[29.6120304,47.0998224,0],[29.5502323,47.095148,0],[29.5474857,47.0736407,0],[29.5145268,47.1110392,0],[29.4884342,47.113843,0],[29.4939274,47.1278599,0],[29.5804447,47.1372025,0],[29.5516056,47.2538461,0],[29.5982975,47.2575744,0],[29.5782991,47.367164,0],[29.4856876,47.3609318,0],[29.4815678,47.3274326,0],[29.4856876,47.3069505,0],[29.430756,47.2911179,0],[29.4183964,47.3069505,0],[29.408011,47.296427,0],[29.3970247,47.341114,0],[29.4074101,47.3637224,0],[29.3868107,47.3823229,0],[29.3428654,47.3711634,0],[29.3140263,47.4483016,0],[29.2426151,47.4185749,0],[29.2426151,47.464087,0],[29.1863102,47.4260082,0],[29.1849369,47.4464442,0],[29.1986698,47.4631586,0],[29.1588444,47.4520162,0],[29.1519779,47.4668722,0],[29.1835636,47.4733704,0],[29.1904301,47.499355,0],[29.1849369,47.5188351,0],[29.1464848,47.5058492,0],[29.1148991,47.5512857,0],[29.1657108,47.5707465,0],[29.1904301,47.5707465,0],[29.1863102,47.5911262,0],[29.2034715,47.5969504,0],[29.2003816,47.6034324,0],[29.2161745,47.6122283,0],[29.2106813,47.6293527,0],[29.2196077,47.6272703,0],[29.2336839,47.642308,0],[29.2072481,47.6427706,0],[29.2110246,47.6587289,0],[29.219951,47.6584976,0],[29.2196077,47.6802301,0],[29.2312807,47.6843906,0],[29.2028008,47.7194487,0],[29.215847,47.7383851,0],[29.2515526,47.7522367,0],[29.2803917,47.8039167,0],[29.2481194,47.8122176,0],[29.2316399,47.7979208,0],[29.2165337,47.798382,0],[29.1973076,47.818673,0],[29.2051277,47.8377647,0],[29.2254601,47.8546238,0],[29.239193,47.8661413,0],[29.2784185,47.886026,0],[29.217907,47.8859453,0],[29.2234977,47.8901741,0],[29.2185195,47.8955839,0],[29.2143997,47.8925913,0],[29.212683,47.8875265,0],[29.2099365,47.8854544,0],[29.2013534,47.8844184,0],[29.1977485,47.8963896,0],[29.1846835,47.9660878,0],[29.1771304,47.9656281,0],[29.1750704,47.9913683,0],[29.1249453,47.9941254,0],[29.1304385,47.9817172,0],[29.1070925,47.9835557,0],[29.0878665,47.9780401,0],[29.0995394,47.9610302,0],[29.081,47.972524,0],[29.0871798,47.9467744,0],[29.0658938,47.9430948,0],[29.0446078,47.9458545,0],[29.026755,47.9458545,0],[29.0116488,47.9545926,0],[28.9986025,47.9596508,0],[28.9766299,47.9706852,0],[28.9622103,47.9784998,0],[28.9271914,47.9612601,0],[28.8784396,48.0003284,0],[28.8880526,48.0058415,0],[28.8835894,48.0088276,0],[28.8890826,48.0115838,0],[28.8938891,48.0088276,0],[28.9021289,48.0102057,0],[28.9010989,48.0129618,0],[28.8870226,48.0141101,0],[28.8815295,48.0111244,0],[28.8677966,48.0173253,0],[28.8695132,48.0196218,0],[28.8595568,48.0219182,0],[28.8547503,48.0189329,0],[28.8564669,48.0278882,0],[28.8379627,48.0356595,0],[28.8544422,48.0618237,0],[28.8420826,48.068248,0],[28.8516956,48.0728363,0],[28.8407093,48.0769654,0],[28.8565022,48.1012744,0],[28.8448292,48.1251136,0],[28.8283497,48.1278636,0],[28.8132435,48.1237386,0],[28.8050037,48.1333631,0],[28.7919575,48.1274053,0],[28.7741047,48.1260303,0],[28.7548786,48.1374873,0],[28.7274128,48.1310717,0],[28.7033802,48.1274053,0],[28.6889607,48.1241969,0],[28.678661,48.141153,0],[28.6841541,48.1480255,0],[28.6436421,48.1439021,0],[28.6477619,48.1530648,0],[28.6264759,48.1571874,0],[28.6086231,48.1581035,0],[28.5928303,48.1718431,0],[28.5756641,48.1663477,0],[28.5703035,48.1738358,0],[28.5433918,48.1663477,0],[28.5351521,48.1571874,0],[28.5262257,48.154439,0],[28.5071321,48.153684,0],[28.5200459,48.1379456,0],[28.5001331,48.1260303,0],[28.4997898,48.1209884,0],[28.4956338,48.1191235,0],[28.4946789,48.1195604,0],[28.4945287,48.119367,0],[28.4918894,48.1188442,0],[28.4987773,48.1152413,0],[28.4995311,48.1154671,0],[28.5091442,48.1216554,0],[28.5218471,48.1209679,0],[28.5410732,48.1182175,0],[28.5640758,48.1101949,0],[28.5784954,48.1044636,0],[28.5939449,48.0980439,0],[28.611111,48.0955216,0],[28.6255306,48.0925406,0],[28.632397,48.0881835,0],[28.6354869,48.0796974,0],[28.633427,48.0702922,0],[28.621754,48.0643271,0],[28.6128276,48.064786,0],[28.6059612,48.0774036,0],[28.5990947,48.0760273,0],[28.5960048,48.0668509,0],[28.5891384,48.056755,0],[28.5884517,48.0482637,0],[28.5750621,48.0425256,0],[28.5530895,48.0393119,0],[28.5441631,48.0358685,0],[28.5427898,48.0271442,0],[28.5362667,48.021863,0],[28.5283702,48.0129066,0],[28.5318035,48.0034893,0],[28.5390132,47.9984354,0],[28.5465663,47.9972867,0],[28.5599559,47.9922321,0],[28.5750621,47.9984354,0],[28.578152,48.0078536,0],[28.5877651,48.0172702,0],[28.590855,48.0276034,0],[28.5932582,48.0349503,0],[28.6087127,48.0370175,0],[28.6207241,48.0298994,0],[28.6368602,48.0276034,0],[28.6509365,48.0257665,0],[28.6773723,48.0276034,0],[28.7024349,48.0234704,0],[28.7048381,48.0129066,0],[28.7027782,48.0032596,0],[28.7141078,47.9959082,0],[28.730244,47.9812024,0],[28.7460369,47.9761463,0],[28.7563365,47.9754568,0],[28.7625163,47.9784446,0],[28.773846,47.9848792,0],[28.7882656,47.9864878,0],[28.7944454,47.9812024,0],[28.7927288,47.9713195,0],[28.8013118,47.963274,0],[28.8157314,47.9506284,0],[28.8298076,47.9441895,0],[28.8353008,47.9347596,0],[28.8284343,47.925558,0],[28.8201946,47.9117527,0],[28.8250011,47.9016264,0],[28.8356441,47.8974832,0],[28.8528102,47.897253,0],[28.8730663,47.8947209,0],[28.8867992,47.890347,0],[28.9080852,47.8857425,0],[28.925938,47.8843611,0],[28.9424175,47.8848216,0],[28.9503139,47.8811376,0],[28.9571804,47.8811376,0],[28.9702266,47.8783744,0],[28.9815563,47.876302,0],[28.9901393,47.8737689,0],[28.9987224,47.8701992,0],[29.0061038,47.8658233,0],[29.0191501,47.8559184,0],[29.0251583,47.8486612,0],[29.02327,47.841864,0],[29.0177768,47.8323002,0],[29.0107387,47.8253855,0],[29.0078205,47.8160493,0],[29.0016406,47.8087866,0],[28.9937442,47.8002545,0],[28.9884227,47.7905677,0],[28.9870494,47.782494,0],[28.9834445,47.7688813,0],[28.9803546,47.757573,0],[28.9810413,47.7455698,0],[28.9734882,47.7303309,0],[28.967995,47.7199382,0],[28.9721149,47.7044608,0],[28.979668,47.6924453,0],[28.9861911,47.6718738,0],[28.991341,47.6584634,0],[28.9958042,47.6503692,0],[28.9927143,47.6390352,0],[28.9855045,47.6263105,0],[28.9831012,47.6133512,0],[28.9937442,47.6013147,0],[29.0088504,47.5902017,0],[29.0270465,47.5723695,0],[29.0273899,47.5512874,0],[29.0208667,47.536687,0],[29.0253299,47.518373,0],[29.0414661,47.5102571,0],[29.0606922,47.4995886,0],[29.0768283,47.4928617,0],[29.0967411,47.4831177,0],[29.1080707,47.4712834,0],[29.1180271,47.4585179,0],[29.1060108,47.4450527,0],[29.0909046,47.4369255,0],[29.0788883,47.4241516,0],[29.0778583,47.4141626,0],[29.0915912,47.4048688,0],[29.1077274,47.3927844,0],[29.1321033,47.3816271,0],[29.1492694,47.3695374,0],[29.1588825,47.3590729,0],[29.1640323,47.3474433,0],[29.1605991,47.337905,0],[29.1468662,47.3306921,0],[29.13176,47.3288305,0],[29.1276401,47.3255726,0],[29.1228336,47.3167287,0],[29.1245502,47.3102111,0],[29.1338199,47.3090472,0],[29.1475528,47.3104439,0],[29.163689,47.3167287,0],[29.1726154,47.3207435,0],[29.1822284,47.325398,0],[29.1957038,47.3292377,0],[29.2094367,47.3331353,0],[29.2205947,47.3256889,0],[29.2394775,47.3395336,0],[29.2484039,47.346978,0],[29.2616218,47.3526769,0],[29.2707199,47.3629101,0],[29.2829078,47.3724438,0],[29.288401,47.37814,0],[29.2983573,47.3841842,0],[29.3129486,47.3799998,0],[29.3227333,47.3695374,0],[29.3235916,47.360352,0],[29.2957824,47.3481411,0],[29.2727798,47.3383703,0],[29.2532104,47.334764,0],[29.224028,47.3137028,0],[29.2075485,47.296708,0],[29.1946739,47.3039256,0],[29.1744178,47.2963588,0],[29.1596549,47.2939139,0],[29.1455787,47.2930989,0],[29.1277259,47.2880922,0],[29.1143363,47.2819205,0],[29.1272109,47.2733022,0],[29.1342541,47.2674838,0],[29.1418072,47.2609602,0],[29.1467854,47.2540863,0],[29.1478153,47.2481437,0],[29.1497036,47.2446478,0],[29.1567417,47.2394034,0],[29.1612049,47.2329929,0],[29.1632648,47.227048,0],[29.1670414,47.2198199,0],[29.1706463,47.2152726,0],[29.179401,47.214573,0],[29.1861516,47.2155202,0],[29.187071,47.2160354,0],[29.18701,47.2131299,0],[29.1897565,47.2077658,0],[29.1911298,47.2014681,0],[29.195593,47.1944698,0],[29.2007429,47.1895704,0],[29.2093259,47.1821039,0],[29.2223722,47.17697,0],[29.217909,47.1650669,0],[29.2337018,47.1526941,0],[29.2405683,47.159231,0],[29.2409116,47.1711355,0],[29.2411156,47.1714053,0],[29.244774,47.1684368,0]],[[29.1870743,47.2161906,0],[29.187071,47.2160354,0],[29.1872206,47.2161193,0],[29.1870743,47.2161906,0]],[[29.1872206,47.2161193,0],[29.1879112,47.2157826,0],[29.188748,47.2138003,0],[29.1893918,47.2119346,0],[29.1899711,47.2100835,0],[29.1904217,47.2080281,0],[29.1907436,47.2065413,0],[29.1937047,47.1991792,0],[29.1957218,47.196963,0],[29.1979534,47.1943969,0],[29.2003137,47.1921806,0],[29.2044765,47.1880976,0],[29.2062789,47.1868143,0],[29.2167503,47.1800766,0],[29.2222435,47.1785306,0],[29.2264492,47.1769846,0],[29.2394525,47.1727546,0],[29.2411156,47.1714053,0],[29.2532712,47.1874706,0],[29.2433149,47.2000685,0],[29.249838,47.2012348,0],[29.2601377,47.1954029,0],[29.2852003,47.2038006,0],[29.2810804,47.2117306,0],[29.2954999,47.239476,0],[29.3126661,47.2397091,0],[29.3305189,47.2571882,0],[29.3442518,47.2592853,0],[29.3610746,47.2849099,0],[29.3428785,47.2914305,0],[29.3092329,47.2662751,0],[29.3020231,47.2674399,0],[29.2941267,47.2604503,0],[29.2776472,47.267207,0],[29.2608243,47.254858,0],[29.250868,47.2634793,0],[29.2385084,47.2618483,0],[29.2312986,47.2529938,0],[29.2191106,47.2518286,0],[29.2141325,47.2425062,0],[29.2155057,47.2372616,0],[29.197653,47.2307343,0],[29.2024595,47.2244393,0],[29.1931039,47.2197759,0],[29.1895849,47.2174441,0],[29.1872206,47.2161193,0]]]},"properties":{"name":"Придністров'я","styleUrl":"#poly-880E4F-1200-77-nodesc","styleHash":"-6b23f4d9","styleMapHash":{"normal":"#poly-880E4F-1200-77-nodesc-normal","highlight":"#poly-880E4F-1200-77-nodesc-highlight"},"stroke-opacity":1,"stroke":"#880e4f","stroke-width":1.2,"fill-opacity":0.30196078431372547,"fill":"#880e4f"}}]}