{"type":"FeatureCollection","name":"deepstatemap_data_20220924","sourceHistoryId":1664055163,"sourceCreatedAt":"2022-09-24T21:32:43.000Z","crs":{"type":"name","properties":{"name":"urn:ogc:def:crs:OGC:1.3:CRS84"}},"features":[{"type":"Feature","properties":{"controlStatus":"russian_occupied"},"geometry":{"type":"MultiPolygon","coordinates":[[[[36.5192425,45.2939885],[36.5071402,45.2955583],[36.5182982,45.288856],[36.5333187,45.2797976],[36.5377819,45.2739994],[36.54585,45.2680798],[36.5491116,45.2613139],[36.5715991,45.2500758],[36.5782939,45.2490485],[36.557012,45.2670518],[36.5470516,45.2796768],[36.5317737,45.2861989],[36.5192425,45.2939885]]],[[[39.0828906,47.8516037],[39.1093893,47.8517524],[39.1095354,47.8427473],[39.1496824,47.8425817],[39.2362131,47.8539532],[39.2417337,47.8670136],[39.3904498,47.8661846],[39.4125292,47.830898],[39.4257838,47.8358944],[39.4373545,47.8398339],[39.4462501,47.850644],[39.4784743,47.8594741],[39.5203078,47.825141],[39.5344907,47.83253],[39.542168,47.8249813],[39.5655871,47.836556],[39.7379104,47.8277291],[39.7631843,47.8465373],[39.7625051,47.8701448],[39.7949406,47.8668329],[39.7939036,47.9158973],[39.8065943,47.9336659],[39.8058884,47.9505616],[39.8273909,47.9508344],[39.8198438,47.9677616],[39.8154078,47.9708664],[39.8151166,47.9736166],[39.8175382,47.9766456],[39.8198493,47.9774461],[39.8227982,47.979535],[39.8230314,47.9835403],[39.8167173,47.9845419],[39.8192697,47.989754],[39.8180234,47.9954669],[39.8141575,47.9968407],[39.8139717,47.9984877],[39.8165185,48.0001159],[39.8171489,48.001477],[39.8109753,48.0048562],[39.8045408,48.0064594],[39.8029984,48.0079476],[39.7976869,48.0093062],[39.7952175,48.0107026],[39.7853113,48.0230784],[39.7867767,48.0250342],[39.7796623,48.0393364],[39.8772075,48.0413783],[39.8858862,48.0478658],[39.8322015,48.0664997],[39.8685845,48.0794444],[39.8799506,48.1151645],[39.9102753,48.1384164],[39.9091838,48.1693296],[39.9138857,48.178015],[39.9409345,48.1808104],[39.9421938,48.2307436],[39.9533041,48.2294084],[39.9722759,48.2270247],[40.0008684,48.2252447],[40.0033787,48.2236859],[40.0075402,48.2233125],[40.0083965,48.2251387],[40.0082215,48.2281045],[40.007443,48.2300907],[40.0043418,48.2323477],[40.0039768,48.2360612],[40.0027322,48.2375353],[40.0030757,48.2394758],[40.0073233,48.2420581],[40.0195095,48.2525075],[40.0188624,48.2531159],[40.0189201,48.2541039],[40.018671,48.2550513],[40.0189886,48.2570604],[40.0155045,48.2626787],[40.0167773,48.2694579],[40.0138295,48.2715898],[40.0089633,48.2726545],[39.9997448,48.28929],[40.0005341,48.2917165],[39.9966002,48.2979383],[39.9950166,48.3008469],[39.994253,48.303181],[39.9926583,48.3056192],[39.9919216,48.3060016],[39.9920796,48.3097349],[39.9939839,48.3120065],[39.9941876,48.3126963],[39.9935222,48.3128773],[39.9932215,48.3135961],[39.9909894,48.3160613],[39.9910744,48.3165824],[39.9908152,48.3170825],[39.9869491,48.3175119],[39.9853108,48.317001],[39.9841797,48.3162073],[39.9825182,48.3157045],[39.9803108,48.3157835],[39.9788999,48.315713],[39.9776231,48.3151726],[39.9754983,48.31432],[39.9744246,48.3134708],[39.9724916,48.3129711],[39.9710288,48.3116291],[39.9718799,48.3097157],[39.9707928,48.3089713],[39.9712364,48.3077965],[39.9712653,48.3073022],[39.9708083,48.3070844],[39.9687353,48.3071341],[39.9676365,48.3068053],[39.9663829,48.3067758],[39.9656782,48.3064027],[39.9658139,48.3056564],[39.9654414,48.3046777],[39.9648377,48.3044577],[39.9638819,48.3034631],[39.9632084,48.3032599],[39.9630632,48.3025965],[39.9635452,48.3021261],[39.9644662,48.3020989],[39.9657931,48.3027154],[39.9669698,48.3028323],[39.9680178,48.3028349],[39.9694631,48.3031312],[39.9710106,48.3027963],[39.9710313,48.3014874],[39.9706155,48.3011791],[39.9702131,48.3003911],[39.9706103,48.2989864],[39.9702238,48.2987467],[39.9695797,48.2986384],[39.9674541,48.2991473],[39.9667219,48.2996514],[39.9661587,48.2998029],[39.9649464,48.2996493],[39.9633373,48.2990852],[39.9606769,48.2994413],[39.9596904,48.2992401],[39.9593054,48.2988376],[39.9582829,48.2980501],[39.9559754,48.2992555],[39.9557481,48.299894],[39.9559284,48.3003326],[39.9563748,48.3005247],[39.9568814,48.3011087],[39.9567444,48.3021637],[39.9568219,48.3026192],[39.9566599,48.3031852],[39.9556063,48.3037463],[39.954057,48.304012],[39.9529753,48.3039154],[39.9519708,48.303551],[39.9517212,48.3030504],[39.9519946,48.3023918],[39.9517688,48.3021309],[39.9522186,48.3010381],[39.9519575,48.3000927],[39.9498477,48.2994008],[39.949619,48.2988449],[39.9508356,48.2977331],[39.9507366,48.2972225],[39.9490366,48.2967152],[39.9484261,48.2961002],[39.9484112,48.2942947],[39.947227,48.2941626],[39.9465323,48.293784],[39.9459582,48.2927414],[39.9448101,48.2920266],[39.9437155,48.2919104],[39.9416121,48.2928487],[39.9385209,48.2921268],[39.9377029,48.292225],[39.9368823,48.2915646],[39.9366146,48.2899582],[39.9370235,48.288116],[39.9366398,48.2868873],[39.9362154,48.2850583],[39.9350232,48.2837704],[39.9340979,48.2834791],[39.9332772,48.2837532],[39.9321079,48.2837303],[39.9305846,48.2832846],[39.9301559,48.2827643],[39.9302856,48.2823805],[39.932176,48.2812133],[39.9341115,48.2807351],[39.9349784,48.2797503],[39.9346951,48.2790658],[39.9328753,48.2792411],[39.9315961,48.2779922],[39.9296385,48.2777793],[39.927869,48.2765821],[39.9272912,48.2753873],[39.9258355,48.2739687],[39.9256277,48.2735879],[39.9258988,48.2729692],[39.9259687,48.2721603],[39.9249068,48.2714851],[39.9229547,48.2713059],[39.9210688,48.2716602],[39.9196571,48.2712977],[39.9189796,48.2706011],[39.9174956,48.2700935],[39.9148291,48.2696779],[39.9142596,48.2698466],[39.9145799,48.2707552],[39.915049,48.2713442],[39.9147533,48.2718867],[39.9140654,48.2719578],[39.9130755,48.2711929],[39.9111386,48.2710199],[39.9102688,48.2716453],[39.9105891,48.2721534],[39.9118308,48.2727698],[39.9122543,48.2737457],[39.9113847,48.275269],[39.9104178,48.2760308],[39.9096855,48.2760119],[39.9095085,48.276717],[39.9082201,48.277008],[39.9084339,48.2781327],[39.9100639,48.2790105],[39.9093774,48.2807664],[39.910753,48.282907],[39.911103,48.2850178],[39.9097451,48.2875265],[39.9126952,48.2882023],[39.9101881,48.2929821],[39.9031174,48.2988902],[39.8869156,48.3040891],[39.8879682,48.3073167],[39.8871988,48.3087771],[39.8410685,48.3100513],[39.8421021,48.3183104],[39.8403939,48.3291167],[39.8452167,48.3294989],[39.8455931,48.3327736],[39.8597034,48.3345658],[39.8779341,48.3340733],[39.9185813,48.3416921],[39.9186034,48.3472072],[39.9307271,48.348957],[39.9436441,48.3481202],[39.9475073,48.3552302],[39.9425304,48.3549629],[39.944422,48.3571657],[39.939451,48.3607734],[39.9406678,48.365023],[39.9367499,48.3671357],[39.9347511,48.3722742],[39.9432775,48.3837913],[39.9415351,48.3870715],[39.9383089,48.3875623],[39.9352706,48.384697],[39.9318897,48.3769292],[39.9268452,48.3750751],[39.9212199,48.3759275],[39.9175221,48.3792278],[39.9163055,48.3842314],[39.9145583,48.3868273],[39.9078019,48.3887123],[39.9059615,48.3903159],[39.9067434,48.3922694],[39.9174051,48.3948097],[39.9186437,48.3976109],[39.9160499,48.4006103],[39.9084587,48.4020517],[39.906312,48.403562],[39.9064839,48.4074937],[39.9127632,48.4155801],[39.9102969,48.4219558],[39.8959257,48.4292418],[39.8888169,48.4419929],[39.8898644,48.4435709],[39.8967662,48.4442197],[39.8985547,48.4459723],[39.8973265,48.4481115],[39.8577522,48.4633633],[39.8463375,48.4737119],[39.847753,48.4856779],[39.8478837,48.4951083],[39.8464694,48.4993057],[39.84871,48.5028401],[39.8531911,48.5034246],[39.8566588,48.5016359],[39.861877,48.5019244],[39.8661347,48.5047748],[39.8667561,48.5088826],[39.8574855,48.5374008],[39.8580446,48.5453656],[39.8545326,48.5529988],[39.8576295,48.5614133],[39.846829,48.5729337],[39.8216849,48.5783323],[39.8206043,48.5792853],[39.8254818,48.5816452],[39.8263109,48.5842074],[39.8250511,48.5861523],[39.8223596,48.5866356],[39.8128554,48.5838551],[39.8086096,48.5839718],[39.8044954,48.5854536],[39.8002156,48.5895529],[39.796119,48.5918468],[39.7899853,48.5933692],[39.7734252,48.5923258],[39.7720625,48.5916013],[39.7703675,48.5879945],[39.754759,48.5829996],[39.7512953,48.5820902],[39.7505496,48.5833377],[39.7510542,48.5888356],[39.7490377,48.5902429],[39.7467209,48.5906731],[39.7443186,48.5900574],[39.7387429,48.5868384],[39.7346291,48.5858506],[39.7301775,48.585919],[39.726252,48.5866238],[39.7233788,48.5862164],[39.7212371,48.5848336],[39.714893,48.5852475],[39.7025463,48.5877777],[39.697765,48.5871601],[39.6916351,48.586378],[39.6872709,48.5870843],[39.6772879,48.5875629],[39.6765155,48.5881875],[39.6722238,48.5884145],[39.6675887,48.5867682],[39.6587483,48.5856325],[39.6575468,48.5846673],[39.6353165,48.5800397],[39.6319692,48.5806927],[39.6236436,48.5860867],[39.6228281,48.5863707],[39.6219268,48.5858029],[39.6212402,48.5819417],[39.6175495,48.5771153],[39.6137299,48.5749004],[39.6124855,48.5729129],[39.6080223,48.5727141],[39.6036449,48.5741055],[39.5963128,48.5750293],[39.5949886,48.5766912],[39.5948044,48.5793299],[39.6006408,48.5857461],[39.604074,48.5862571],[39.6050182,48.5867681],[39.6045891,48.5888119],[39.6017566,48.591537],[39.5963493,48.5923886],[39.5925357,48.5912967],[39.5817707,48.5850383],[39.5777793,48.5828806],[39.576535,48.581234],[39.5733466,48.5805224],[39.5680714,48.5818502],[39.5629675,48.5836321],[39.5631454,48.5862306],[39.5660509,48.588301],[39.5672772,48.5902388],[39.5673018,48.5921198],[39.5656345,48.5939516],[39.5633045,48.5974408],[39.5617595,48.5980085],[39.5586696,48.5980085],[39.5512023,48.5955676],[39.5494857,48.5932401],[39.5505587,48.5885848],[39.549314,48.5859732],[39.5450225,48.5839292],[39.5373836,48.58339],[39.5312037,48.5842699],[39.5287147,48.5859448],[39.5269121,48.58955],[39.5281312,48.5918406],[39.5332079,48.5936307],[39.5335878,48.5954605],[39.5324228,48.5964387],[39.5280455,48.5971767],[39.5253848,48.5981984],[39.5226333,48.6029769],[39.5234788,48.6051034],[39.5272799,48.6082749],[39.5278196,48.6094601],[39.5271823,48.6112629],[39.5257232,48.613022],[39.5167841,48.6180986],[39.5116469,48.6218737],[39.5119776,48.6235455],[39.5154235,48.6261855],[39.5162691,48.6279705],[39.5167109,48.6299864],[39.5160243,48.6321987],[39.5140876,48.6338368],[39.5104342,48.6344539],[39.5004348,48.6325537],[39.4955426,48.6321283],[39.4930106,48.6304265],[39.4862727,48.6288949],[39.4841484,48.6282],[39.4761018,48.628753],[39.4685916,48.6274483],[39.4656304,48.6281857],[39.4640108,48.6310641],[39.4642683,48.6340137],[39.4673899,48.6372332],[39.4658132,48.6386649],[39.4575623,48.6386512],[39.4542149,48.6397855],[39.45164,48.6410333],[39.4495753,48.6445574],[39.4497978,48.6504011],[39.4513078,48.6517082],[39.4533852,48.6528124],[39.4523728,48.6547104],[39.4501761,48.6556715],[39.4465013,48.6563009],[39.4389481,48.6549401],[39.4323232,48.6567488],[39.4207457,48.6582229],[39.4142323,48.6566918],[39.4106939,48.6576559],[39.4080332,48.6598104],[39.4082049,48.6614545],[39.4135262,48.6668399],[39.4138697,48.6684271],[39.4117239,48.6705243],[39.4058209,48.6738115],[39.4026452,48.6744349],[39.3979909,48.6746052],[39.3905237,48.6787991],[39.3891696,48.6803857],[39.3909291,48.6837575],[39.3895988,48.6847492],[39.3817025,48.6855142],[39.3795566,48.6862791],[39.3779859,48.6862368],[39.3673165,48.6919737],[39.3658902,48.6922287],[39.3603112,48.695798],[39.3559531,48.697214],[39.3505029,48.7076367],[39.3486574,48.708713],[39.346855,48.7122245],[39.3486382,48.7134707],[39.3541314,48.7132442],[39.3601589,48.7156791],[39.3652658,48.7168401],[39.3704585,48.7159622],[39.3720796,48.7159341],[39.3737867,48.7174915],[39.3741826,48.7186523],[39.3726043,48.7198696],[39.3691283,48.7200679],[39.3615322,48.7223045],[39.3552238,48.7252488],[39.3537216,48.7268908],[39.3540724,48.729646],[39.3588751,48.7339014],[39.3588714,48.7361753],[39.3581923,48.7370054],[39.3492658,48.742496],[39.3472058,48.7457787],[39.3470266,48.7502121],[39.3461759,48.751042],[39.3431385,48.7573608],[39.3433628,48.7592092],[39.3455281,48.7616611],[39.3491724,48.7621516],[39.3513257,48.7630943],[39.3538932,48.7654897],[39.3545015,48.7668284],[39.3527812,48.7679412],[39.3510607,48.7685446],[39.3472429,48.7683845],[39.3403355,48.7663007],[39.3361337,48.7659798],[39.3316705,48.766602],[39.3266028,48.7683087],[39.326084,48.7700153],[39.3274828,48.7721084],[39.3279722,48.7736923],[39.3262557,48.7755589],[39.3245465,48.776049],[39.3145901,48.7748045],[39.3118435,48.7740692],[39.3088319,48.7719953],[39.3030887,48.765414],[39.2999129,48.7630378],[39.2926174,48.760605],[39.2914941,48.7594358],[39.2906433,48.756248],[39.2892807,48.7536832],[39.28952,48.7515136],[39.2864338,48.7489009],[39.2820603,48.7486084],[39.2788874,48.749339],[39.2766585,48.7523332],[39.2747755,48.753681],[39.2723828,48.7538866],[39.2708089,48.7527587],[39.2703015,48.7512117],[39.2716747,48.7477596],[39.270809,48.7439866],[39.2686631,48.741949],[39.264468,48.7412523],[39.258535,48.7427414],[39.256311,48.7422696],[39.2550234,48.7406847],[39.255282,48.7387742],[39.2592291,48.7338353],[39.2561392,48.7268717],[39.2539624,48.7244016],[39.2533069,48.7220589],[39.2539001,48.7201527],[39.2497802,48.7125643],[39.2435147,48.7096192],[39.2395879,48.7091247],[39.2359905,48.711088],[39.2323641,48.7114125],[39.2267852,48.7089771],[39.2248968,48.7067682],[39.2194036,48.7051822],[39.2071728,48.6982998],[39.2031818,48.6986114],[39.2003706,48.6999993],[39.1991476,48.702265],[39.1983536,48.705777],[39.1975167,48.706485],[39.1965081,48.7065134],[39.1951061,48.7038985],[39.1909003,48.6998199],[39.1854146,48.6933991],[39.1816381,48.6857501],[39.1742491,48.680329],[39.1633486,48.6757386],[39.1574337,48.6753794],[39.1519406,48.6762862],[39.1486715,48.6752851],[39.1445122,48.6709112],[39.1418984,48.6666505],[39.141641,48.6650633],[39.1426709,48.6635326],[39.1419842,48.6608682],[39.1394876,48.65964],[39.1273071,48.6604713],[39.1231872,48.6600178],[39.1168282,48.6567485],[39.1119359,48.6533466],[39.1036178,48.6498687],[39.0985539,48.6508893],[39.0849068,48.6506625],[39.0758944,48.6516264],[39.0743495,48.6504357],[39.0548659,48.6470333],[39.042678,48.6464662],[39.0380823,48.6471847],[39.0355464,48.6482432],[39.0334474,48.6519761],[39.0322065,48.6528738],[39.0285083,48.6530064],[39.0191528,48.6569753],[39.0123721,48.658336],[39.010316,48.660084],[39.009633,48.6626256],[39.0129804,48.6640429],[39.0185594,48.6640995],[39.0216493,48.6623989],[39.0254258,48.6619737],[39.0274858,48.6632492],[39.0262842,48.667274],[39.0238809,48.6698815],[39.0205336,48.6722621],[39.0202761,48.6756061],[39.0195819,48.6791389],[39.0163671,48.6809428],[39.0143537,48.6834267],[39.015727,48.6886399],[39.0155478,48.6948913],[39.0048265,48.6963452],[39.0018149,48.6980072],[38.9998483,48.7001975],[38.999505,48.7039927],[38.9982176,48.7076745],[38.9989862,48.7111956],[38.9969225,48.7116016],[38.9919227,48.7100017],[38.9869231,48.7101575],[38.9843054,48.7118281],[38.9847421,48.7136213],[38.9888619,48.715207],[38.9939184,48.7161888],[38.9980459,48.7174722],[38.9993333,48.7196241],[38.9983893,48.7242672],[38.9914368,48.7306084],[38.9895411,48.7349866],[38.9844561,48.7375798],[38.9822031,48.7402861],[38.9823319,48.7421893],[38.981216,48.7438449],[38.9788122,48.7448922],[38.9749968,48.7447632],[38.9725628,48.7435836],[38.9698324,48.7437464],[38.9669464,48.7452039],[38.9640925,48.7461943],[38.9611311,48.7461373],[38.9599296,48.7429109],[38.961217,48.739911],[38.9610453,48.736515],[38.9569464,48.7340668],[38.9460674,48.7344489],[38.9437074,48.7338543],[38.9340086,48.7357792],[38.9324635,48.736798],[38.9343519,48.7429112],[38.9379568,48.7440714],[38.9388581,48.7458118],[38.9382788,48.746682],[38.9369591,48.7471171],[38.9350546,48.7468536],[38.9336652,48.7460241],[38.9306501,48.7452743],[38.9227216,48.7450054],[38.9213055,48.7446091],[38.9199671,48.7434206],[38.9180279,48.7429113],[38.9143212,48.7443829],[38.9125725,48.7468732],[38.9111349,48.7480051],[38.9087746,48.7492502],[38.9047401,48.7506082],[38.9010923,48.7509054],[38.8988178,48.750184],[38.8920372,48.7504385],[38.8813299,48.7501841],[38.8802356,48.7506085],[38.8790769,48.752476],[38.8776176,48.7525889],[38.8716924,48.7513053],[38.863879,48.7513796],[38.8609553,48.7507359],[38.8606013,48.749788],[38.8593783,48.7495899],[38.8553874,48.7496462],[38.8471476,48.7429112],[38.8360755,48.7232671],[38.8300673,48.7170382],[38.8084379,48.7134138],[38.7670674,48.71432],[38.7535137,48.7184915],[38.6917155,48.7293629],[38.6745492,48.7293629],[38.6784116,48.723701],[38.6301672,48.721172],[38.5832177,48.7198696],[38.5784187,48.7094303],[38.577732,48.6967418],[38.5722313,48.6890556],[38.5594455,48.6866947],[38.5489783,48.6752945],[38.5394514,48.6735091],[38.5272842,48.6746424],[38.5161483,48.6705617],[38.5152472,48.6663671],[38.4967076,48.6631925],[38.4802281,48.6591107],[38.4644278,48.6564083],[38.4452016,48.6550476],[38.4314762,48.6504924],[38.4198032,48.6450485],[38.4143025,48.6382619],[38.4088093,48.62964],[38.4046894,48.6169314],[38.4048036,48.6090985],[38.4060702,48.6019302],[38.402637,48.5919397],[38.402637,48.5478669],[38.4143026,48.5206053],[38.4115634,48.5105796],[38.4053767,48.4733655],[38.3930237,48.436606],[38.3892474,48.4322779],[38.390964,48.4158739],[38.3672748,48.3996925],[38.3542284,48.390346],[38.3435779,48.3844372],[38.3217544,48.3710529],[38.2907061,48.361631],[38.2736891,48.3591918],[38.2591203,48.359806],[38.2276837,48.3671755],[38.2149807,48.3690002],[38.2074276,48.371509],[38.1847683,48.3749299],[38.1500926,48.3854193],[38.1544451,48.395536],[38.1630936,48.4021166],[38.1484618,48.4144818],[38.135158,48.4190391],[38.1174769,48.420805],[38.1137059,48.4080126],[38.0685038,48.4086727],[38.0421228,48.4090856],[38.0048018,48.3939537],[37.9569342,48.3914893],[37.9470402,48.3751555],[37.9210683,48.3760438],[37.9096311,48.3518021],[37.8901968,48.2991598],[37.8881602,48.2836394],[37.8953466,48.268546],[37.89157,48.2550609],[37.8929432,48.2335689],[37.8965706,48.2154292],[37.8833302,48.1997121],[37.8562077,48.1928465],[37.8285927,48.1751503],[37.824622,48.1578177],[37.8198549,48.1438969],[37.8061045,48.1173377],[37.7920214,48.1045282],[37.7892831,48.1001774],[37.7730529,48.0920319],[37.7564355,48.0866703],[37.7543362,48.0840036],[37.7463065,48.0734746],[37.7427884,48.0727514],[37.6997015,48.0722042],[37.6930492,48.0693073],[37.6877494,48.0618935],[37.6942941,48.0565448],[37.6911989,48.0534065],[37.6878504,48.0547535],[37.6699861,48.0433634],[37.6478104,48.0289444],[37.6226618,48.0194438],[37.6164821,48.0180947],[37.575455,48.0139608],[37.5733939,48.0068986],[37.556143,48.0098553],[37.5496206,47.9973638],[37.5585462,47.986451],[37.548504,47.9792696],[37.5394871,47.9726323],[37.5251581,47.9572022],[37.5218536,47.94582],[37.5285901,47.9414985],[37.5428393,47.9324766],[37.5380764,47.9241494],[37.5350286,47.917986],[37.5685999,47.9077685],[37.5759066,47.9077328],[37.6440338,47.8866264],[37.6342622,47.838423],[37.6345486,47.8025384],[37.623169,47.7731102],[37.6375888,47.7519939],[37.6467557,47.7456551],[37.6726795,47.7247168],[37.7644947,47.6847015],[37.8039769,47.6601962],[37.801917,47.6423879],[37.7686147,47.6354478],[37.7823477,47.5859162],[37.8194267,47.5463034],[37.8925547,47.4697729],[37.8784784,47.4416839],[37.8637154,47.4265885],[37.855819,47.403124],[37.856849,47.3928985],[37.8503258,47.3842983],[37.8383096,47.3780216],[37.841643,47.3690218],[37.8515994,47.3655338],[37.8417428,47.3584893],[37.8376229,47.3524422],[37.8486092,47.3501161],[37.8591525,47.3543707],[37.8612124,47.3478578],[37.856849,47.3436027],[37.8444894,47.3419742],[37.8292834,47.3425074],[37.8273232,47.3284792],[37.8245766,47.3214977],[37.8317864,47.3149807],[37.8348763,47.3082302],[37.8276665,47.3026429],[37.8338464,47.2854117],[37.833503,47.249301],[37.8513558,47.198938],[37.8499825,47.1742053],[37.8180535,47.1190987],[37.8292834,47.1127418],[37.8383095,47.0997045],[37.8621706,47.1062479],[37.8795803,47.1066666],[37.8954729,47.1109213],[37.9839645,47.0835761],[37.9902301,47.0914656],[37.9790722,47.0928096],[37.9758825,47.0956826],[37.9930627,47.0990033],[38.0325448,47.0890697],[38.040012,47.0918746],[38.0407846,47.0962571],[38.054332,47.1083022],[38.0626714,47.1108045],[38.08885,47.1059558],[38.1046619,47.0956273],[38.1228691,47.0806216],[38.1328256,47.0640197],[38.1317956,47.0537286],[38.1060463,47.0471788],[38.0849876,47.0204182],[38.1632652,47.0654551],[38.1865557,47.0937123],[38.2115022,47.1071826],[38.2301175,47.119406],[38.2284514,47.1226729],[38.2292468,47.1270853],[38.2319091,47.129692],[38.2340685,47.1355459],[38.2363121,47.1395266],[38.2355903,47.1961289],[38.2359666,47.1965918],[38.2354243,47.1998353],[38.234781,47.2025886],[38.2370779,47.2075891],[38.2391299,47.2084879],[38.2402025,47.2091611],[38.2410554,47.2101138],[38.2411519,47.2105429],[38.2408246,47.2108546],[38.2412215,47.2117534],[38.2418471,47.2121661],[38.2415415,47.2125292],[38.2418929,47.2148436],[38.2422759,47.2153019],[38.2422804,47.2162117],[38.2427899,47.217117],[38.2425054,47.2178107],[38.2412876,47.2184817],[38.240507,47.2183364],[38.2400496,47.2184367],[38.2398263,47.218731],[38.2398971,47.2199239],[38.2400827,47.2201486],[38.2400467,47.2213613],[38.2397605,47.2216179],[38.2387591,47.2217389],[38.2383227,47.2219524],[38.2382548,47.2224089],[38.2387143,47.2232165],[38.2387188,47.2234891],[38.2385172,47.22364],[38.2364423,47.2242619],[38.2362738,47.2244999],[38.2364096,47.2254132],[38.2361448,47.2256075],[38.2346481,47.2254071],[38.2338694,47.2258012],[38.2340111,47.227113],[38.2336742,47.2280166],[38.2328621,47.2284101],[38.2329066,47.2291897],[38.2343344,47.2309856],[38.2351234,47.2310967],[38.2362475,47.2308171],[38.237346,47.2312165],[38.2378094,47.2320427],[38.2398865,47.2324121],[38.2405773,47.2321475],[38.2409443,47.23219],[38.2412565,47.2326921],[38.2420348,47.232812],[38.2427674,47.2326826],[38.2460906,47.2341102],[38.2477027,47.2334227],[38.2535413,47.2336156],[38.2605024,47.2383163],[38.288189,47.2385598],[38.288043,47.2564998],[38.3244906,47.2568209],[38.3307851,47.2634492],[38.3309967,47.2645747],[38.3287569,47.2658623],[38.3287371,47.2662912],[38.3337354,47.2689381],[38.3332725,47.270252],[38.3332862,47.2725191],[38.3316897,47.2752191],[38.3276326,47.27668],[38.3260824,47.2767594],[38.3255863,47.277134],[38.3256173,47.2776124],[38.3266414,47.2786087],[38.3271856,47.2795435],[38.3233941,47.2811323],[38.3257662,47.2846011],[38.3284365,47.2848084],[38.3290073,47.2868501],[38.3296901,47.2896121],[38.3333538,47.2921318],[38.3337391,47.2962532],[38.3332879,47.2969749],[38.3296611,47.297438],[38.3275474,47.2975272],[38.3270914,47.2990089],[38.3282045,47.3000189],[38.3345111,47.3014077],[38.336361,47.3055727],[38.3363045,47.3064075],[38.2209779,47.3053796],[38.2214722,47.3273446],[38.2272145,47.3297102],[38.2257943,47.3321154],[38.2220794,47.3328526],[38.230493,47.3389025],[38.2306932,47.3431686],[38.2402401,47.346223],[38.246788,47.3514449],[38.2504613,47.357713],[38.2473631,47.3617371],[38.2455592,47.3631933],[38.2587325,47.3733532],[38.2864922,47.3735598],[38.2864155,47.3914768],[38.3004094,47.391514],[38.3020854,47.3928698],[38.3020221,47.4751206],[38.2894022,47.4767537],[38.2940999,47.4907448],[38.2950717,47.5080641],[38.2849085,47.5083765],[38.2848038,47.5444646],[38.3051136,47.5448513],[38.3111495,47.5536189],[38.3109696,47.5760278],[38.3507371,47.5762058],[38.3501205,47.6166892],[38.4566884,47.6170037],[38.4562749,47.6442531],[38.620087,47.6448705],[38.6295892,47.6533363],[38.6292745,47.6692783],[38.6658873,47.6694185],[38.6656155,47.6971765],[38.6591995,47.7000572],[38.6707962,47.6989544],[38.7291235,47.6988072],[38.7303052,47.680361],[38.7540691,47.6848875],[38.7731639,47.6857642],[38.7708688,47.7206292],[38.7889429,47.7370148],[38.7981571,47.7784404],[38.7886773,47.8159738],[38.8351025,47.816059],[38.8421825,47.8631185],[39.0827779,47.8699273],[39.0828906,47.8516037]]],[[[37.7730529,48.0920319],[37.7892831,48.1001774],[37.7920214,48.1045282],[37.7885882,48.1034965],[37.7696197,48.104127],[37.7665297,48.1010318],[37.7730529,48.0920319]]],[[[38.402637,48.5919397],[38.4060702,48.6019302],[38.4048036,48.6090985],[38.4046894,48.6169314],[38.4088093,48.62964],[38.4143025,48.6382619],[38.4198032,48.6450485],[38.4314762,48.6504924],[38.4452016,48.6550476],[38.4644278,48.6564083],[38.4802281,48.6591107],[38.4967076,48.6631925],[38.5152472,48.6663671],[38.5161483,48.6705617],[38.5272842,48.6746424],[38.5394514,48.6735091],[38.5489783,48.6752945],[38.5594455,48.6866947],[38.5722313,48.6890556],[38.577732,48.6967418],[38.5784187,48.7094303],[38.5832177,48.7198696],[38.6301672,48.721172],[38.6784116,48.723701],[38.6745492,48.7293629],[38.6917155,48.7293629],[38.7055541,48.7754591],[38.5596882,48.8300656],[38.5304354,48.8497759],[38.4952068,48.8707374],[38.4748205,48.9035945],[38.413393,48.9399705],[38.4022715,48.9556589],[38.3698935,48.9817692],[38.2997041,49.0248792],[38.2844417,49.0264547],[38.2626116,49.0244189],[38.2409757,49.005535],[38.2587717,48.9692683],[38.23705,48.956746],[38.2986174,48.9494312],[38.32215,48.9356883],[38.3114278,48.9081755],[38.2521727,48.8946788],[38.2214635,48.8641847],[38.2249316,48.8593081],[38.3028583,48.8355909],[38.2892873,48.7862097],[38.2247224,48.7716926],[38.2255597,48.7383328],[38.2088754,48.7295349],[38.1941429,48.7291851],[38.1706768,48.7107277],[38.161815,48.701557],[38.1260101,48.6942159],[38.110503,48.6837927],[38.108817,48.6799986],[38.1046741,48.6740547],[38.1032339,48.6736077],[38.1006689,48.6684954],[38.1080601,48.6644033],[38.1019115,48.6532773],[38.0505253,48.6255409],[38.0602614,48.6127701],[38.0639254,48.6026629],[38.0910651,48.5795849],[38.0794765,48.5715944],[38.0742142,48.5646874],[38.0852627,48.5445413],[38.093967,48.5393604],[38.1069069,48.5210443],[38.0775899,48.4989222],[38.0517389,48.5072894],[38.0366187,48.4951206],[38.0376156,48.4736756],[38.0115723,48.4693209],[37.9948042,48.4403715],[37.9710855,48.4291124],[38.0048018,48.3939537],[38.0421228,48.4090856],[38.1137059,48.4080126],[38.1174769,48.420805],[38.135158,48.4190391],[38.1484618,48.4144818],[38.1630936,48.4021166],[38.1544451,48.395536],[38.1500926,48.3854193],[38.1847683,48.3749299],[38.2074276,48.371509],[38.2149807,48.3690002],[38.2276837,48.3671755],[38.2591203,48.359806],[38.2736891,48.3591918],[38.2907061,48.361631],[38.3217544,48.3710529],[38.3435779,48.3844372],[38.3542284,48.390346],[38.3672748,48.3996925],[38.3799702,48.4086007],[38.390964,48.4158739],[38.3892474,48.4322779],[38.3930237,48.436606],[38.4053767,48.4733655],[38.4115634,48.5105796],[38.4143026,48.5206053],[38.402637,48.5478669],[38.402637,48.5919397]]],[[[37.8562077,48.1928465],[37.8833302,48.1997121],[37.8965706,48.2154292],[37.8929432,48.2335689],[37.89157,48.2550609],[37.8953466,48.268546],[37.8881602,48.2836394],[37.8901968,48.2991598],[37.8696933,48.2818506],[37.8423308,48.2832692],[37.8217294,48.2899051],[37.8082985,48.2875112],[37.784159,48.2832303],[37.7783907,48.2719789],[37.8006261,48.272697],[37.8048352,48.2662158],[37.8012386,48.2582824],[37.7834469,48.2548452],[37.7761512,48.2501586],[37.7849065,48.2446757],[37.7712588,48.2370691],[37.7478328,48.2181878],[37.76948,48.2044644],[37.7843355,48.1941874],[37.7938695,48.1889643],[37.80971,48.1649436],[37.8103277,48.1553785],[37.8094909,48.1524009],[37.8198549,48.1438969],[37.824622,48.1578177],[37.8285927,48.1751503],[37.8562077,48.1928465]]],[[[38.5596882,48.8300656],[38.7055541,48.7754591],[38.6917155,48.7293629],[38.7535137,48.7184915],[38.7670674,48.71432],[38.8084379,48.7134138],[38.8300673,48.7170382],[38.8360755,48.7232671],[38.8471476,48.7429112],[38.8553874,48.7496462],[38.8593783,48.7495899],[38.8606013,48.749788],[38.8609553,48.7507359],[38.863879,48.7513796],[38.8716924,48.7513053],[38.8776176,48.7525889],[38.8790769,48.752476],[38.8802356,48.7506085],[38.8813299,48.7501841],[38.8920372,48.7504385],[38.8988178,48.750184],[38.9010923,48.7509054],[38.9047401,48.7506082],[38.9087746,48.7492502],[38.9111349,48.7480051],[38.9125725,48.7468732],[38.9143212,48.7443829],[38.9180279,48.7429113],[38.9199671,48.7434206],[38.9213055,48.7446091],[38.9227216,48.7450054],[38.9246312,48.7450338],[38.9306501,48.7452743],[38.9336652,48.7460241],[38.9350546,48.7468536],[38.9369591,48.7471171],[38.9382788,48.746682],[38.9388581,48.7458118],[38.9379568,48.7440714],[38.9343519,48.7429112],[38.9324635,48.736798],[38.9340086,48.7357792],[38.9437074,48.7338543],[38.9460674,48.7344489],[38.9569464,48.7340668],[38.9610453,48.736515],[38.961217,48.739911],[38.9599296,48.7429109],[38.9611311,48.7461373],[38.9640925,48.7461943],[38.9669464,48.7452039],[38.9698324,48.7437464],[38.9725628,48.7435836],[38.9749968,48.7447632],[38.9788122,48.7448922],[38.981216,48.7438449],[38.9823319,48.7421893],[38.9822031,48.7402861],[38.9844561,48.7375798],[38.9895411,48.7349866],[38.9914368,48.7306084],[38.9983893,48.7242672],[38.9993333,48.7196241],[38.9980459,48.7174722],[38.9939184,48.7161888],[38.9888619,48.715207],[38.9847421,48.7136213],[38.9843054,48.7118281],[38.9869231,48.7101575],[38.9919227,48.7100017],[38.9969225,48.7116016],[38.9989862,48.7111956],[38.9982176,48.7076745],[38.999505,48.7039927],[38.9998483,48.7001975],[39.0018149,48.6980072],[39.0048265,48.6963452],[39.0155478,48.6948913],[39.015727,48.6886399],[39.0143537,48.6834267],[39.0163671,48.6809428],[39.0195819,48.6791389],[39.0202761,48.6756061],[39.0205336,48.6722621],[39.0238809,48.6698815],[39.0262842,48.667274],[39.0274858,48.6632492],[39.0254258,48.6619737],[39.0216493,48.6623989],[39.0185594,48.6640995],[39.0129804,48.6640429],[39.009633,48.6626256],[39.010316,48.660084],[39.0123721,48.658336],[39.0191528,48.6569753],[39.0285083,48.6530064],[39.0322065,48.6528738],[39.0334474,48.6519761],[39.0355464,48.6482432],[39.0380823,48.6471847],[39.042678,48.6464662],[39.0548659,48.6470333],[39.0743495,48.6504357],[39.0758944,48.6516264],[39.0849068,48.6506625],[39.0985539,48.6508893],[39.1036178,48.6498687],[39.1119359,48.6533466],[39.1168282,48.6567485],[39.1231872,48.6600178],[39.1273071,48.6604713],[39.1394876,48.65964],[39.1419842,48.6608682],[39.1426709,48.6635326],[39.141641,48.6650633],[39.1418984,48.6666505],[39.1445122,48.6709112],[39.1486715,48.6752851],[39.1519406,48.6762862],[39.1574337,48.6753794],[39.1633486,48.6757386],[39.1742491,48.680329],[39.1816381,48.6857501],[39.1854146,48.6933991],[39.1909003,48.6998199],[39.1951061,48.7038985],[39.1965081,48.7065134],[39.1975167,48.706485],[39.1983536,48.705777],[39.1991476,48.702265],[39.2003706,48.6999993],[39.2031818,48.6986114],[39.2071728,48.6982998],[39.2125372,48.7012172],[39.2194036,48.7051822],[39.2248968,48.7067682],[39.2267852,48.7089771],[39.2323641,48.7114125],[39.2359905,48.711088],[39.2395879,48.7091247],[39.2435147,48.7096192],[39.2497802,48.7125643],[39.2539001,48.7201527],[39.2533069,48.7220589],[39.2539624,48.7244016],[39.2561392,48.7268717],[39.2592291,48.7338353],[39.255282,48.7387742],[39.2550234,48.7406847],[39.256311,48.7422696],[39.258535,48.7427414],[39.264468,48.7412523],[39.2686631,48.741949],[39.270809,48.7439866],[39.2716747,48.7477596],[39.2703015,48.7512117],[39.2708089,48.7527587],[39.2723828,48.7538866],[39.2747755,48.753681],[39.2766585,48.7523332],[39.2788874,48.749339],[39.2820603,48.7486084],[39.2864338,48.7489009],[39.28952,48.7515136],[39.2892807,48.7536832],[39.2906433,48.756248],[39.2914941,48.7594358],[39.2926174,48.760605],[39.2999129,48.7630378],[39.3030887,48.765414],[39.3088319,48.7719953],[39.3118435,48.7740692],[39.3145901,48.7748045],[39.3228224,48.7758983],[39.3245465,48.776049],[39.3262557,48.7755589],[39.3279722,48.7736923],[39.3274828,48.7721084],[39.326084,48.7700153],[39.3266028,48.7683087],[39.3316705,48.766602],[39.3361337,48.7659798],[39.3403355,48.7663007],[39.3472429,48.7683845],[39.3510607,48.7685446],[39.3527812,48.7679412],[39.3545015,48.7668284],[39.3538932,48.7654897],[39.3513257,48.7630943],[39.3491724,48.7621516],[39.3455281,48.7616611],[39.3433628,48.7592092],[39.3431385,48.7573608],[39.3461759,48.751042],[39.3470266,48.7502121],[39.3472058,48.7457787],[39.3492658,48.742496],[39.3581923,48.7370054],[39.3588714,48.7361753],[39.3588751,48.7339014],[39.3570764,48.7323068],[39.3540724,48.729646],[39.3537216,48.7268908],[39.3552238,48.7252488],[39.3615322,48.7223045],[39.3691283,48.7200679],[39.3726043,48.7198696],[39.3741826,48.7186523],[39.3737867,48.7174915],[39.3720796,48.7159341],[39.3704585,48.7159622],[39.3652658,48.7168401],[39.3601589,48.7156791],[39.3541314,48.7132442],[39.3486382,48.7134707],[39.346855,48.7122245],[39.3486574,48.708713],[39.3505029,48.7076367],[39.3559531,48.697214],[39.3603112,48.695798],[39.3658902,48.6922287],[39.3673165,48.6919737],[39.3779859,48.6862368],[39.3795566,48.6862791],[39.3817025,48.6855142],[39.3895988,48.6847492],[39.3909291,48.6837575],[39.3891696,48.6803857],[39.3905237,48.6787991],[39.3979909,48.6746052],[39.4026452,48.6744349],[39.4058209,48.6738115],[39.4117239,48.6705243],[39.4138697,48.6684271],[39.4135262,48.6668399],[39.4082049,48.6614545],[39.4080332,48.6598104],[39.4106939,48.6576559],[39.4142323,48.6566918],[39.4207457,48.6582229],[39.4323232,48.6567488],[39.4389481,48.6549401],[39.4465013,48.6563009],[39.4501761,48.6556715],[39.4523728,48.6547104],[39.4533852,48.6528124],[39.4513078,48.6517082],[39.4497978,48.6504011],[39.4495753,48.6445574],[39.45164,48.6410333],[39.4542149,48.6397855],[39.4575623,48.6386512],[39.4658132,48.6386649],[39.4673899,48.6372332],[39.4642683,48.6340137],[39.4640108,48.6310641],[39.4656304,48.6281857],[39.4685916,48.6274483],[39.4761018,48.628753],[39.4841484,48.6282],[39.4862727,48.6288949],[39.4930106,48.6304265],[39.4955426,48.6321283],[39.5004348,48.6325537],[39.5104342,48.6344539],[39.5140876,48.6338368],[39.5160243,48.6321987],[39.5167109,48.6299864],[39.5162691,48.6279705],[39.5154235,48.6261855],[39.5119776,48.6235455],[39.5116469,48.6218737],[39.5167841,48.6180986],[39.5257232,48.613022],[39.5271823,48.6112629],[39.5278196,48.6094601],[39.5272799,48.6082749],[39.5234788,48.6051034],[39.5226333,48.6029769],[39.5253848,48.5981984],[39.5280455,48.5971767],[39.5324228,48.5964387],[39.5335878,48.5954605],[39.5332079,48.5936307],[39.5281312,48.5918406],[39.5269121,48.58955],[39.5287147,48.5859448],[39.5312037,48.5842699],[39.5373836,48.58339],[39.5450225,48.5839292],[39.549314,48.5859732],[39.5505587,48.5885848],[39.5494857,48.5932401],[39.5512023,48.5955676],[39.5586696,48.5980085],[39.5617595,48.5980085],[39.5633045,48.5974408],[39.5656345,48.5939516],[39.5673018,48.5921198],[39.5672772,48.5902388],[39.5660509,48.588301],[39.5631454,48.5862306],[39.5629675,48.5836321],[39.5680714,48.5818502],[39.5733466,48.5805224],[39.576535,48.581234],[39.5777793,48.5828806],[39.5817707,48.5850383],[39.5925357,48.5912967],[39.5963493,48.5923886],[39.6017566,48.591537],[39.6045891,48.5888119],[39.6050182,48.5867681],[39.604074,48.5862571],[39.6006408,48.5857461],[39.5948044,48.5793299],[39.5949886,48.5766912],[39.5963128,48.5750293],[39.6036449,48.5741055],[39.6080223,48.5727141],[39.6124855,48.5729129],[39.6137299,48.5749004],[39.6175495,48.5771153],[39.6212402,48.5819417],[39.6219268,48.5858029],[39.6228281,48.5863707],[39.6236436,48.5860867],[39.6319692,48.5806927],[39.6353165,48.5800397],[39.6575468,48.5846673],[39.6587483,48.5856325],[39.6675887,48.5867682],[39.6722238,48.5884145],[39.6765155,48.5881875],[39.6772879,48.5875629],[39.6872709,48.5870843],[39.6867984,48.5877484],[39.6866907,48.5895424],[39.6861432,48.5898291],[39.6854832,48.5899583],[39.6839086,48.5907325],[39.6833787,48.5914318],[39.683221,48.5921079],[39.6830348,48.5924033],[39.680002,48.5923098],[39.6794939,48.5919507],[39.6795833,48.5906215],[39.6790701,48.5901982],[39.6786419,48.5901143],[39.6777198,48.5902284],[39.6767651,48.5907822],[39.6763736,48.5913004],[39.6757272,48.5930922],[39.6757257,48.5937894],[39.6762185,48.5944077],[39.6768298,48.5949987],[39.6776343,48.5954477],[39.6779105,48.595784],[39.6781759,48.5958578],[39.6785928,48.5957776],[39.6788764,48.5955955],[39.6792435,48.5955045],[39.6795451,48.5955158],[39.6799642,48.5957272],[39.6803132,48.5960245],[39.6804663,48.5962937],[39.680296,48.5967051],[39.6800822,48.5970137],[39.6799001,48.5971857],[39.6794979,48.5974385],[39.6789588,48.597728],[39.6785766,48.5978657],[39.6781602,48.5978991],[39.6778834,48.5979183],[39.6767071,48.597799],[39.6760225,48.5974414],[39.6753905,48.5967162],[39.6750423,48.5965239],[39.674482,48.5961368],[39.6736869,48.5957233],[39.6728387,48.5954668],[39.6718245,48.5952889],[39.6709098,48.5953135],[39.6701842,48.5954748],[39.6694049,48.5958135],[39.6688258,48.5962879],[39.6683001,48.5970077],[39.6679514,48.5978501],[39.6680131,48.5989383],[39.6681511,48.5997379],[39.66807,48.6007337],[39.6679424,48.6008763],[39.6680079,48.6011749],[39.6684537,48.6016293],[39.6688566,48.6021121],[39.6698389,48.6025027],[39.6707163,48.6030812],[39.6710692,48.6035975],[39.6708034,48.6039253],[39.6704345,48.6043162],[39.6696063,48.6046252],[39.668527,48.6048222],[39.6676762,48.6048852],[39.6664246,48.6048742],[39.6658445,48.6047906],[39.6653313,48.6046517],[39.6649442,48.6045945],[39.6643429,48.6045849],[39.6638865,48.6046215],[39.6636073,48.6046642],[39.6633067,48.6047707],[39.6627593,48.6050722],[39.6625285,48.6052088],[39.6622441,48.6053171],[39.6615273,48.6055384],[39.6612543,48.6056849],[39.6610564,48.6058846],[39.6609189,48.6066732],[39.6608619,48.6067878],[39.6607404,48.6069096],[39.660503,48.6072064],[39.6604357,48.6074381],[39.6604193,48.6077739],[39.6605715,48.6080828],[39.6606539,48.6083633],[39.6606269,48.6085002],[39.6605517,48.6086672],[39.660562,48.6089054],[39.6605673,48.6090177],[39.6606209,48.6090875],[39.6607977,48.6093476],[39.6609385,48.6095939],[39.661106,48.6099358],[39.6612092,48.6104889],[39.6613911,48.6107243],[39.6616696,48.6108816],[39.6622157,48.6113808],[39.662601,48.6117948],[39.6629521,48.6119985],[39.663314,48.6123157],[39.6635915,48.6126685],[39.6637295,48.6129645],[39.663991,48.6138174],[39.664186,48.6146269],[39.6647986,48.6151593],[39.6648313,48.615241],[39.6648181,48.6154539],[39.6648008,48.6156491],[39.6648673,48.6158973],[39.6650748,48.6161279],[39.6651545,48.6163105],[39.6653173,48.6165694],[39.6656414,48.617145],[39.6660621,48.6176532],[39.6661432,48.6178158],[39.666117,48.6181769],[39.6663913,48.6187437],[39.6665069,48.6192825],[39.6669135,48.6198355],[39.6671865,48.6203851],[39.6678672,48.6212822],[39.6681735,48.6214278],[39.6689734,48.6222967],[39.6715329,48.6243287],[39.6745861,48.6263606],[39.6776137,48.6280345],[39.6800075,48.6294245],[39.6843588,48.6315376],[39.6856559,48.6320765],[39.686953,48.6324594],[39.6876815,48.6327288],[39.6884529,48.6331968],[39.6901786,48.6350981],[39.6905727,48.6353325],[39.6910956,48.6354676],[39.6928041,48.6359714],[39.6934808,48.6364057],[39.6939859,48.6368542],[39.6941313,48.6372875],[39.6943125,48.6376262],[39.694365,48.6381068],[39.6943531,48.6386866],[39.694272,48.6390262],[39.6942851,48.6396001],[39.6940449,48.6404683],[39.6938926,48.6411435],[39.69387,48.6417576],[39.6937515,48.6427807],[39.6935527,48.6431434],[39.6930349,48.6434807],[39.6927009,48.643621],[39.6921369,48.6440597],[39.6915974,48.644825],[39.6913261,48.6453279],[39.6911822,48.6456807],[39.6911211,48.646231],[39.6913153,48.6464877],[39.6915953,48.6466805],[39.6918914,48.6468982],[39.6920234,48.6471505],[39.6920894,48.6473618],[39.6920963,48.6476368],[39.6922611,48.6477251],[39.6924642,48.6478756],[39.6927025,48.6481334],[39.6929317,48.6483987],[39.6932018,48.6487901],[39.6934013,48.6489557],[39.6935766,48.6492045],[39.6938843,48.6493985],[39.6942233,48.6494742],[39.6944464,48.6495404],[39.6946358,48.649655],[39.6948485,48.6498558],[39.6949843,48.6499155],[39.6952803,48.6501261],[39.6957769,48.6503501],[39.6965295,48.6506286],[39.6967552,48.6507204],[39.6970131,48.6507874],[39.6972714,48.6509001],[39.6982514,48.6516017],[39.6986292,48.6518515],[39.698979,48.6520898],[39.6994651,48.6523791],[39.7001051,48.6525521],[39.7006826,48.6526563],[39.7011645,48.652797],[39.701679,48.6530126],[39.7018612,48.6530965],[39.7020917,48.6531553],[39.7022197,48.6531967],[39.7022995,48.6532433],[39.7028981,48.6538559],[39.7034609,48.6544378],[39.7039514,48.6547359],[39.7042382,48.6549631],[39.7045811,48.6553608],[39.7046372,48.6555738],[39.7047323,48.6558079],[39.7050696,48.6561659],[39.7051577,48.6563059],[39.7052662,48.6564574],[39.7054707,48.6565545],[39.7057444,48.6565604],[39.7060155,48.6566237],[39.706194,48.6567793],[39.7063324,48.6568165],[39.7065246,48.6568252],[39.7067006,48.6567632],[39.7068745,48.6566577],[39.7070258,48.6565199],[39.7071605,48.6563164],[39.70727,48.656161],[39.7073606,48.6560479],[39.7076504,48.6557544],[39.7080521,48.6554428],[39.7081901,48.655345],[39.7084729,48.6550664],[39.7086056,48.6549235],[39.7088114,48.6547138],[39.7090752,48.6545593],[39.7093547,48.6544768],[39.7095132,48.6544603],[39.7096917,48.6544999],[39.7099767,48.6545215],[39.7101675,48.6545819],[39.7103246,48.6546555],[39.7105399,48.6548341],[39.7106909,48.6550161],[39.7107812,48.6551372],[39.7108827,48.6555273],[39.7109495,48.6560306],[39.7108339,48.6569202],[39.7105344,48.6574582],[39.7099184,48.6584498],[39.7096,48.6592181],[39.7095347,48.6599301],[39.7095258,48.6606526],[39.7096917,48.661929],[39.7096205,48.6623544],[39.7101286,48.6628507],[39.7105939,48.6638926],[39.7107193,48.6642648],[39.710739,48.6648477],[39.7109742,48.6655147],[39.7110592,48.6663801],[39.7110026,48.6665508],[39.71047,48.6670046],[39.7103686,48.6671038],[39.7101921,48.6671605],[39.7097424,48.6673448],[39.7091533,48.6673945],[39.7084724,48.6674193],[39.7075152,48.6672581],[39.7071384,48.6670465],[39.7066875,48.6668412],[39.7062688,48.6667812],[39.7058167,48.6667016],[39.7054183,48.6666326],[39.7049797,48.6666557],[39.7044296,48.6666742],[39.7040159,48.6667314],[39.703581,48.6668044],[39.7032911,48.6668348],[39.7021215,48.6679811],[39.7025396,48.6687306],[39.7030004,48.6704068],[39.7118101,48.6750602],[39.7150311,48.6810023],[39.7221581,48.6839973],[39.7162393,48.6902791],[39.7155113,48.6956862],[39.7199333,48.6979207],[39.7027732,48.7066325],[39.7110139,48.713367],[39.7048355,48.7214608],[39.7227146,48.7341074],[39.7389251,48.7484075],[39.7414097,48.7717615],[39.7652011,48.765006],[39.7843065,48.7973463],[39.7971242,48.8405734],[39.80467,48.843574],[39.8080419,48.8394778],[39.807501,48.8385787],[39.8278294,48.8314627],[39.8304368,48.833552],[39.8862528,48.8209434],[39.9383224,48.7998877],[39.9522719,48.7974751],[39.958216,48.797851],[39.9761754,48.7937025],[40.0788287,48.8698642],[40.0712841,48.8769726],[40.0554925,48.9100958],[40.0484933,48.9101839],[40.0311927,48.9157989],[40.0180607,48.9077888],[40.0039777,48.9007903],[39.9919682,48.868735],[39.9415085,48.8866888],[39.9246772,48.8942476],[39.8532661,48.8910875],[39.8467438,48.9028239],[39.8367868,48.9030496],[39.8244272,48.8906359],[39.818934,48.9077887],[39.7942148,48.9249356],[39.7694958,48.9303492],[39.7887218,48.9474884],[39.7477808,48.9879451],[39.7329741,48.9801996],[39.7294443,48.9778547],[39.7270453,48.9752932],[39.724818,48.9765626],[39.724476,48.9780659],[39.7261598,48.9785086],[39.7264797,48.9786763],[39.7263788,48.9794586],[39.7252246,48.9802334],[39.7233621,48.9805175],[39.7215189,48.9812862],[39.7205544,48.9814663],[39.7189743,48.9816269],[39.7176204,48.982352],[39.7176885,48.9827446],[39.7179212,48.9833749],[39.7176153,48.9843606],[39.7174111,48.9845859],[39.7168955,48.9846986],[39.7167214,48.98491],[39.7164977,48.9856079],[39.7169164,48.9862399],[39.7169168,48.9865476],[39.7167673,48.9870644],[39.7157096,48.9879895],[39.7155438,48.9882232],[39.7154054,48.9885779],[39.7154291,48.9894],[39.7153475,48.9897066],[39.7150558,48.9898974],[39.713503,48.9895829],[39.712101,48.9899574],[39.7118016,48.9901915],[39.7107522,48.9915328],[39.7097347,48.9919487],[39.7076603,48.9924296],[39.7074317,48.9933462],[39.7074231,48.994063],[39.7069211,48.9950622],[39.7048355,48.9973999],[39.7039514,48.9987228],[39.7020651,48.9994149],[39.6999944,49.0004556],[39.6989215,49.0006583],[39.696958,48.9998926],[39.6933423,48.9990394],[39.6911752,48.9967306],[39.6912183,48.9960549],[39.6769283,48.9895361],[39.6634093,49.0008695],[39.6702746,49.0031459],[39.6792023,49.0128842],[39.6736555,49.0149315],[39.6756613,49.0268858],[39.6817337,49.0287303],[39.6835795,49.0369223],[39.6731505,49.0391727],[39.6929349,49.0495248],[39.729675,49.0430052],[39.7681225,49.0402983],[39.7887186,49.0499747],[39.8031412,49.0591995],[39.8203073,49.0582996],[39.8752387,49.0654984],[39.9088872,49.0574038],[39.9377233,49.0560499],[39.9425299,49.0713444],[39.9387357,49.0832597],[39.9727224,49.1252911],[39.9974614,49.1473102],[40.0315729,49.1802382],[40.0761276,49.1868252],[40.0927571,49.2031613],[40.1082875,49.2108803],[40.1217662,49.2307081],[40.1365378,49.2391541],[40.1768242,49.2368702],[40.209671,49.2417753],[40.2143684,49.2448843],[40.2208041,49.2577711],[40.2192618,49.2651691],[40.1859361,49.2840058],[40.1851963,49.3042066],[40.188524,49.3074409],[40.1910582,49.3179433],[40.1968119,49.3452254],[40.1918349,49.3483315],[40.1755684,49.3566161],[40.1701797,49.3563977],[40.1599319,49.3654561],[40.1620428,49.3682539],[40.1445965,49.3776647],[40.1124341,49.3857491],[40.0769068,49.4099548],[40.0593769,49.434088],[40.0480275,49.4443722],[40.029445,49.4537775],[40.041758,49.4991003],[40.037597,49.5198928],[40.1684327,49.5689182],[40.139523,49.5962718],[40.1352564,49.6162513],[40.0635357,49.5992308],[40.0567267,49.606571],[39.9522207,49.5965467],[39.9345988,49.5727807],[39.8902222,49.5583566],[39.8660215,49.5597836],[39.8389118,49.5635154],[39.8080571,49.5580478],[39.7683386,49.5852892],[39.7502298,49.5967168],[39.7127452,49.6059205],[39.6967454,49.6042891],[39.6869239,49.6115557],[39.6599932,49.6148084],[39.6383769,49.6350974],[39.6131314,49.6903603],[39.591959,49.7196306],[39.6083906,49.7339069],[39.5338327,49.7408455],[39.4787588,49.7564723],[39.438199,49.7600039],[39.4120602,49.7531086],[39.3769608,49.7384218],[39.3079217,49.7530412],[39.2855581,49.755664],[39.2799634,49.7609078],[39.2754686,49.7680241],[39.2646369,49.7684778],[39.2503694,49.7777994],[39.2403698,49.7911204],[39.2391442,49.7982241],[39.2289901,49.8084299],[39.2281121,49.8165004],[39.2256545,49.8401819],[39.1883931,49.8862199],[39.1784,49.8879987],[39.1285048,49.8597951],[39.1111368,49.839044],[39.0697611,49.8187284],[39.066231,49.8153466],[39.0335202,49.82237],[39.0216582,49.8209079],[38.9849036,49.8077809],[38.9711357,49.8072184],[38.9648911,49.8038751],[38.9488141,49.796072],[38.946661,49.7978041],[38.9394903,49.8006646],[38.9364393,49.8002009],[38.9334722,49.7997759],[38.9329084,49.7975781],[38.9307509,49.7971714],[38.9278092,49.7985739],[38.9274188,49.8013787],[38.9286977,49.8038859],[38.9259171,49.8041649],[38.9203554,49.804944],[38.9191867,49.8089397],[38.9161611,49.8127213],[38.9190365,49.8138599],[38.9182637,49.8148081],[38.9122526,49.8180335],[38.9098426,49.8182812],[38.9087973,49.8227646],[38.9073906,49.8284099],[38.9135056,49.8286273],[38.9150923,49.8310564],[38.9113965,49.8345865],[38.9143051,49.8369976],[38.9125661,49.8435934],[38.9065326,49.8446545],[38.9042752,49.8488149],[38.9096681,49.850847],[38.9195172,49.8586388],[38.9093357,49.8601006],[38.898465,49.8704141],[38.8764137,49.8694205],[38.8751339,49.8685366],[38.87459,49.8678766],[38.8745611,49.8666358],[38.8693967,49.8644861],[38.8668357,49.864889],[38.8653186,49.8660268],[38.8627136,49.8658678],[38.8571602,49.8680113],[38.8566102,49.8686469],[38.855853,49.8688883],[38.854455,49.868193],[38.8541729,49.8678573],[38.8541605,49.8674272],[38.8538353,49.8671201],[38.8520263,49.8665061],[38.8514124,49.8661631],[38.8506137,49.8658643],[38.8491023,49.8651008],[38.8467233,49.8654823],[38.846128,49.8657198],[38.845667,49.8658073],[38.8439298,49.8651801],[38.8432878,49.8651428],[38.8393432,49.8657594],[38.8389639,49.8660243],[38.8360165,49.8671348],[38.8363444,49.8673642],[38.8348111,49.8690675],[38.8346623,49.8709528],[38.8366818,49.8721511],[38.8356992,49.8738284],[38.8349355,49.8743344],[38.8344381,49.8745717],[38.8329709,49.8747421],[38.827761,49.8771566],[38.8270396,49.8777541],[38.8260257,49.8783681],[38.8244268,49.8789324],[38.8224303,49.878982],[38.7949557,49.8833076],[38.7901479,49.8785076],[38.7834858,49.8811108],[38.777681,49.8853176],[38.7682298,49.8960418],[38.7438449,49.8973048],[38.742281,49.8989189],[38.7338438,49.9050226],[38.7232453,49.927003],[38.6928985,49.9347634],[38.685298,49.9603414],[38.7153131,49.9823814],[38.7151347,49.9877076],[38.6874838,50.0058341],[38.6842822,50.0074883],[38.6797076,50.0025228],[38.6760522,49.9928115],[38.6797293,49.9744915],[38.6669388,49.9721541],[38.6461941,49.9559349],[38.6160761,49.9743876],[38.5815678,49.9774138],[38.5267136,49.9582684],[38.5078966,49.9640277],[38.4877041,49.9635998],[38.4832986,49.9765256],[38.4775179,49.9832689],[38.465912,49.9839589],[38.4680378,49.9952445],[38.4340933,50.0010164],[38.4160059,49.9813358],[38.3975608,49.9905828],[38.3495729,50.0064418],[38.3541621,50.019046],[38.3511987,50.0347384],[38.333974,50.0590905],[38.3290971,50.0852049],[38.3126358,50.0885826],[38.300294,50.0866717],[38.2927791,50.079324],[38.2770672,50.0729966],[38.2463336,50.0731122],[38.1785128,50.0797945],[38.1787134,50.0777809],[38.1790856,50.0774198],[38.1818466,50.0678015],[38.1819184,50.0668677],[38.1850647,50.0556901],[38.1838253,50.0458296],[38.1875578,50.0410481],[38.1880071,50.0393948],[38.1882313,50.0307843],[38.1886702,50.0268599],[38.1883893,50.0244699],[38.1881577,50.0234077],[38.1862524,50.0227729],[38.1853816,50.0220685],[38.1869793,50.0214602],[38.1924386,50.0137928],[38.1971766,50.0082193],[38.2009438,50.0046565],[38.2008054,50.0036314],[38.202641,50.0016684],[38.2050047,50.0007676],[38.2046727,49.9982874],[38.2050272,49.9967451],[38.2077102,49.9915087],[38.2098144,49.9901953],[38.21085,49.9892452],[38.2155322,49.9881847],[38.2171243,49.9871793],[38.256068,49.9099877],[38.0925104,49.8440429],[38.0184881,49.8374121],[38.0514433,49.7882167],[38.0088745,49.7580743],[37.9602983,49.727813],[38.0171147,49.6857159],[37.9470761,49.5950043],[37.8962692,49.542035],[37.8440561,49.4899529],[37.8742921,49.3111147],[37.9433714,49.288027],[37.8723764,49.2398554],[37.9050345,49.1464282],[38.0309913,49.1245052],[38.0473353,49.150105],[38.0858881,49.1444668],[38.0605304,49.0608546],[38.1093073,49.0240653],[38.1895783,49.0547346],[38.2287408,49.063784],[38.268211,49.0401423],[38.2626116,49.0244189],[38.2844417,49.0264547],[38.2997041,49.0248792],[38.3698935,48.9817692],[38.4022715,48.9556589],[38.413393,48.9399705],[38.4748205,48.9035945],[38.4952068,48.8707374],[38.5304354,48.8497759],[38.5596882,48.8300656]]],[[[37.6878504,48.0547535],[37.6911989,48.0534065],[37.6942941,48.0565448],[37.6877494,48.0618935],[37.6930492,48.0693073],[37.6997015,48.0722042],[37.6637782,48.0724502],[37.664269,48.0643654],[37.6417223,48.0576579],[37.6095479,48.0588584],[37.6226618,48.0194438],[37.6478104,48.0289444],[37.6699861,48.0433634],[37.6794605,48.049407],[37.6878504,48.0547535]]],[[[37.5078854,47.9299295],[37.5063169,47.9264247],[37.5350286,47.917986],[37.5380764,47.9241494],[37.5428393,47.9324766],[37.5285901,47.9414985],[37.5266259,47.9355163],[37.5182679,47.9336454],[37.5137189,47.9330128],[37.5078854,47.9299295]]],[[[32.4242935,46.5677694],[32.4242868,46.5677629],[32.4242876,46.5677564],[32.4242935,46.5677694]]],[[[33.902891,47.2324757],[33.9139764,47.2449577],[33.918726,47.27225],[33.9664246,47.3030694],[33.9759094,47.3560771],[33.9749812,47.3872984],[33.9572192,47.4182864],[33.90958,47.4217531],[33.8698299,47.4039107],[33.8272929,47.3923237],[33.726596,47.373265],[33.6207167,47.3697838],[33.5919282,47.3814604],[33.5904527,47.4096195],[33.5674138,47.4210864],[33.5184649,47.4544486],[33.4910885,47.4535319],[33.4622298,47.4451763],[33.4356333,47.4290364],[33.4159896,47.4370473],[33.4035539,47.4348376],[33.4052179,47.4271896],[33.4076738,47.4254313],[33.407277,47.4234556],[33.4025031,47.4213057],[33.396842,47.417637],[33.3878594,47.4163996],[33.3788771,47.4163231],[33.3766184,47.4171562],[33.3736934,47.418526],[33.3697384,47.4194311],[33.3687874,47.4187681],[33.3671962,47.4173912],[33.3667438,47.4165867],[33.365831,47.4132223],[33.3662328,47.4120046],[33.3655754,47.4105245],[33.365478,47.4077718],[33.3654292,47.4056985],[33.3661772,47.4015249],[33.3671519,47.3993219],[33.3672957,47.3976974],[33.3684475,47.395955],[33.3697708,47.3940963],[33.3699783,47.3923537],[33.3703394,47.3909013],[33.3738486,47.3882826],[33.3762897,47.3869735],[33.3764802,47.385796],[33.3756313,47.3818366],[33.3718597,47.379392],[33.37006,47.3793902],[33.3691601,47.37875],[33.369826,47.3767444],[33.3689471,47.3757268],[33.3685391,47.372892],[33.3619131,47.3690442],[33.3584291,47.367876],[33.3548849,47.3650828],[33.3501089,47.3643256],[33.3481501,47.3644703],[33.3468363,47.3650042],[33.3459499,47.3655156],[33.3455786,47.3651549],[33.3458658,47.3640265],[33.3464578,47.361879],[33.3456247,47.3606185],[33.3425411,47.3601145],[33.3391143,47.360308],[33.3378333,47.3625652],[33.335476,47.3629961],[33.3322375,47.3643161],[33.3299316,47.3639295],[33.3260321,47.3644338],[33.321765,47.3649185],[33.3152542,47.3674861],[33.3107116,47.3702232],[33.3056083,47.3689176],[33.2997952,47.3681488],[33.2992063,47.3663695],[33.2974149,47.3653411],[33.2953177,47.3654082],[33.2935825,47.3642208],[33.292105,47.3603882],[33.2902107,47.3573371],[33.2892875,47.3546881],[33.289727,47.3539159],[33.2914917,47.3529629],[33.2920119,47.3522424],[33.2921821,47.3510437],[33.2915371,47.3495107],[33.2906568,47.3488023],[33.2882855,47.3476921],[33.2852974,47.3460321],[33.2846189,47.3454928],[33.284627,47.3450116],[33.2851887,47.3440973],[33.2861562,47.3434366],[33.2865541,47.342321],[33.287783,47.3397567],[33.2890134,47.3386477],[33.2909159,47.3375697],[33.2951715,47.3354311],[33.2969558,47.3342454],[33.2981913,47.3336526],[33.2996673,47.3330072],[33.3010061,47.331521],[33.3009716,47.3305293],[33.3010632,47.3296915],[33.3002936,47.3285745],[33.299524,47.3285337],[33.2990634,47.3281961],[33.2979077,47.3279509],[33.2969882,47.327444],[33.2976994,47.3265006],[33.2990424,47.325272],[33.299055,47.3239851],[33.2981954,47.3235012],[33.2975081,47.3227356],[33.2962204,47.3219746],[33.293817,47.3215068],[33.2915854,47.3217965],[33.290255,47.3221741],[33.2893323,47.322101],[33.2869505,47.3210389],[33.2853725,47.3210714],[33.2793478,47.3223677],[33.2766785,47.3233648],[33.2668424,47.3272418],[33.2649416,47.3281319],[33.2623112,47.3295455],[33.2607404,47.3308085],[33.2567659,47.3342239],[33.2561561,47.3345975],[33.25495,47.3348716],[33.2537438,47.3348257],[33.2520679,47.3341682],[33.2508438,47.3336067],[33.2488903,47.3321436],[33.2468292,47.3301352],[33.2454554,47.3281129],[33.2424941,47.3259673],[33.2406487,47.3246943],[33.2377085,47.3231949],[33.2343395,47.3221898],[33.2334787,47.3216467],[33.2331342,47.3204733],[33.2343345,47.3167981],[33.2353159,47.3152473],[33.235549,47.3143846],[33.236438,47.3128186],[33.2381269,47.3114973],[33.2418466,47.3094399],[33.2449654,47.3086628],[33.2465828,47.3076708],[33.2505173,47.3067951],[33.2557053,47.3062096],[33.2583611,47.3055656],[33.2623259,47.3058237],[33.2672266,47.3077569],[33.2698529,47.307653],[33.2707659,47.3074413],[33.2740977,47.30719],[33.2746907,47.3065405],[33.2757167,47.3058665],[33.275584,47.3041741],[33.2752216,47.3030255],[33.2749546,47.3011416],[33.2750786,47.300549],[33.2757415,47.2991176],[33.275515,47.2973833],[33.2746019,47.2959981],[33.2738294,47.2950488],[33.2718124,47.2930314],[33.2698599,47.2922556],[33.2689266,47.2916639],[33.2677305,47.2906694],[33.2639996,47.2879307],[33.2630583,47.2878992],[33.2617076,47.2881863],[33.2611181,47.287602],[33.2598792,47.287077],[33.2567091,47.2866102],[33.2497823,47.2863742],[33.2492219,47.286574],[33.2472251,47.286179],[33.2428793,47.2868548],[33.2399767,47.2886772],[33.2388686,47.2888606],[33.2327394,47.2888402],[33.2318987,47.2895484],[33.2316929,47.29031],[33.2309892,47.292088],[33.2298219,47.2923657],[33.228955,47.2920612],[33.2282363,47.291344],[33.2267182,47.2913929],[33.2247711,47.2909177],[33.2202302,47.289504],[33.2162865,47.2877782],[33.2144866,47.2866823],[33.2136297,47.2858142],[33.2119139,47.285089],[33.2110132,47.2846391],[33.2099512,47.2840899],[33.2091467,47.2834243],[33.2095439,47.2830789],[33.2096138,47.2819455],[33.2088334,47.280651],[33.2076707,47.2792759],[33.2050921,47.2773475],[33.204157,47.2763649],[33.2022708,47.2733239],[33.2010704,47.2721237],[33.1984968,47.2682445],[33.1981564,47.2665139],[33.1981579,47.2646294],[33.1976866,47.264124],[33.195949,47.2633033],[33.1941256,47.262075],[33.1937706,47.261183],[33.1939365,47.2576788],[33.1939994,47.2574145],[33.1944486,47.2572667],[33.1955199,47.2565946],[33.1964418,47.2555596],[33.1969886,47.254576],[33.197734,47.253793],[33.1999091,47.2523238],[33.2001383,47.2515309],[33.1996092,47.2508141],[33.1979285,47.2499022],[33.1958436,47.2496502],[33.1932992,47.2500194],[33.192027,47.2500875],[33.1914768,47.2497719],[33.191545,47.2491481],[33.192137,47.24837],[33.1938921,47.247311],[33.1949842,47.246461],[33.1953467,47.2455527],[33.1952531,47.2448346],[33.1929319,47.2425526],[33.1916859,47.2420817],[33.1896039,47.2419918],[33.1873184,47.2427334],[33.1868195,47.2433371],[33.1867845,47.2439594],[33.1864235,47.2441831],[33.1860285,47.2437705],[33.1856594,47.2432437],[33.1850887,47.242689],[33.1846747,47.2416832],[33.1846394,47.238966],[33.184193,47.2380154],[33.1821674,47.2370155],[33.1799102,47.2366613],[33.1787817,47.2369211],[33.1777024,47.2375463],[33.1763474,47.2378006],[33.1751549,47.2368787],[33.1730138,47.2336204],[33.1679523,47.2333899],[33.166752,47.2341779],[33.1661947,47.2341056],[33.1638561,47.2316217],[33.1601872,47.2313524],[33.1584635,47.2326383],[33.1593182,47.2344469],[33.1626209,47.2355843],[33.162899,47.2359781],[33.1617506,47.236379],[33.1591001,47.2356144],[33.1564319,47.2356179],[33.1526946,47.2346578],[33.1514699,47.2342068],[33.1507717,47.233544],[33.1540276,47.2300946],[33.1576502,47.22858],[33.180748,47.2178191],[33.2228419,47.151892],[33.2010716,47.1432582],[33.1457096,47.0723127],[33.0841661,47.1045385],[33.008947,47.1291949],[33.0028008,47.1316446],[33.0019681,47.129874],[33.0010797,47.1296895],[32.9999918,47.127933],[32.9989759,47.1267043],[32.996408,47.12536],[32.9943946,47.1240747],[32.9926468,47.1227361],[32.9876531,47.1206943],[32.9819731,47.1196744],[32.9764548,47.1183564],[32.9727088,47.1170839],[32.9701921,47.1160972],[32.9662593,47.1157529],[32.9628247,47.11586],[32.9596475,47.1163175],[32.9521788,47.1173589],[32.950676,47.1170619],[32.9503748,47.1157426],[32.9509647,47.1141743],[32.9520967,47.1127771],[32.9538294,47.1117303],[32.9566509,47.1104545],[32.9594615,47.1095978],[32.9636348,47.1087021],[32.966365,47.1083417],[32.9700047,47.108366],[32.9716528,47.108086],[32.9723997,47.1077183],[32.9728821,47.1072413],[32.9738793,47.1050117],[32.9738896,47.1033516],[32.9736423,47.101341],[32.9730401,47.1004263],[32.9726961,47.0994724],[32.9700347,47.0975251],[32.9672015,47.0970484],[32.9643683,47.0970975],[32.961578,47.097614],[32.9593026,47.0985687],[32.9553943,47.1008234],[32.9510796,47.1054268],[32.950112,47.105999],[32.9487321,47.1062429],[32.9446057,47.1060193],[32.9422606,47.1053721],[32.9396582,47.1040238],[32.9390882,47.1031382],[32.9385527,47.1016892],[32.9376412,47.1002636],[32.9358123,47.0942045],[32.9344689,47.0878441],[32.933469,47.0864508],[32.9303407,47.0845755],[32.9262684,47.0835182],[32.9249216,47.0835416],[32.9237464,47.0839741],[32.9166323,47.0851019],[32.9153862,47.0857051],[32.9136903,47.087234],[32.9134001,47.0879692],[32.9108354,47.0906329],[32.9096067,47.091896],[32.9089495,47.0936378],[32.9087213,47.0970158],[32.910595,47.1006227],[32.9133345,47.103507],[32.9136279,47.1043757],[32.9131902,47.1052925],[32.9107396,47.1077081],[32.9057997,47.1103572],[32.9020051,47.112247],[32.899979,47.1129582],[32.8950177,47.1136351],[32.8939187,47.1133188],[32.8932417,47.1127459],[32.892045,47.1111451],[32.8912106,47.1091472],[32.8907506,47.1065125],[32.8909772,47.1034104],[32.8948015,47.0966294],[32.89534,47.095021],[32.8973259,47.0919379],[32.8983674,47.089147],[32.897724,47.0881152],[32.8943983,47.0868104],[32.8845939,47.0823491],[32.8752944,47.0787176],[32.8715892,47.0769585],[32.8702517,47.0768382],[32.8646047,47.0788821],[32.8624668,47.0792606],[32.8527287,47.0787482],[32.8489747,47.0800107],[32.8479554,47.0827458],[32.8463295,47.0846394],[32.8439711,47.08582],[32.845624,47.0887186],[32.8136276,47.098335],[32.7796722,47.0987641],[32.7616162,47.0823217],[32.7181719,47.068209],[32.6735537,47.0678401],[32.6389928,47.0657219],[32.5649619,47.0524187],[32.5199405,47.044387],[32.5159312,47.0272845],[32.5150734,47.0206741],[32.5070862,47.0057721],[32.4872602,46.998126],[32.4765316,46.9847777],[32.4226403,46.9590115],[32.4524722,46.9225078],[32.4791439,46.8698601],[32.4622457,46.8402638],[32.3848096,46.8509453],[32.3619703,46.8500037],[32.3638323,46.8319394],[32.3042471,46.7773434],[32.2585526,46.7546086],[32.2175168,46.7496435],[32.170577,46.7457602],[32.1688604,46.7238768],[32.165821,46.7021817],[32.1462516,46.7063019],[32.1440085,46.6327955],[32.1182709,46.6310297],[32.0949749,46.6340632],[32.0881623,46.6168188],[32.1035537,46.6115292],[32.1134364,46.6046382],[32.1186819,46.5966853],[32.1379079,46.555622],[32.1846856,46.5753316],[32.2090614,46.5762756],[32.2464834,46.5923209],[32.2595297,46.5904335],[32.2786795,46.581041],[32.31753,46.5507342],[32.3895339,46.5485207],[32.418972,46.5603338],[32.4303018,46.5602747],[32.4466042,46.5616287],[32.4654423,46.5693531],[32.4775359,46.5740403],[32.4800453,46.5777168],[32.4842186,46.5818558],[32.4971481,46.587292],[32.5032441,46.5930209],[32.5110577,46.5954464],[32.5205905,46.5963276],[32.5440279,46.5956731],[32.557449,46.5995523],[32.5607425,46.5981231],[32.5791743,46.5971497],[32.5806125,46.5982397],[32.579615,46.6015564],[32.5886601,46.6030447],[32.629977,46.6314823],[32.6453086,46.6441755],[32.6550457,46.6530871],[32.6618742,46.656681],[32.676783,46.6609373],[32.6842594,46.662963],[32.6950256,46.6665731],[32.7002817,46.6681307],[32.7057097,46.6693641],[32.7074045,46.6703027],[32.7090673,46.6706101],[32.7098493,46.6705071],[32.7112068,46.6709704],[32.714474,46.6723613],[32.7177472,46.6736999],[32.7191966,46.6740184],[32.7198636,46.6658863],[32.7211245,46.6655909],[32.7204453,46.6741235],[32.7213564,46.6747251],[32.7238723,46.674953],[32.726474,46.6753576],[32.7295263,46.675114],[32.7299259,46.6755883],[32.7314239,46.6755089],[32.7352842,46.675366],[32.7365277,46.6755153],[32.7374985,46.6751364],[32.7385981,46.6749342],[32.738909,46.6745592],[32.7407218,46.6745375],[32.7502782,46.6730268],[32.7581556,46.6726159],[32.7680261,46.6727857],[32.7777251,46.6733963],[32.7832635,46.6740364],[32.7933287,46.6766528],[32.8026964,46.6803456],[32.8200644,46.6843303],[32.8348487,46.6901699],[32.8385394,46.6940371],[32.8691002,46.7059375],[32.9202985,46.7330054],[33.0136828,46.7420641],[33.0363423,46.7428876],[33.0949717,46.7690037],[33.1435888,46.7857897],[33.1640658,46.7882244],[33.2298983,46.7866375],[33.3026401,46.7741181],[33.3149991,46.7742218],[33.3307069,46.7794965],[33.351202,46.7791429],[33.3535113,46.7796149],[33.3569043,46.7818208],[33.359107,46.7856999],[33.3591636,46.7869666],[33.3621309,46.7892882],[33.3654935,46.7914446],[33.3806177,46.8052055],[33.4122593,46.8297139],[33.4419126,46.8417875],[33.4698584,46.8468084],[33.5086542,46.8581315],[33.5905495,46.853824],[33.5991266,46.8942143],[33.5953476,46.9346045],[33.6551155,46.985062],[33.6620523,46.9999038],[33.6574147,47.0484602],[33.7500191,47.0920738],[33.7640135,47.0980348],[33.7872912,47.1308668],[33.7817432,47.1787464],[33.7897571,47.1836802],[33.8249933,47.1960445],[33.8549139,47.2072308],[33.8656744,47.2096815],[33.8847869,47.220094],[33.902891,47.2324757]]],[[[37.5585462,47.986451],[37.5496206,47.9973638],[37.556143,48.0098553],[37.5483099,48.0072067],[37.5432675,47.9983549],[37.5431833,47.9954397],[37.5482479,47.9864508],[37.548504,47.9792696],[37.5585462,47.986451]]],[[[38.2155213,49.9777315],[38.196059,49.9695203],[38.1959517,49.9665112],[38.1980761,49.9622049],[38.1717535,49.9540008],[38.1713538,49.9544926],[38.1624454,49.951499],[38.1717151,49.9418886],[38.1342347,49.927947],[38.1269436,49.9221992],[38.129519,49.9305419],[38.125141,49.9425031],[38.0829053,49.9309405],[38.0565619,49.9231247],[38.0462814,49.9152904],[38.0415505,49.9101641],[38.0366062,49.9041255],[38.0262432,49.9064475],[38.0125684,49.9185032],[38.0199872,49.9209901],[38.0169079,49.9244095],[38.0441808,49.9327803],[38.0239925,49.951947],[38.0164079,49.9571311],[38.0089931,49.9630325],[38.0090775,49.9645235],[38.0053852,49.9674086],[37.9993554,49.9635576],[37.9805604,49.9767939],[37.9663963,49.9790561],[37.954294,49.9947842],[37.9400462,50.0151402],[37.9247346,50.0123939],[37.9130743,50.003076],[37.9017554,50.0036567],[37.8928308,49.9890967],[37.8875134,49.9877793],[37.8866616,49.9801694],[37.8749072,49.9800614],[37.8546956,49.9702365],[37.8317043,49.9716448],[37.8198709,49.9562223],[37.803663,49.9419935],[37.7854378,49.9323364],[37.7737475,49.9070895],[37.7667543,49.8996518],[37.7548516,49.8975922],[37.7351715,49.8714532],[37.7334113,49.8608162],[37.7134016,49.8509012],[37.7572421,49.8285877],[37.6840876,49.812453],[37.6446555,49.7626107],[37.6718497,49.7456454],[37.6875125,49.7498925],[37.6883857,49.7213402],[37.7119225,49.6839279],[37.6676035,49.6699097],[37.6629016,49.6576457],[37.6675535,49.5853879],[37.7015246,49.555162],[37.6956535,49.5267161],[37.7008514,49.5133095],[37.6687764,49.4881019],[37.6518343,49.4597668],[37.569528,49.4059238],[37.5842451,49.3426617],[37.6214283,49.3031539],[37.56387,49.2672271],[37.5917051,49.2427678],[37.734305,49.2548203],[37.763565,49.2025557],[37.672311,49.1794171],[37.6920388,49.1416974],[37.6750484,49.1100769],[37.679863,49.0926581],[37.694291,49.0840726],[37.713589,49.06967],[37.6949953,49.0307723],[37.7587803,49.0283298],[37.7683105,49.0126263],[37.7731473,48.9923258],[37.8284305,48.9574208],[37.8541327,48.942854],[37.8714181,48.9571409],[37.9215889,48.9341951],[37.931564,48.9100324],[37.933901,48.9001326],[37.9365388,48.9038435],[37.9377106,48.9051255],[37.941393,48.9077404],[37.9441467,48.9093288],[37.9453681,48.9104333],[37.9480701,48.9114954],[37.9521064,48.9124173],[37.9542329,48.9121826],[37.9570903,48.9093156],[37.9565818,48.9074507],[37.9528218,48.9036791],[37.9530588,48.9025886],[37.9544544,48.9020623],[37.9597129,48.9012776],[37.9617206,48.9016002],[37.9642969,48.9013936],[37.9692657,48.9024139],[37.9734483,48.9038157],[37.9747835,48.906999],[37.9788442,48.910986],[37.9870603,48.9116474],[37.9893884,48.9109579],[37.9910405,48.9094152],[37.9925102,48.9065678],[37.9931913,48.9061806],[37.9940146,48.9062514],[37.9948749,48.9075314],[37.9946194,48.9095094],[37.9955764,48.910479],[37.9967791,48.9110696],[37.9982715,48.9113007],[38.000158,48.9112353],[38.0038585,48.9093375],[38.0054994,48.9076059],[38.0055524,48.9057331],[38.0054382,48.9053897],[38.0057317,48.9049547],[38.006498,48.9048905],[38.0075111,48.9059405],[38.0081089,48.9084664],[38.0093398,48.9092576],[38.010528,48.9095765],[38.0116211,48.9094574],[38.013541,48.9082096],[38.0143402,48.9080959],[38.015,48.9082713],[38.0156437,48.9086222],[38.015944,48.9091347],[38.0161801,48.9113961],[38.0175534,48.9122236],[38.0196779,48.9127694],[38.0204559,48.9134124],[38.020763,48.9146342],[38.0203586,48.9170255],[38.0218784,48.9174226],[38.0237164,48.9174447],[38.026234,48.9170873],[38.0274885,48.9161958],[38.0286684,48.9139098],[38.0291615,48.9137743],[38.0296269,48.9143477],[38.0301352,48.9145684],[38.0315062,48.9175764],[38.0363195,48.924403],[38.0379173,48.9254206],[38.0394506,48.9278619],[38.0417236,48.9294317],[38.0420013,48.932672],[38.0442316,48.9356585],[38.0517588,48.9395689],[38.0550936,48.9401637],[38.0568405,48.9400257],[38.0641064,48.9374468],[38.0809891,48.9401104],[38.0891394,48.9404188],[38.0927057,48.9399611],[38.0943193,48.9386578],[38.0954432,48.9356707],[38.0963077,48.9351871],[38.1139517,48.9330678],[38.1165547,48.9315353],[38.1174196,48.9297771],[38.1175765,48.9281457],[38.1186345,48.9273321],[38.1210853,48.9268548],[38.1262611,48.927223],[38.128347,48.9269989],[38.1304755,48.9261403],[38.1329775,48.9242588],[38.1370118,48.9261725],[38.1396664,48.9312066],[38.1397034,48.9320962],[38.1427692,48.9334692],[38.1484861,48.9328717],[38.1539623,48.9314451],[38.158108,48.9312306],[38.1634811,48.9311821],[38.1674166,48.9319229],[38.1826025,48.929756],[38.1858361,48.9298441],[38.1953069,48.9284968],[38.1999147,48.9288467],[38.2116937,48.9313209],[38.2340555,48.9418302],[38.23705,48.956746],[38.2587717,48.9692683],[38.2409757,49.005535],[38.2626116,49.0244189],[38.268211,49.0401423],[38.2287408,49.063784],[38.1895783,49.0547346],[38.1093073,49.0240653],[38.0605304,49.0608546],[38.0858881,49.1444668],[38.0473353,49.150105],[38.0309913,49.1245052],[37.9050345,49.1464282],[37.8723764,49.2398554],[37.9433714,49.288027],[37.8742921,49.3111147],[37.8440561,49.4899529],[37.8962692,49.542035],[37.9470761,49.5950043],[38.0171147,49.6857159],[37.9602983,49.727813],[38.0088745,49.7580743],[38.0514433,49.7882167],[38.0184881,49.8374121],[38.0925104,49.8440429],[38.256068,49.9099877],[38.2171243,49.9871793],[38.2155213,49.9777315]]],[[[35.2014582,45.5233432],[35.1098671,45.5990246],[35.0500557,45.6672021],[34.9770528,45.765285],[34.9582188,45.7600372],[34.9493437,45.7629357],[34.8008812,45.8047349],[34.796134,45.8920532],[34.7828789,45.9049747],[34.7527159,45.9102311],[34.7008834,45.9591791],[34.6514148,45.9739079],[34.5560425,45.988691],[34.4785519,45.9469467],[34.4367261,45.9681642],[34.3824645,46.0346918],[34.2277542,46.0608165],[34.1607715,46.0804296],[34.1225822,46.1081224],[34.0383336,46.1169353],[33.82395,46.1870691],[33.7405319,46.1851281],[33.7145537,46.1968941],[33.6897001,46.204334],[33.6066801,46.1468776],[33.6125276,46.1382376],[33.612957,46.1291484],[33.616561,46.11536],[33.6330381,46.0973809],[33.6372819,46.0813513],[33.623699,46.0717219],[33.6113376,46.054819],[33.6187235,46.0125197],[33.6228726,45.9976173],[33.6285431,45.9876045],[33.6293845,45.9774581],[33.6296884,45.9674259],[33.6277585,45.9588485],[33.6164792,45.9490678],[33.6176055,45.9442427],[33.6244967,45.942516],[33.6349923,45.9413261],[33.6420789,45.942885],[33.6475011,45.9451658],[33.640135,45.9493564],[33.6597606,45.9545864],[33.682856,45.9528033],[33.6923145,45.9552601],[33.7229645,45.950158],[33.744939,45.9503295],[33.7472783,45.9466852],[33.7510765,45.9487997],[33.7557842,45.9392824],[33.7579871,45.9344939],[33.7560271,45.9311086],[33.7495064,45.9282755],[33.7309277,45.9301884],[33.7202438,45.9246362],[33.7019952,45.9110037],[33.6975452,45.911367],[33.6919706,45.9134707],[33.6877728,45.9127518],[33.6800935,45.9085396],[33.6762137,45.9039535],[33.6751147,45.8988677],[33.6783673,45.8851388],[33.6799532,45.8750482],[33.6790774,45.8673135],[33.6847163,45.8588878],[33.6841906,45.8500979],[33.6741263,45.8574315],[33.6615976,45.86426],[33.6622334,45.8715236],[33.6546628,45.8752329],[33.642234,45.8763254],[33.6340965,45.8826144],[33.6162717,45.892143],[33.5937246,45.8852915],[33.5816528,45.8712065],[33.5687155,45.8740076],[33.5586395,45.8617199],[33.5517154,45.8516275],[33.5482128,45.8435307],[33.5421287,45.8402584],[33.5371159,45.8457964],[33.527171,45.849723],[33.5176551,45.846594],[33.5076216,45.8410719],[33.5008905,45.8483554],[33.5200621,45.8577082],[33.5441019,45.8803349],[33.5405932,45.8849133],[33.5179512,45.8677769],[33.4829745,45.8543957],[33.4322068,45.8385764],[33.4170901,45.8302054],[33.3734938,45.7971871],[33.3224096,45.7750369],[33.2806132,45.7626695],[33.2386596,45.7528042],[33.2119202,45.7577279],[33.1821144,45.7739016],[33.1724861,45.7866032],[33.1806246,45.7972106],[33.1858308,45.8079522],[33.1823381,45.8099302],[33.1758381,45.8057417],[33.1657369,45.7882695],[33.1591843,45.749182],[33.1529186,45.7333554],[33.1378005,45.7198138],[33.1279075,45.7198415],[33.1146383,45.7127746],[33.0957044,45.7155026],[33.0776807,45.7073927],[33.0691004,45.7068331],[33.0501444,45.6969593],[33.0171537,45.6870091],[33.0063371,45.6793833],[32.9993935,45.6811474],[32.908691,45.6403382],[32.8250404,45.5906112],[32.8201811,45.5868413],[32.8201285,45.5843929],[32.8212988,45.5830103],[32.8292518,45.583603],[32.8372907,45.5833543],[32.8410082,45.582406],[32.8435558,45.5768336],[32.8431411,45.5705971],[32.8406482,45.56511],[32.8339615,45.5602345],[32.8259738,45.5573298],[32.8203169,45.5598252],[32.7931783,45.56389],[32.7721049,45.5578694],[32.7368771,45.5430069],[32.7232198,45.5330262],[32.6917844,45.523882],[32.5905805,45.4855798],[32.562144,45.4702233],[32.5382082,45.4548835],[32.5242712,45.4388715],[32.500388,45.4246631],[32.4880695,45.4079563],[32.4797029,45.4042634],[32.4789393,45.3891629],[32.4886441,45.3849884],[32.5074454,45.3819566],[32.5134582,45.3720378],[32.5103771,45.3608842],[32.4894526,45.3461358],[32.5518462,45.3323851],[32.5698164,45.3328876],[32.578538,45.3276418],[32.599462,45.325318],[32.622109,45.317634],[32.6529901,45.313322],[32.6756878,45.3206142],[32.6855021,45.3321019],[32.7121592,45.3413068],[32.7353927,45.3549724],[32.7652199,45.3638364],[32.8467096,45.3652645],[32.9070191,45.3594365],[32.9667646,45.3366935],[32.9918481,45.3224993],[33.0352435,45.2901602],[33.0627764,45.2756598],[33.0812306,45.2584206],[33.0931987,45.2488335],[33.107907,45.2315099],[33.124087,45.225712],[33.1389117,45.216317],[33.1434036,45.2070898],[33.1488252,45.2021432],[33.1573263,45.1987744],[33.1658262,45.1934696],[33.1798209,45.1876511],[33.1852357,45.1837167],[33.2019842,45.1832253],[33.2252923,45.1746946],[33.2343482,45.1682187],[33.2459386,45.1569381],[33.2572946,45.1478037],[33.2680362,45.1456289],[33.2751597,45.1459006],[33.2842888,45.1482765],[33.2882929,45.1541048],[33.2960348,45.1577192],[33.3001384,45.1620272],[33.29792,45.1656334],[33.2989631,45.1677871],[33.3012214,45.170642],[33.3052393,45.1727705],[33.3100572,45.1740999],[33.3183942,45.1745814],[33.3251431,45.1741248],[33.3315483,45.1718832],[33.3500155,45.1736994],[33.3584289,45.1782517],[33.3749698,45.1836789],[33.3802818,45.1859091],[33.3762863,45.1876599],[33.3764355,45.1918448],[33.3827498,45.1964713],[33.3911961,45.1973752],[33.4007706,45.1960654],[33.408547,45.1934437],[33.4159888,45.1914041],[33.4326521,45.1840929],[33.4508543,45.1742382],[33.4807573,45.1558915],[33.5092654,45.1344501],[33.5363775,45.1095514],[33.5614904,45.0810729],[33.5808605,45.0508807],[33.6025946,44.9979727],[33.6043773,44.9804712],[33.5976519,44.9765496],[33.6109623,44.9257206],[33.6105925,44.8993192],[33.6064479,44.8717023],[33.6052004,44.8663859],[33.6008626,44.857663],[33.5946361,44.847578],[33.5906429,44.8457225],[33.5868637,44.8470001],[33.5789642,44.8404874],[33.5696937,44.838843],[33.5610313,44.8423184],[33.556915,44.840587],[33.5529705,44.8416549],[33.5485127,44.8345975],[33.5502309,44.8222419],[33.549545,44.8108275],[33.5471428,44.8101296],[33.54552,44.8041697],[33.5406327,44.802652],[33.533513,44.7926079],[33.5407223,44.7617581],[33.5397766,44.7443212],[33.5475831,44.7244447],[33.5457743,44.7077982],[33.5474419,44.698563],[33.5463628,44.6779794],[33.5418641,44.6589325],[33.5356674,44.6459898],[33.5311908,44.6411069],[33.5256907,44.6383616],[33.5210499,44.6402578],[33.5124742,44.6331489],[33.5082713,44.6319164],[33.4946154,44.6177665],[33.4501548,44.6159461],[33.373305,44.5840556],[33.4036944,44.5532389],[33.4601297,44.522891],[33.4727333,44.5111351],[33.4862427,44.4949678],[33.5060714,44.5008455],[33.5540478,44.4868769],[33.6019479,44.4917389],[33.6270126,44.4795789],[33.6383395,44.4586871],[33.6455297,44.4219238],[33.673869,44.4128073],[33.7028925,44.4169259],[33.7330924,44.3833316],[33.7590046,44.3869324],[33.7787368,44.3814524],[33.8460272,44.4011421],[33.8824227,44.4002681],[33.939412,44.3896463],[33.9634064,44.3888504],[34.0349861,44.4036735],[34.0572323,44.4165212],[34.1289364,44.4278782],[34.1719835,44.4910109],[34.2603617,44.5075556],[34.3089458,44.5520875],[34.3201349,44.5510937],[34.334843,44.5455071],[34.3490348,44.5467673],[34.349805,44.5718498],[34.3543535,44.5856814],[34.3758165,44.5917031],[34.3778919,44.612309],[34.3834201,44.6158768],[34.3896775,44.6288837],[34.4039237,44.6397506],[34.4121761,44.6588071],[34.4321494,44.682765],[34.4749636,44.7150709],[34.5446135,44.7410058],[34.6256282,44.773956],[34.6778578,44.7878556],[34.7288112,44.8078253],[34.7479866,44.8070582],[34.763731,44.815057],[34.8309312,44.8169077],[34.8451661,44.8132958],[34.9120951,44.8157703],[34.9203178,44.8215301],[34.9209884,44.8287508],[34.9350343,44.8300421],[34.9425288,44.8338415],[34.9678234,44.8380274],[34.9809909,44.8344654],[34.9887006,44.8280748],[35.0007004,44.8320303],[35.0295032,44.8282486],[35.0472737,44.8148367],[35.0436659,44.7994591],[35.0644251,44.7971082],[35.0810615,44.7906125],[35.0939798,44.8013751],[35.1110222,44.8070199],[35.1184551,44.81723],[35.1331009,44.8228116],[35.1305686,44.8293107],[35.1393909,44.861252],[35.1441549,44.8670023],[35.1562446,44.8869106],[35.1693108,44.9002472],[35.177573,44.9009364],[35.1905563,44.9078868],[35.2056017,44.9102155],[35.2166123,44.9090052],[35.2436533,44.9167916],[35.2565197,44.9384226],[35.2498252,44.9528227],[35.2584087,44.9609038],[35.2712818,44.9675955],[35.2836408,44.9661604],[35.2949869,44.9597113],[35.3015176,44.9657761],[35.3228067,44.9664406],[35.3224657,44.9592101],[35.3443152,44.9641879],[35.3518029,44.954952],[35.3829729,44.943891],[35.3940383,44.954933],[35.3561029,44.9773304],[35.3584162,44.9855521],[35.3667392,44.9925592],[35.395224,44.999343],[35.4286932,45.0129122],[35.4126517,45.0257778],[35.3859656,45.0352458],[35.3893992,45.0494442],[35.4146384,45.0754096],[35.4510629,45.0973661],[35.5413462,45.1258609],[35.5849604,45.1293588],[35.6297695,45.1223028],[35.6921353,45.1046258],[35.7487927,45.0814648],[35.7778784,45.0663038],[35.7853272,45.0576281],[35.8048863,45.0455584],[35.8144831,45.0333055],[35.8101654,45.0214182],[35.8219474,45.0192032],[35.8297795,45.0140758],[35.8341133,45.0091003],[35.8282777,45.0045517],[35.834801,44.9992133],[35.8420962,44.9983656],[35.870587,45.0041863],[35.8793425,45.009765],[35.9002865,45.0141894],[35.907658,45.0180791],[35.9258506,45.019111],[35.9540827,45.0112187],[35.9842147,45.0228593],[35.994952,45.0351096],[36.0125613,45.0449319],[36.035405,45.0492158],[36.07129,45.0482523],[36.1600369,45.035925],[36.2010446,45.0330226],[36.2134931,45.0280697],[36.2256841,45.0268156],[36.2479305,45.0406804],[36.2491529,45.0476867],[36.2821366,45.0549895],[36.3093286,45.0579225],[36.3377238,45.0583023],[36.372884,45.0574746],[36.3909776,45.0653589],[36.4400958,45.0833272],[36.456018,45.095623],[36.4546058,45.105555],[36.4396986,45.1167266],[36.4331798,45.1176913],[36.4256283,45.1288927],[36.4258005,45.1344018],[36.4225424,45.1369381],[36.4214277,45.1529159],[36.4177792,45.1642945],[36.4077775,45.1728889],[36.4077336,45.1934044],[36.4039117,45.2141617],[36.4120194,45.2258774],[36.4230493,45.2372296],[36.4237068,45.2452621],[36.4357829,45.2580657],[36.4396195,45.2716223],[36.4363329,45.2762391],[36.4260118,45.2786405],[36.4216626,45.286584],[36.4351793,45.2950728],[36.4844376,45.3054783],[36.499502,45.3186747],[36.4888368,45.3246085],[36.4732904,45.3307439],[36.4720407,45.3412333],[36.4778117,45.3491316],[36.4836435,45.3508635],[36.5182864,45.351539],[36.535225,45.3499175],[36.5349814,45.3456374],[36.5443505,45.3447352],[36.564437,45.3471145],[36.5923381,45.3465005],[36.5965542,45.3450314],[36.6059899,45.3477328],[36.6120254,45.3559382],[36.6256434,45.3607631],[36.6305692,45.360521],[36.6332174,45.362811],[36.6301062,45.3737863],[36.6334998,45.3756526],[36.6432106,45.3778134],[36.6487328,45.3829201],[36.6411992,45.3906659],[36.6346424,45.391737],[36.6112727,45.407542],[36.607593,45.4125733],[36.611498,45.4149214],[36.6155303,45.4222714],[36.6063464,45.4287203],[36.5982765,45.438662],[36.5870361,45.4412702],[36.57528,45.442252],[36.5656719,45.4366253],[36.5659405,45.4284433],[36.5544666,45.4243677],[36.5478306,45.4256107],[36.5326724,45.4271898],[36.5188279,45.433521],[36.506954,45.4422601],[36.4997463,45.4454839],[36.495456,45.450514],[36.4820621,45.455771],[36.4705485,45.4585138],[36.4610927,45.4564353],[36.4471741,45.4601348],[36.4415354,45.4554057],[36.4420638,45.4532818],[36.4340095,45.4506761],[36.4324737,45.4478753],[36.4214228,45.4460021],[36.4154584,45.4468248],[36.40184,45.450177],[36.3766024,45.4636891],[36.372894,45.4713796],[36.357563,45.4716171],[36.3455144,45.4808912],[36.3448483,45.4843068],[36.3393304,45.4825134],[36.3400479,45.4775846],[36.3363024,45.4742206],[36.3228675,45.4712969],[36.307976,45.4754137],[36.2936833,45.483861],[36.2653446,45.4785656],[36.1703899,45.4723606],[36.1238705,45.4636175],[36.0687847,45.4454632],[36.0689422,45.404374],[36.0428495,45.3840091],[35.99701,45.3714908],[35.9412212,45.3800441],[35.8868417,45.4077745],[35.8465069,45.446506],[35.8636895,45.4542195],[35.8760595,45.4638555],[35.8678308,45.4732506],[35.8417749,45.4744726],[35.8236493,45.4663203],[35.8177466,45.4588693],[35.8183678,45.4514182],[35.8264752,45.4401288],[35.8023584,45.4242928],[35.7489289,45.3963309],[35.7457265,45.3906603],[35.7488888,45.3846329],[35.7609848,45.3812582],[35.7537278,45.3665483],[35.7248509,45.3515944],[35.7155703,45.3384578],[35.6329034,45.3245839],[35.5258253,45.2911927],[35.4987587,45.3061765],[35.467835,45.3075439],[35.3820643,45.3525144],[35.3112561,45.411424],[35.2014582,45.5233432]]],[[[35.2525174,46.2505709],[35.2210679,46.2268989],[35.2090233,46.1903722],[35.1330574,46.1634307],[35.0290037,46.14808],[35.0256763,46.127811],[34.9871752,46.1052755],[34.9733811,46.0721051],[35.0708827,46.0957873],[35.1518034,46.1216585],[35.1858838,46.1469167],[35.275482,46.2556112],[35.3602359,46.3546635],[35.4578294,46.4412316],[35.6043534,46.4804352],[35.7360032,46.5839813],[35.9364232,46.6585947],[36.1170931,46.6514246],[36.1898849,46.6670306],[36.2290436,46.6505061],[36.2598962,46.6186212],[36.1908498,46.5346757],[36.1665138,46.5276778],[36.1516335,46.5468178],[36.1472619,46.508948],[36.0911211,46.4924288],[36.1167335,46.4871992],[36.1840637,46.4980304],[36.3170968,46.6501447],[36.3768491,46.7055039],[36.5871045,46.7646623],[36.7055683,46.7776224],[36.8012652,46.7277543],[36.7906962,46.6747997],[36.7783436,46.6636496],[36.7610148,46.6658088],[36.742359,46.6373607],[36.7589376,46.6217212],[36.8049871,46.6591521],[36.8380534,46.7057614],[36.8685198,46.765691],[36.9019536,46.8087899],[36.9930792,46.8624588],[37.0368602,46.8654582],[37.2380483,46.9398175],[37.2972107,46.9273264],[37.3189188,46.8962982],[37.2805705,46.8736902],[37.2872851,46.863351],[37.3214636,46.8692065],[37.526304,47.0495337],[37.5264869,47.0697845],[37.5878876,47.0772638],[37.6204618,47.0865732],[37.6273774,47.0941014],[37.6758112,47.0778874],[37.684032,47.0766772],[37.6858846,47.0804963],[37.7138794,47.0798327],[37.7743938,47.0875496],[37.7940835,47.0837782],[37.8219878,47.0908909],[37.8383095,47.0997045],[37.8292834,47.1127418],[37.8180535,47.1190987],[37.8499825,47.1742053],[37.8513558,47.198938],[37.833503,47.249301],[37.8338464,47.2854117],[37.8276665,47.3026429],[37.8348763,47.3082302],[37.8317864,47.3149807],[37.8245766,47.3214977],[37.8273232,47.3284792],[37.8292834,47.3425074],[37.8444894,47.3419742],[37.856849,47.3436027],[37.8612124,47.3478578],[37.8591525,47.3543707],[37.8486092,47.3501161],[37.8376229,47.3524422],[37.8417428,47.3584893],[37.8515994,47.3655338],[37.841643,47.3690218],[37.8383096,47.3780216],[37.8503258,47.3842983],[37.856849,47.3928985],[37.855819,47.403124],[37.8637154,47.4265885],[37.8784784,47.4416839],[37.8925547,47.4697729],[37.7823477,47.5859162],[37.7686147,47.6354478],[37.801917,47.6423879],[37.8039769,47.6601962],[37.7644947,47.6847015],[37.6726795,47.7247168],[37.6375888,47.7519939],[37.623169,47.7731102],[37.6345486,47.8025384],[37.6342622,47.838423],[37.6440338,47.8866264],[37.5759066,47.9077328],[37.5685999,47.9077685],[37.5350286,47.917986],[37.5407013,47.8815661],[37.5280859,47.8554011],[37.5058702,47.845921],[37.5329934,47.818262],[37.4841197,47.7934297],[37.4696463,47.7807851],[37.4377864,47.773467],[37.4251051,47.7510839],[37.4108784,47.7412695],[37.398621,47.7366362],[37.3920715,47.7401991],[37.3876407,47.738956],[37.3790374,47.7433381],[37.3683547,47.7428091],[37.3678462,47.7418087],[37.3568995,47.7442315],[37.3544172,47.7445792],[37.3465338,47.7473523],[37.3319098,47.7490964],[37.3308037,47.7516756],[37.3323669,47.7561416],[37.3248494,47.7573979],[37.3171094,47.7580051],[37.3039992,47.7586027],[37.2962932,47.7633797],[37.2910934,47.7623834],[37.2868848,47.7586953],[37.2806592,47.7593923],[37.2797556,47.7573485],[37.2833064,47.7554815],[37.286342,47.7530951],[37.2841424,47.7510841],[37.2684675,47.7519574],[37.2639388,47.7305232],[37.2536497,47.7149239],[37.2440583,47.7166472],[37.2213503,47.7115098],[37.2025681,47.7171854],[37.1667805,47.7171958],[37.1039627,47.7140795],[37.1020021,47.7446641],[37.0535419,47.7436656],[36.964522,47.7635413],[36.931931,47.7748372],[36.903955,47.7868254],[36.8879868,47.7953492],[36.8735563,47.805457],[36.8360852,47.8152793],[36.8202493,47.8216769],[36.8008516,47.8216192],[36.7870329,47.8083914],[36.7906163,47.7989076],[36.787934,47.7966593],[36.7811671,47.7931944],[36.7695932,47.7804734],[36.7325091,47.7804865],[36.7220327,47.7891402],[36.7079481,47.7921414],[36.6945468,47.7924877],[36.660036,47.7841794],[36.6581247,47.7764101],[36.6065339,47.7738529],[36.5375529,47.7167429],[36.5552546,47.6730363],[36.538214,47.6689171],[36.4448402,47.6502396],[36.3683277,47.6315602],[36.3052024,47.5967757],[36.2676334,47.5759913],[36.2255515,47.5633106],[36.1872538,47.5405371],[36.0787899,47.5254084],[36.0304002,47.516142],[36.0139186,47.5103296],[35.9953037,47.499107],[35.9589323,47.4809483],[35.8082162,47.4970101],[35.7132434,47.4921281],[35.7104288,47.5001207],[35.7022113,47.5000623],[35.6986295,47.4956547],[35.691872,47.4978572],[35.6851135,47.5028427],[35.6654653,47.4972684],[35.6546633,47.5009618],[35.5593185,47.5212867],[35.5065103,47.5136471],[35.4549898,47.5104016],[35.4345108,47.5141379],[35.4443467,47.5277912],[35.3950278,47.5209199],[35.3347223,47.525255],[35.3228214,47.5155116],[35.2993812,47.5109537],[35.2878203,47.5072123],[35.2808962,47.5033687],[35.2746786,47.4968778],[35.2736544,47.4936921],[35.2807955,47.4721641],[35.2644227,47.4738779],[35.2026425,47.4449743],[35.1486619,47.445657],[35.1190963,47.4510955],[35.0702994,47.4507769],[35.0624319,47.4486647],[35.046158,47.4377275],[35.0288206,47.4181151],[34.9686931,47.3892045],[34.9354445,47.3916029],[34.8837144,47.406089],[34.8633723,47.4208554],[34.8747419,47.4375288],[34.8741835,47.4494994],[34.8599235,47.4512248],[34.8252023,47.4647735],[34.7923046,47.467718],[34.7491537,47.492572],[34.7193654,47.4920934],[34.708982,47.4905527],[34.6894139,47.4948642],[34.6801991,47.5107016],[34.6420717,47.5443897],[34.6283781,47.5458007],[34.6180346,47.5444616],[34.5990399,47.5346411],[34.5862489,47.5217799],[34.5445304,47.5326781],[34.5331376,47.5304299],[34.5006234,47.4996444],[34.4358396,47.4968841],[34.3869488,47.5138458],[34.3727587,47.5106463],[34.3383722,47.4677319],[34.3349123,47.4469725],[34.2961027,47.4286586],[34.2696797,47.4395195],[34.19929,47.4120751],[34.1457254,47.4244375],[34.1183461,47.4205374],[34.0648743,47.4242885],[34.0466778,47.4176252],[34.0422354,47.4104],[34.0196507,47.3580093],[33.9826473,47.2283016],[33.9271512,47.1814188],[33.8499522,47.1377648],[33.8407881,47.0984953],[33.8023184,47.0589876],[33.7227502,47.0173544],[33.6976692,46.9951021],[33.6956106,46.9553908],[33.689791,46.9215339],[33.6784469,46.9008966],[33.6568173,46.9046493],[33.6338234,46.8994853],[33.6340293,46.8662278],[33.6202993,46.8290051],[33.4702672,46.8209318],[33.375491,46.7765416],[33.3691524,46.7822006],[33.359107,46.7856999],[33.3569043,46.7818208],[33.3662116,46.7732883],[33.3248985,46.754623],[33.2866502,46.7489573],[33.2557563,46.7540735],[33.2422885,46.7633934],[33.1921639,46.7696482],[33.147396,46.7839465],[33.1256998,46.7786325],[32.9802187,46.7125013],[32.9252687,46.7185116],[32.8621856,46.6985771],[32.836024,46.6847162],[32.8153649,46.6769739],[32.8027755,46.6760847],[32.7864417,46.6702986],[32.7588567,46.6656057],[32.7318311,46.6648554],[32.7211245,46.6655909],[32.7198636,46.6658863],[32.713963,46.6658582],[32.6977201,46.6620595],[32.6593408,46.6503611],[32.6149477,46.6173221],[32.5885651,46.5925707],[32.5578634,46.5970285],[32.5396214,46.5925785],[32.5123265,46.5917217],[32.4896464,46.5796492],[32.4788171,46.5717038],[32.4614565,46.5648964],[32.3066919,46.4956161],[32.2527452,46.5056506],[32.2504361,46.4820732],[32.1945942,46.4882908],[32.1486947,46.5145828],[32.1166462,46.517163],[32.0439937,46.4915104],[31.9941309,46.4928168],[31.9665383,46.5082456],[31.879015,46.5354656],[31.8815641,46.5182691],[31.8649158,46.5175934],[31.8070728,46.5294354],[31.7569233,46.5479256],[31.6976527,46.5450053],[31.6690382,46.5387374],[31.6315001,46.5404893],[31.5816742,46.537219],[31.5540849,46.5454363],[31.5305196,46.5576033],[31.5134183,46.5807998],[31.5112983,46.5766614],[31.5216224,46.561578],[31.5469521,46.5387028],[31.6567519,46.4688867],[31.7263209,46.4086438],[31.7460697,46.3764563],[31.7738399,46.3585737],[31.7892493,46.3733802],[31.737668,46.4261928],[31.7083516,46.446609],[31.6971262,46.4472352],[31.704266,46.4665485],[31.7420407,46.4853092],[31.7970201,46.4781096],[31.89212,46.4568005],[31.9528254,46.4374539],[31.9748459,46.4392025],[32.0022447,46.453429],[32.0290404,46.4375397],[32.0355703,46.4165629],[32.0090507,46.3641139],[31.9697707,46.3483597],[31.8682771,46.3343548],[31.8234499,46.3371015],[31.7725398,46.3271444],[31.7455912,46.306021],[31.7477398,46.2981388],[31.7580932,46.2948403],[31.7680176,46.2965165],[31.7745083,46.2939227],[31.7712141,46.288838],[31.7755462,46.2854607],[31.775112,46.282265],[31.78213,46.2768377],[31.7832894,46.2725096],[31.7771981,46.2681276],[31.7796043,46.2644672],[31.7844089,46.2650835],[31.7845155,46.2688628],[31.7917038,46.2738877],[31.8097262,46.2720936],[31.8143596,46.2694483],[31.8132429,46.2647435],[31.8183057,46.2643109],[31.8346957,46.266138],[31.8331443,46.2697922],[31.8351926,46.2728282],[31.8476993,46.2679219],[31.8507402,46.268254],[31.8612225,46.2721427],[31.8708329,46.2657735],[31.8740032,46.2652566],[31.8832899,46.2734161],[31.8950685,46.2807445],[31.9044902,46.2974386],[31.9368206,46.2921419],[31.9437442,46.2855591],[31.9555985,46.2658955],[31.9695132,46.2572078],[32.0285439,46.2455961],[32.0514181,46.2497849],[32.077753,46.2389204],[32.0878278,46.2214609],[32.1211521,46.2043925],[32.1659652,46.196893],[32.1870241,46.175666],[32.2061324,46.1721801],[32.2081053,46.1867989],[32.2218112,46.18771],[32.2398791,46.1785152],[32.2279414,46.1683471],[32.2366721,46.1501329],[32.2195204,46.1279609],[32.5431059,46.0616925],[32.7101943,46.1028118],[32.9365042,46.1016028],[33.1679366,46.119522],[33.2823694,46.0723123],[33.429206,46.0254405],[33.5256314,46.0267545],[33.4967004,46.0702854],[33.5721609,46.0737878],[33.5309796,46.1101035],[33.6066801,46.1468776],[33.6897001,46.204334],[33.7145537,46.1968941],[33.7405319,46.1851281],[33.82395,46.1870691],[34.0383336,46.1169353],[34.1225822,46.1081224],[34.1607715,46.0804296],[34.2277542,46.0608165],[34.3824645,46.0346918],[34.4367261,45.9681642],[34.4785519,45.9469467],[34.5560425,45.988691],[34.6514148,45.9739079],[34.7008834,45.9591791],[34.7527159,45.9102311],[34.7828789,45.9049747],[34.796134,45.8920532],[34.8008812,45.8047349],[34.9582188,45.7600372],[34.9770528,45.765285],[34.8959643,45.8988106],[34.8524739,46.0092176],[34.8346407,46.1155296],[34.833783,46.2001334],[34.9030041,46.2363897],[35.0248139,46.2563043],[35.079863,46.2766366],[35.1177702,46.3142433],[35.1380024,46.3482526],[35.1783568,46.3629189],[35.1931728,46.3709222],[35.2017945,46.3797144],[35.2567497,46.3752827],[35.2614702,46.3658773],[35.2654164,46.3523256],[35.2690989,46.3553905],[35.2898036,46.3565521],[35.3041691,46.3538716],[35.307895,46.3482888],[35.3142642,46.3437571],[35.3179201,46.3378326],[35.3165158,46.3307144],[35.3174416,46.3170382],[35.2988051,46.314937],[35.2925857,46.3079961],[35.293277,46.302449],[35.2989871,46.2989783],[35.2525174,46.2505709]]]]}}]}
