{"type":"FeatureCollection","features":[{"type":"Feature","geometry":{"type":"Polygon","coordinates":[[[29.244774,47.1684368,0],[29.2476923,47.1639435,0],[29.2700511,47.151804,0],[29.275716,47.1483016,0],[29.2885906,47.1438651,0],[29.2952854,47.1400119,0],[29.2968303,47.1313706,0],[29.2940837,47.1224942,0],[29.2915088,47.1154855,0],[29.2935688,47.1092937,0],[29.3011219,47.1056718,0],[29.3083594,47.103346,0],[29.3143676,47.1028786,0],[29.3196891,47.1032292,0],[29.3286155,47.1054492,0],[29.3371986,47.1075523,0],[29.3457816,47.1057997,0],[29.3500732,47.1005416,0],[29.354193,47.0953999,0],[29.3586562,47.0840629,0],[29.3602012,47.077166,0],[29.3650077,47.0714375,0],[29.366896,47.0699175,0],[29.3741057,47.062785,0],[29.3777106,47.0614987,0],[29.3832038,47.0604462,0],[29.3895553,47.060797,0],[29.3924735,47.0590429,0],[29.3880103,47.0569379,0],[29.3830321,47.0560023,0],[29.3802856,47.0524937,0],[29.3790839,47.048283,0],[29.3795989,47.0434872,0],[29.3804572,47.0391588,0],[29.3837188,47.0360001,0],[29.3880103,47.0329582,0],[29.3873237,47.02898,0],[29.3837188,47.0258206,0],[29.3778823,47.0257036,0],[29.3725608,47.0264057,0],[29.3656943,47.0282779,0],[29.3627761,47.0317881,0],[29.3615745,47.0381059,0],[29.3589995,47.0406796,0],[29.3545364,47.0392758,0],[29.3545364,47.0356491,0],[29.3565963,47.0312031,0],[29.3591712,47.0267568,0],[29.3617461,47.0233632,0],[29.3655227,47.0172778,0],[29.3689559,47.0135325,0],[29.3722175,47.0082653,0],[29.3763373,47.0029976,0],[29.3761657,46.9963244,0],[29.3739341,46.9937486,0],[29.3614028,46.9926948,0],[29.3462966,46.9922264,0],[29.3310187,46.992929,0],[29.3178008,46.9959732,0],[29.3088744,46.9959732,0],[29.3083594,46.9904701,0],[29.3081878,46.9849664,0],[29.3040679,46.98239,0],[29.2990897,46.9853177,0],[29.3006347,46.9896504,0],[29.3033813,46.9933973,0],[29.3061278,46.9980806,0],[29.3021796,47.0007733,0],[29.2953132,46.9984318,0],[29.2920516,46.9950365,0],[29.291365,46.988011,0],[29.2930816,46.9800477,0],[29.2987464,46.97548,0],[29.3054412,46.9714975,0],[29.3100761,46.9662262,0],[29.312136,46.9642346,0],[29.3155692,46.9598999,0],[29.3224357,46.9524011,0],[29.3299888,46.9495887,0],[29.3402885,46.9430261,0],[29.3489595,46.9385073,0],[29.3605445,46.9345872,0],[29.3722175,46.933415,0],[29.3811439,46.9345872,0],[29.3928168,46.9378691,0],[29.4003699,46.9444324,0],[29.4065497,46.9495887,0],[29.4141028,46.9556819,0],[29.4199393,46.9615401,0],[29.4271491,46.9655233,0],[29.4384788,46.965289,0],[29.4494651,46.9617744,0],[29.4518684,46.9584939,0],[29.4580482,46.9526354,0],[29.463198,46.9502918,0],[29.4714377,46.9505262,0],[29.4752143,46.9441981,0],[29.4764159,46.9363454,0],[29.4755576,46.9298984,0],[29.4736693,46.9253263,0],[29.4729827,46.9193469,0],[29.4680045,46.9106698,0],[29.464743,46.9062134,0],[29.4480918,46.9018739,0],[29.4546149,46.8908478,0],[29.4635413,46.8881495,0],[29.4673179,46.8809927,0],[29.4848273,46.8843952,0],[29.4846557,46.8762991,0],[29.4841407,46.8706664,0],[29.4837974,46.8649156,0],[29.4884322,46.8555253,0],[29.4891832,46.8537645,0],[29.4792269,46.8531188,0],[29.4744633,46.8469846,0],[29.4706867,46.8508002,0],[29.4692276,46.8536177,0],[29.4681118,46.8562003,0],[29.4657086,46.8572568,0],[29.4593571,46.8576089,0],[29.4550655,46.855496,0],[29.4529198,46.8547329,0],[29.4484566,46.8544395,0],[29.4379852,46.8598392,0],[29.4333504,46.8614825,0],[29.4321488,46.8596044,0],[29.4357536,46.8529133,0],[29.4357536,46.8493914,0],[29.4103478,46.8466911,0],[29.4048546,46.8462214,0],[29.4041679,46.8328351,0],[29.4050263,46.8158038,0],[29.3978165,46.8185057,0],[29.3964432,46.8068749,0],[29.3969582,46.8046425,0],[29.4069145,46.8033499,0],[29.4084595,46.7766701,0],[29.4024513,46.774554,0],[29.4014214,46.7584451,0],[29.4120644,46.7590331,0],[29.414296,46.7551521,0],[29.4582413,46.7592683,0],[29.4621895,46.773731,0],[29.4697426,46.7716148,0],[29.4754074,46.7803144,0],[29.4839905,46.7824303,0],[29.4875954,46.781725,0],[29.4891403,46.7781984,0],[29.5059631,46.7799618,0],[29.5081947,46.7846637,0],[29.5104263,46.7883075,0],[29.5123146,46.7888951,0],[29.5148895,46.784076,0],[29.5251892,46.7805495,0],[29.5349739,46.777258,0],[29.5418404,46.7781984,0],[29.5340298,46.7746716,0],[29.5366905,46.7709093,0],[29.5410679,46.767676,0],[29.5499943,46.7669705,0],[29.5586632,46.7557402,0],[29.5598648,46.7420961,0],[29.5567749,46.7353903,0],[29.5586632,46.7242123,0],[29.5562599,46.7173867,0],[29.5629547,46.7142089,0],[29.5825241,46.7138559,0],[29.5742844,46.72433,0],[29.5718811,46.7325666,0],[29.5727394,46.7403315,0],[29.5811508,46.7432724,0],[29.5935104,46.7431548,0],[29.6070717,46.7409197,0],[29.6273277,46.7412726,0],[29.6426056,46.7431548,0],[29.6573685,46.7443311,0],[29.6573685,46.7358609,0],[29.6693848,46.7330373,0],[29.6697281,46.7212703,0],[29.6635483,46.7123258,0],[29.6669815,46.7036151,0],[29.6583126,46.7014373,0],[29.6486137,46.7010841,0],[29.6483563,46.6953741,0],[29.6549652,46.6953152,0],[29.6511887,46.6910764,0],[29.6599434,46.6897812,0],[29.6547936,46.6856597,0],[29.6527336,46.6822446,0],[29.6551369,46.6767093,0],[29.6635483,46.6752959,0],[29.6676682,46.6754137,0],[29.6741913,46.6763559,0],[29.6779678,46.6755315,0],[29.6814011,46.673058,0],[29.6858643,46.6717623,0],[29.6912716,46.6727635,0],[29.6943615,46.6741769,0],[29.6952198,46.6790059,0],[29.6993397,46.678417,0],[29.7013996,46.6760615,0],[29.7008846,46.6708789,0],[29.6984814,46.666756,0],[29.7000263,46.6649889,0],[29.7063778,46.6642821,0],[29.7091244,46.6620437,0],[29.7147892,46.6589806,0],[29.7182224,46.6576846,0],[29.722514,46.6589806,0],[29.7268055,46.6613369,0],[29.7254322,46.6652246,0],[29.721999,46.6681696,0],[29.7244022,46.6718212,0],[29.7292088,46.6718212,0],[29.7357319,46.6700543,0],[29.7369335,46.667345,0],[29.7400234,46.6646355,0],[29.7434567,46.6659314,0],[29.7451733,46.6682874,0],[29.754958,46.6688764,0],[29.7619961,46.668523,0],[29.7649143,46.6651068,0],[29.7592495,46.656742,0],[29.7547863,46.6514397,0],[29.7561596,46.6473153,0],[29.7654293,46.6516754,0],[29.7734974,46.6556816,0],[29.774699,46.6502613,0],[29.7643993,46.6479045,0],[29.7595928,46.645312,0],[29.7673176,46.6376513,0],[29.7729824,46.6411871,0],[29.7786472,46.6364727,0],[29.7781323,46.633408,0],[29.7649143,46.6337617,0],[29.7585629,46.6338795,0],[29.7515247,46.6306969,0],[29.7597645,46.6259815,0],[29.7630261,46.6227984,0],[29.7626827,46.619733,0],[29.7585629,46.6212657,0],[29.7546146,46.6237415,0],[29.7482632,46.6262173,0],[29.7424267,46.625392,0],[29.7425984,46.6232699,0],[29.7455166,46.6204404,0],[29.7522114,46.6172569,0],[29.7558163,46.615842,0],[29.7504948,46.614427,0],[29.7479199,46.614427,0],[29.7496365,46.6117149,0],[29.7472332,46.6079413,0],[29.7420834,46.6061724,0],[29.7374485,46.6098282,0],[29.7338436,46.6057006,0],[29.731097,46.6007472,0],[29.7232006,46.6021625,0],[29.722514,46.5990959,0],[29.731097,46.5948496,0],[29.7389935,46.5931982,0],[29.7513531,46.5898952,0],[29.7602795,46.5901311,0],[29.7671459,46.5894233,0],[29.7664593,46.5856481,0],[29.7760723,46.5814008,0],[29.7843121,46.578569,0],[29.7925518,46.5823447,0],[29.795985,46.5804569,0],[29.7983883,46.5851762,0],[29.7946117,46.5896592,0],[29.795985,46.5948496,0],[29.8042248,46.5922545,0],[29.806628,46.5870639,0],[29.8107479,46.5894233,0],[29.807658,46.5943778,0],[29.8055981,46.6016907,0],[29.7977017,46.6021625,0],[29.8018215,46.6059365,0],[29.8090313,46.6040495,0],[29.8176144,46.6014548,0],[29.8134945,46.5962651,0],[29.8138378,46.5856481,0],[29.8207043,46.590603,0],[29.8237942,46.5969728,0],[29.8217342,46.6026343,0],[29.828944,46.6016907,0],[29.8306606,46.5974446,0],[29.8323773,46.5953215,0],[29.8399304,46.5969728,0],[29.8368404,46.5891874,0],[29.828944,46.586356,0],[29.8258541,46.5817547,0],[29.8311756,46.579631,0],[29.8394154,46.5817547,0],[29.8457668,46.5860021,0],[29.8495434,46.5891874,0],[29.8531483,46.586474,0],[29.8533199,46.5822267,0],[29.8560665,46.579513,0],[29.8625897,46.578333,0],[29.8713444,46.578687,0],[29.8718594,46.5822267,0],[29.8713444,46.5875358,0],[29.8770092,46.5861201,0],[29.8780392,46.5825806,0],[29.8752926,46.578333,0],[29.8685978,46.5760911,0],[29.8625897,46.5737311,0],[29.861388,46.571253,0],[29.8670528,46.5706629,0],[29.8734043,46.5704269,0],[29.8716877,46.5686567,0],[29.8596714,46.5696008,0],[29.8598431,46.5666504,0],[29.8631046,46.564408,0],[29.8696278,46.5626376,0],[29.8794125,46.5624016,0],[29.883189,46.5638179,0],[29.8897122,46.5594508,0],[29.893832,46.556854,0],[29.8964069,46.5526043,0],[29.8922871,46.5500072,0],[29.8869656,46.5524863,0],[29.8795841,46.5557916,0],[29.8795841,46.5588606,0],[29.8718594,46.5580344,0],[29.8739193,46.5504794,0],[29.8761509,46.5462293,0],[29.8778675,46.5426873,0],[29.8816441,46.5417427,0],[29.8845623,46.5462293,0],[29.8876522,46.5474099,0],[29.9455021,46.5549653,0],[29.9479054,46.5615754,0],[29.9386356,46.5596869,0],[29.9427555,46.5667684,0],[29.949622,46.5684207,0],[29.9376057,46.5703089,0],[29.9345158,46.5804569,0],[29.936919,46.5835245,0],[29.9352024,46.5884795,0],[29.9393223,46.5894233,0],[29.9444721,46.5842324,0],[29.9633549,46.5837605,0],[29.9681614,46.5990959,0],[29.9585484,46.6094744,0],[29.9544285,46.6182002,0],[29.9530552,46.6271604,0],[29.9558018,46.6387121,0],[29.9479054,46.6434264,0],[29.9489353,46.6521467,0],[29.9544285,46.6582737,0],[29.958205,46.6707611,0],[29.9623249,46.682068,0],[29.969878,46.6860719,0],[29.9678181,46.700672,0],[29.9659784,46.712263,0],[29.96821,46.7212076,0],[29.969755,46.72968,0],[29.9707849,46.736857,0],[29.9723299,46.7409746,0],[29.9742182,46.7450918,0],[29.974309,46.7536004,0],[29.9661551,46.7558938,0],[29.9655543,46.7595983,0],[29.9664126,46.771592,0],[29.9429415,46.7950167,0],[29.9343584,46.8060626,0],[29.9625108,46.818046,0],[29.9783037,46.8166363,0],[29.9803636,46.8201604,0],[29.9714372,46.8248588,0],[29.9676607,46.8319057,0],[29.958391,46.8370729,0],[29.9491213,46.8427092,0],[29.9250887,46.8349591,0],[29.9316118,46.8286173,0],[29.9062059,46.8192207,0],[29.8825166,46.850693,0],[29.8928163,46.8530409,0],[29.8825166,46.8882477,0],[29.8454378,46.8812082,0],[29.850931,46.8746371,0],[29.7486208,46.8614926,0],[29.7348543,46.9206888,0],[29.7184084,46.9182725,0],[29.7128816,46.9338188,0],[29.6991823,46.9239003,0],[29.6476839,46.9206175,0],[29.6366976,46.957186,0],[29.5694063,46.9403113,0],[29.5536134,46.957186,0],[29.6016786,46.9656213,0],[29.6003053,47.0414794,0],[29.6284578,47.0456906,0],[29.6120304,47.0998224,0],[29.5502323,47.095148,0],[29.5474857,47.0736407,0],[29.5145268,47.1110392,0],[29.4884342,47.113843,0],[29.4939274,47.1278599,0],[29.5804447,47.1372025,0],[29.5516056,47.2538461,0],[29.5982975,47.2575744,0],[29.5782991,47.367164,0],[29.4856876,47.3609318,0],[29.4815678,47.3274326,0],[29.4856876,47.3069505,0],[29.430756,47.2911179,0],[29.4183964,47.3069505,0],[29.408011,47.296427,0],[29.3970247,47.341114,0],[29.4074101,47.3637224,0],[29.3868107,47.3823229,0],[29.3428654,47.3711634,0],[29.3140263,47.4483016,0],[29.2426151,47.4185749,0],[29.2426151,47.464087,0],[29.1863102,47.4260082,0],[29.1849369,47.4464442,0],[29.1986698,47.4631586,0],[29.1588444,47.4520162,0],[29.1519779,47.4668722,0],[29.1835636,47.4733704,0],[29.1904301,47.499355,0],[29.1849369,47.5188351,0],[29.1464848,47.5058492,0],[29.1148991,47.5512857,0],[29.1657108,47.5707465,0],[29.1904301,47.5707465,0],[29.1863102,47.5911262,0],[29.2034715,47.5969504,0],[29.2003816,47.6034324,0],[29.2161745,47.6122283,0],[29.2106813,47.6293527,0],[29.2196077,47.6272703,0],[29.2336839,47.642308,0],[29.2072481,47.6427706,0],[29.2110246,47.6587289,0],[29.219951,47.6584976,0],[29.2196077,47.6802301,0],[29.2312807,47.6843906,0],[29.2028008,47.7194487,0],[29.215847,47.7383851,0],[29.2515526,47.7522367,0],[29.2803917,47.8039167,0],[29.2481194,47.8122176,0],[29.2316399,47.7979208,0],[29.2165337,47.798382,0],[29.1973076,47.818673,0],[29.2051277,47.8377647,0],[29.2254601,47.8546238,0],[29.239193,47.8661413,0],[29.2784185,47.886026,0],[29.217907,47.8859453,0],[29.2234977,47.8901741,0],[29.2185195,47.8955839,0],[29.2143997,47.8925913,0],[29.212683,47.8875265,0],[29.2099365,47.8854544,0],[29.2013534,47.8844184,0],[29.1977485,47.8963896,0],[29.1846835,47.9660878,0],[29.1771304,47.9656281,0],[29.1750704,47.9913683,0],[29.1249453,47.9941254,0],[29.1304385,47.9817172,0],[29.1070925,47.9835557,0],[29.0878665,47.9780401,0],[29.0995394,47.9610302,0],[29.081,47.972524,0],[29.0871798,47.9467744,0],[29.0658938,47.9430948,0],[29.0446078,47.9458545,0],[29.026755,47.9458545,0],[29.0116488,47.9545926,0],[28.9986025,47.9596508,0],[28.9766299,47.9706852,0],[28.9622103,47.9784998,0],[28.9271914,47.9612601,0],[28.8784396,48.0003284,0],[28.8880526,48.0058415,0],[28.8835894,48.0088276,0],[28.8890826,48.0115838,0],[28.8938891,48.0088276,0],[28.9021289,48.0102057,0],[28.9010989,48.0129618,0],[28.8870226,48.0141101,0],[28.8815295,48.0111244,0],[28.8677966,48.0173253,0],[28.8695132,48.0196218,0],[28.8595568,48.0219182,0],[28.8547503,48.0189329,0],[28.8564669,48.0278882,0],[28.8379627,48.0356595,0],[28.8544422,48.0618237,0],[28.8420826,48.068248,0],[28.8516956,48.0728363,0],[28.8407093,48.0769654,0],[28.8565022,48.1012744,0],[28.8448292,48.1251136,0],[28.8283497,48.1278636,0],[28.8132435,48.1237386,0],[28.8050037,48.1333631,0],[28.7919575,48.1274053,0],[28.7741047,48.1260303,0],[28.7548786,48.1374873,0],[28.7274128,48.1310717,0],[28.7033802,48.1274053,0],[28.6889607,48.1241969,0],[28.678661,48.141153,0],[28.6841541,48.1480255,0],[28.6436421,48.1439021,0],[28.6477619,48.1530648,0],[28.6264759,48.1571874,0],[28.6086231,48.1581035,0],[28.5928303,48.1718431,0],[28.5756641,48.1663477,0],[28.5703035,48.1738358,0],[28.5433918,48.1663477,0],[28.5351521,48.1571874,0],[28.5262257,48.154439,0],[28.5071321,48.153684,0],[28.5200459,48.1379456,0],[28.5001331,48.1260303,0],[28.4997898,48.1209884,0],[28.4956338,48.1191235,0],[28.4946789,48.1195604,0],[28.4945287,48.119367,0],[28.4918894,48.1188442,0],[28.4987773,48.1152413,0],[28.4995311,48.1154671,0],[28.5091442,48.1216554,0],[28.5218471,48.1209679,0],[28.5410732,48.1182175,0],[28.5640758,48.1101949,0],[28.5784954,48.1044636,0],[28.5939449,48.0980439,0],[28.611111,48.0955216,0],[28.6255306,48.0925406,0],[28.632397,48.0881835,0],[28.6354869,48.0796974,0],[28.633427,48.0702922,0],[28.621754,48.0643271,0],[28.6128276,48.064786,0],[28.6059612,48.0774036,0],[28.5990947,48.0760273,0],[28.5960048,48.0668509,0],[28.5891384,48.056755,0],[28.5884517,48.0482637,0],[28.5750621,48.0425256,0],[28.5530895,48.0393119,0],[28.5441631,48.0358685,0],[28.5427898,48.0271442,0],[28.5362667,48.021863,0],[28.5283702,48.0129066,0],[28.5318035,48.0034893,0],[28.5390132,47.9984354,0],[28.5465663,47.9972867,0],[28.5599559,47.9922321,0],[28.5750621,47.9984354,0],[28.578152,48.0078536,0],[28.5877651,48.0172702,0],[28.590855,48.0276034,0],[28.5932582,48.0349503,0],[28.6087127,48.0370175,0],[28.6207241,48.0298994,0],[28.6368602,48.0276034,0],[28.6509365,48.0257665,0],[28.6773723,48.0276034,0],[28.7024349,48.0234704,0],[28.7048381,48.0129066,0],[28.7027782,48.0032596,0],[28.7141078,47.9959082,0],[28.730244,47.9812024,0],[28.7460369,47.9761463,0],[28.7563365,47.9754568,0],[28.7625163,47.9784446,0],[28.773846,47.9848792,0],[28.7882656,47.9864878,0],[28.7944454,47.9812024,0],[28.7927288,47.9713195,0],[28.8013118,47.963274,0],[28.8157314,47.9506284,0],[28.8298076,47.9441895,0],[28.8353008,47.9347596,0],[28.8284343,47.925558,0],[28.8201946,47.9117527,0],[28.8250011,47.9016264,0],[28.8356441,47.8974832,0],[28.8528102,47.897253,0],[28.8730663,47.8947209,0],[28.8867992,47.890347,0],[28.9080852,47.8857425,0],[28.925938,47.8843611,0],[28.9424175,47.8848216,0],[28.9503139,47.8811376,0],[28.9571804,47.8811376,0],[28.9702266,47.8783744,0],[28.9815563,47.876302,0],[28.9901393,47.8737689,0],[28.9987224,47.8701992,0],[29.0061038,47.8658233,0],[29.0191501,47.8559184,0],[29.0251583,47.8486612,0],[29.02327,47.841864,0],[29.0177768,47.8323002,0],[29.0107387,47.8253855,0],[29.0078205,47.8160493,0],[29.0016406,47.8087866,0],[28.9937442,47.8002545,0],[28.9884227,47.7905677,0],[28.9870494,47.782494,0],[28.9834445,47.7688813,0],[28.9803546,47.757573,0],[28.9810413,47.7455698,0],[28.9734882,47.7303309,0],[28.967995,47.7199382,0],[28.9721149,47.7044608,0],[28.979668,47.6924453,0],[28.9861911,47.6718738,0],[28.991341,47.6584634,0],[28.9958042,47.6503692,0],[28.9927143,47.6390352,0],[28.9855045,47.6263105,0],[28.9831012,47.6133512,0],[28.9937442,47.6013147,0],[29.0088504,47.5902017,0],[29.0270465,47.5723695,0],[29.0273899,47.5512874,0],[29.0208667,47.536687,0],[29.0253299,47.518373,0],[29.0414661,47.5102571,0],[29.0606922,47.4995886,0],[29.0768283,47.4928617,0],[29.0967411,47.4831177,0],[29.1080707,47.4712834,0],[29.1180271,47.4585179,0],[29.1060108,47.4450527,0],[29.0909046,47.4369255,0],[29.0788883,47.4241516,0],[29.0778583,47.4141626,0],[29.0915912,47.4048688,0],[29.1077274,47.3927844,0],[29.1321033,47.3816271,0],[29.1492694,47.3695374,0],[29.1588825,47.3590729,0],[29.1640323,47.3474433,0],[29.1605991,47.337905,0],[29.1468662,47.3306921,0],[29.13176,47.3288305,0],[29.1276401,47.3255726,0],[29.1228336,47.3167287,0],[29.1245502,47.3102111,0],[29.1338199,47.3090472,0],[29.1475528,47.3104439,0],[29.163689,47.3167287,0],[29.1726154,47.3207435,0],[29.1822284,47.325398,0],[29.1957038,47.3292377,0],[29.2094367,47.3331353,0],[29.2205947,47.3256889,0],[29.2394775,47.3395336,0],[29.2484039,47.346978,0],[29.2616218,47.3526769,0],[29.2707199,47.3629101,0],[29.2829078,47.3724438,0],[29.288401,47.37814,0],[29.2983573,47.3841842,0],[29.3129486,47.3799998,0],[29.3227333,47.3695374,0],[29.3235916,47.360352,0],[29.2957824,47.3481411,0],[29.2727798,47.3383703,0],[29.2532104,47.334764,0],[29.224028,47.3137028,0],[29.2075485,47.296708,0],[29.1946739,47.3039256,0],[29.1744178,47.2963588,0],[29.1596549,47.2939139,0],[29.1455787,47.2930989,0],[29.1277259,47.2880922,0],[29.1143363,47.2819205,0],[29.1272109,47.2733022,0],[29.1342541,47.2674838,0],[29.1418072,47.2609602,0],[29.1467854,47.2540863,0],[29.1478153,47.2481437,0],[29.1497036,47.2446478,0],[29.1567417,47.2394034,0],[29.1612049,47.2329929,0],[29.1632648,47.227048,0],[29.1670414,47.2198199,0],[29.1706463,47.2152726,0],[29.179401,47.214573,0],[29.1861516,47.2155202,0],[29.187071,47.2160354,0],[29.18701,47.2131299,0],[29.1897565,47.2077658,0],[29.1911298,47.2014681,0],[29.195593,47.1944698,0],[29.2007429,47.1895704,0],[29.2093259,47.1821039,0],[29.2223722,47.17697,0],[29.217909,47.1650669,0],[29.2337018,47.1526941,0],[29.2405683,47.159231,0],[29.2409116,47.1711355,0],[29.2411156,47.1714053,0],[29.244774,47.1684368,0]],[[29.1870743,47.2161906,0],[29.187071,47.2160354,0],[29.1872206,47.2161193,0],[29.1870743,47.2161906,0]],[[29.1872206,47.2161193,0],[29.1879112,47.2157826,0],[29.188748,47.2138003,0],[29.1893918,47.2119346,0],[29.1899711,47.2100835,0],[29.1904217,47.2080281,0],[29.1907436,47.2065413,0],[29.1937047,47.1991792,0],[29.1957218,47.196963,0],[29.1979534,47.1943969,0],[29.2003137,47.1921806,0],[29.2044765,47.1880976,0],[29.2062789,47.1868143,0],[29.2167503,47.1800766,0],[29.2222435,47.1785306,0],[29.2264492,47.1769846,0],[29.2394525,47.1727546,0],[29.2411156,47.1714053,0],[29.2532712,47.1874706,0],[29.2433149,47.2000685,0],[29.249838,47.2012348,0],[29.2601377,47.1954029,0],[29.2852003,47.2038006,0],[29.2810804,47.2117306,0],[29.2954999,47.239476,0],[29.3126661,47.2397091,0],[29.3305189,47.2571882,0],[29.3442518,47.2592853,0],[29.3610746,47.2849099,0],[29.3428785,47.2914305,0],[29.3092329,47.2662751,0],[29.3020231,47.2674399,0],[29.2941267,47.2604503,0],[29.2776472,47.267207,0],[29.2608243,47.254858,0],[29.250868,47.2634793,0],[29.2385084,47.2618483,0],[29.2312986,47.2529938,0],[29.2191106,47.2518286,0],[29.2141325,47.2425062,0],[29.2155057,47.2372616,0],[29.197653,47.2307343,0],[29.2024595,47.2244393,0],[29.1931039,47.2197759,0],[29.1895849,47.2174441,0],[29.1872206,47.2161193,0]]]},"properties":{"name":"Придністров'я","styleUrl":"#poly-880E4F-1200-77-nodesc","styleHash":"-6b23f4d9","styleMapHash":{"normal":"#poly-880E4F-1200-77-nodesc-normal","highlight":"#poly-880E4F-1200-77-nodesc-highlight"},"stroke-opacity":1,"stroke":"#880e4f","stroke-width":1.2,"fill-opacity":0.30196078431372547,"fill":"#880e4f"}},{"type":"Feature","geometry":{"type":"Polygon","coordinates":[[[37.138697,49.5120796,0],[37.1758319,49.470014,0],[37.196081,49.4474836,0],[37.2270094,49.4228908,0],[37.2362263,49.4045042,0],[37.3406919,49.4070184,0],[37.3589524,49.4000278,0],[37.3882456,49.3935835,0],[37.4320902,49.3903325,0],[37.4393051,49.3953713,0],[37.4528568,49.3995432,0],[37.4803452,49.352738,0],[37.5023155,49.3497513,0],[37.5292385,49.3492414,0],[37.5829252,49.3514408,0],[37.6111528,49.352759,0],[37.6036827,49.3885109,0],[37.955206,49.3999199,0],[38.0115648,49.4250871,0],[37.8814416,49.6119515,0],[37.851577,49.6376273,0],[37.8032783,49.636832,0],[37.7677262,49.6410165,0],[37.6916091,49.6218,0],[37.6589518,49.6408901,0],[37.6560182,49.6429451,0],[37.6522437,49.6451469,0],[37.6487647,49.644527,0],[37.6448977,49.6455101,0],[37.6412839,49.6488093,0],[37.6412662,49.6507391,0],[37.638141,49.6539312,0],[37.6346375,49.6563138,0],[37.6344968,49.6584115,0],[37.6377705,49.6654405,0],[37.6311485,49.6673301,0],[37.6340409,49.6682207,0],[37.6367359,49.6704465,0],[37.6366319,49.6753426,0],[37.6340194,49.6831351,0],[37.6349737,49.6902787,0],[37.6307003,49.6972368,0],[37.6341707,49.7013823,0],[37.6266887,49.7027892,0],[37.6275167,49.7093801,0],[37.6185252,49.7096834,0],[37.6173663,49.7051813,0],[37.6191706,49.699505,0],[37.6148817,49.6974769,0],[37.6145461,49.6905313,0],[37.6111269,49.6912975,0],[37.60171,49.6871339,0],[37.5985011,49.6853875,0],[37.5941411,49.6863365,0],[37.5909119,49.6900114,0],[37.5858238,49.6929184,0],[37.576927,49.6870315,0],[37.5636861,49.6902829,0],[37.5550034,49.6940723,0],[37.5463194,49.6958623,0],[37.5382209,49.6955549,0],[37.5084615,49.6818151,0],[37.4910041,49.6648858,0],[37.4406083,49.651502,0],[37.4168825,49.6538439,0],[37.3910926,49.6597368,0],[37.3419736,49.6570145,0],[37.3278775,49.6542835,0],[37.2907625,49.6528094,0],[37.2421269,49.6702113,0],[37.2401726,49.6747195,0],[37.2038467,49.6626597,0],[37.1712962,49.6741408,0],[37.1488655,49.6534789,0],[37.1470961,49.6454804,0],[37.1401769,49.6410383,0],[37.1238244,49.643958,0],[37.1034903,49.6504597,0],[37.0755354,49.6527875,0],[37.0525979,49.6514362,0],[37.0417502,49.6482848,0],[37.0272502,49.6384689,0],[37.0145572,49.6154354,0],[37.0458298,49.584799,0],[37.138697,49.5120796,0]]]},"properties":{"name":"Окуповано","styleUrl":"#poly-A52714-1200-77-nodesc","styleHash":"5f0393c8","styleMapHash":{"normal":"#poly-A52714-1200-77-nodesc-normal","highlight":"#poly-A52714-1200-77-nodesc-highlight"},"stroke-opacity":1,"stroke":"#a52714","stroke-width":1.2,"fill-opacity":0.30196078431372547,"fill":"#a52714"}},{"type":"Feature","geometry":{"type":"Polygon","coordinates":[[[38.9330644,48.7482313,0],[38.9361543,48.7437602,0],[38.9317769,48.7364584,0],[38.9446515,48.7354394,0],[38.9571829,48.7394585,0],[38.9595003,48.747156,0],[38.979928,48.743647,0],[38.9882536,48.7346469,0],[38.9965867,48.7243805,0],[38.9977884,48.7197373,0],[38.9943476,48.715849,0],[38.9888619,48.715207,0],[38.9831971,48.7141876,0],[38.9837904,48.7110352,0],[38.9955492,48.7124511,0],[38.9977884,48.7097701,0],[38.9965868,48.706485,0],[38.998475,48.7011605,0],[39.0018149,48.697384,0],[39.0137454,48.6960244,0],[39.0154725,48.6894886,0],[39.0122079,48.6834834,0],[39.0183832,48.6798745,0],[39.0199357,48.6766818,0],[39.0199357,48.6720342,0],[39.0242272,48.6693135,0],[39.0273171,48.6627379,0],[39.0223389,48.6616041,0],[39.0180474,48.6629646,0],[39.009633,48.6626256,0],[39.0123721,48.658336,0],[39.0190699,48.6568608,0],[39.0286829,48.6534589,0],[39.0362359,48.6481287,0],[39.0451699,48.6474292,0],[39.0540963,48.6483365,0],[39.0655901,48.6502835,0],[39.0714341,48.652646,0],[39.0793305,48.6515119,0],[39.0879136,48.6517388,0],[39.0982133,48.6510583,0],[39.1047364,48.6517388,0],[39.1108201,48.6560115,0],[39.1196634,48.6601491,0],[39.124649,48.6613206,0],[39.1378595,48.6604893,0],[39.1382104,48.6655723,0],[39.1390687,48.6684633,0],[39.1425802,48.6734703,0],[39.1470508,48.6769651,0],[39.1597464,48.6768709,0],[39.169281,48.6805922,0],[39.1772558,48.6849746,0],[39.1810324,48.6925672,0],[39.1844731,48.697817,0],[39.1873913,48.7006494,0],[39.1898729,48.7020847,0],[39.1930562,48.7069936,0],[39.1949369,48.7074658,0],[38.9665395,48.7751951,0],[38.9760489,48.9240605,0],[38.7939462,48.9035271,0],[38.7425698,48.8383084,0],[38.7149182,48.8149605,0],[38.7173214,48.8002634,0],[38.7113671,48.7783257,0],[38.6917155,48.7293629,0],[38.7535137,48.7184915,0],[38.7670674,48.71432,0],[38.7862079,48.7136422,0],[38.8084379,48.7134138,0],[38.8300673,48.7170382,0],[38.8360755,48.7232671,0],[38.8471476,48.7429112,0],[38.8561599,48.7504951,0],[38.8728111,48.753268,0],[38.8920372,48.7508912,0],[38.9047401,48.7506082,0],[38.9198464,48.7456279,0],[38.9330644,48.7482313,0]]]},"properties":{"name":"Окуповано","styleUrl":"#poly-A52714-1200-77-nodesc","styleHash":"5f0393c8","styleMapHash":{"normal":"#poly-A52714-1200-77-nodesc-normal","highlight":"#poly-A52714-1200-77-nodesc-highlight"},"stroke-opacity":1,"stroke":"#a52714","stroke-width":1.2,"fill-opacity":0.30196078431372547,"fill":"#a52714"}},{"type":"Feature","geometry":{"type":"Polygon","coordinates":[[[33.6908993,46.2050773,0],[33.7407637,46.2084487,0],[33.7421104,46.2083299,0],[33.7378406,46.2005747,0],[33.7278118,46.2009757,0],[33.7203949,46.1997502,0],[33.7177182,46.2024641,0],[33.7129463,46.2016824,0],[33.71571,46.1979643,0],[33.7112546,46.193492,0],[33.7097972,46.1901163,0],[33.713146,46.1862645,0],[33.7108304,46.1838399,0],[33.7160664,46.1757094,0],[33.7197659,46.1739455,0],[33.7257348,46.174014,0],[33.7299192,46.1709572,0],[33.7292637,46.1690726,0],[33.7261891,46.1667043,0],[33.7253384,46.1649261,0],[33.7262858,46.1616592,0],[33.7265868,46.1578857,0],[33.72811,46.1551668,0],[33.7350502,46.1498824,0],[33.735601,46.1471215,0],[33.7475131,46.1378538,0],[33.7495382,46.1374606,0],[33.7545527,46.1404385,0],[33.8239473,46.1869511,0],[34.0204777,46.1327603,0],[34.1222402,46.1077589,0],[34.2198542,46.0752287,0],[34.4199342,46.0251892,0],[34.545052,45.9954904,0],[34.6510694,45.9735446,0],[34.7008789,45.9590612,0],[34.8396735,45.8734958,0],[34.815525,45.8354769,0],[34.8247422,45.8109669,0],[34.8670648,45.8289354,0],[34.8703794,45.8465179,0],[34.8747888,45.8553043,0],[34.8852353,45.863042,0],[34.9000715,45.8578221,0],[34.9349618,45.8051894,0],[34.9400235,45.787008,0],[34.9453002,45.7800712,0],[34.9551472,45.7671437,0],[34.9493387,45.7628178,0],[34.9582138,45.7599193,0],[34.9685965,45.7625968,0],[34.9770477,45.7651671,0],[34.8918409,45.8984474,0],[34.8521271,46.0088544,0],[34.8342939,46.1151664,0],[34.828973,46.2038097,0],[34.8992236,46.2379262,0],[35.0366537,46.2665039,0],[35.3181707,46.3348031,0],[35.4344756,46.4150752,0],[35.6143006,46.4994549,0],[35.7699819,46.6015489,0],[35.9360684,46.6582322,0],[36.0830917,46.6581318,0],[36.1895283,46.6666684,0],[36.2286868,46.6501439,0],[36.2691733,46.6053201,0],[36.3867767,46.7166726,0],[36.4954556,46.7472464,0],[36.6152407,46.7730012,0],[36.6468319,46.7803113,0],[36.7052081,46.7772605,0],[36.7460651,46.7652589,0],[36.780722,46.7485413,0],[36.8101741,46.7276278,0],[36.8217547,46.701533,0],[36.8009817,46.7067814,0],[36.7903356,46.6744379,0],[36.7779831,46.6632878,0],[36.7606545,46.6654469,0],[36.7419989,46.6369988,0],[36.7589206,46.6182938,0],[36.8023949,46.6604397,0],[36.8376925,46.7053996,0],[36.8454807,46.7237983,0],[36.8553278,46.7417216,0],[36.8681585,46.7653292,0],[36.8855916,46.789022,0],[36.9039953,46.8053733,0],[36.9291714,46.8281987,0],[36.9585394,46.8472643,0],[36.9927169,46.8620972,0],[37.0189882,46.866505,0],[37.2352809,46.9507065,0],[37.2968463,46.9269649,0],[37.3185542,46.8959368,0],[37.2921844,46.8742922,0],[37.2882744,46.8702775,0],[37.3073663,46.8655588,0],[37.4810991,47.0319678,0],[37.4890465,47.078197,0],[37.5113121,47.095409,0],[37.5528139,47.0950811,0],[37.5563111,47.1126642,0],[37.5397291,47.1429766,0],[37.542621,47.181407,0],[37.569049,47.1862314,0],[37.5970013,47.1526086,0],[37.626866,47.1317128,0],[37.6364623,47.1241272,0],[37.603045,47.0988387,0],[37.6066137,47.0877711,0],[37.6296409,47.0951513,0],[37.6979797,47.0796056,0],[37.7677602,47.089906,0],[37.7930288,47.0857257,0],[37.8148639,47.0894884,0],[37.8176104,47.1011748,0],[37.8163369,47.109753,0],[37.8180535,47.1190987,0],[37.8256066,47.1333479,0],[37.8297265,47.1461922,0],[37.8365929,47.1569323,0],[37.844146,47.1655695,0],[37.8499825,47.1742053,0],[37.8513558,47.198938,0],[37.8472359,47.2138654,0],[37.8413995,47.2269234,0],[37.833503,47.249301,0],[37.8341897,47.2760952,0],[37.8338464,47.2854117,0],[37.8300698,47.2958908,0],[37.8276665,47.3026429,0],[37.8348763,47.3082302,0],[37.8317864,47.3149807,0],[37.8245766,47.3214977,0],[37.8273232,47.3284792,0],[37.8279101,47.3355277,0],[37.8292834,47.3425074,0],[37.8444894,47.3419742,0],[37.856849,47.3436027,0],[37.8612124,47.3478578,0],[37.8591525,47.3543707,0],[37.8486092,47.3501161,0],[37.8376229,47.3524422,0],[37.8417428,47.3584893,0],[37.8515994,47.3655338,0],[37.841643,47.3690218,0],[37.8383096,47.3780216,0],[37.8503258,47.3842983,0],[37.856849,47.3928985,0],[37.855819,47.403124,0],[37.8637154,47.4265885,0],[37.8784784,47.4416839,0],[37.8925547,47.4697729,0],[37.8194267,47.5463034,0],[37.8084403,47.5618278,0],[37.7823477,47.5859162,0],[37.7504186,47.6104564,0],[37.727416,47.6146225,0],[37.7009801,47.6442384,0],[37.6869038,47.6539524,0],[37.6656178,47.6583462,0],[37.6433017,47.6599649,0],[37.6316288,47.6585775,0],[37.6154926,47.651871,0],[37.6058795,47.6463201,0],[37.5896395,47.6410083,0],[37.5746371,47.6437757,0],[37.5694872,47.6527961,0],[37.5736071,47.6632022,0],[37.5832201,47.6768426,0],[37.5948931,47.6858572,0],[37.6088657,47.6997311,0],[37.611716,47.7096575,0],[37.611716,47.7246715,0],[37.6127016,47.7322553,0],[37.6188812,47.7377968,0],[37.6252773,47.7423363,0],[37.6355977,47.7431156,0],[37.6494334,47.7509552,0],[37.6525231,47.7578794,0],[37.643254,47.8083994,0],[37.6342622,47.838423,0],[37.6330023,47.8460097,0],[37.6348905,47.8525768,0],[37.6348904,47.8558021,0],[37.6355771,47.860179,0],[37.6389066,47.8677882,0],[37.640944,47.8706227,0],[37.6424889,47.8737318,0],[37.6440338,47.8809854,0],[37.5656693,47.7896373,0],[37.4513802,47.7682383,0],[37.3889914,47.7478267,0],[37.3574541,47.749386,0],[37.3360605,47.7502369,0],[37.319116,47.7520082,0],[37.2611794,47.7520673,0],[37.2198427,47.7600496,0],[37.1427844,47.766155,0],[37.0825515,47.7835327,0],[36.9900001,47.79763,0],[36.9791819,47.7997342,0],[36.9674651,47.8017594,0],[36.9602118,47.7973266,0],[36.9752309,47.793074,0],[36.9741129,47.7738803,0],[36.9654424,47.7610272,0],[36.9558272,47.7622044,0],[36.9534419,47.7623173,0],[36.951057,47.7534292,0],[36.9411394,47.745346,0],[36.9382005,47.7212075,0],[36.9288253,47.7156024,0],[36.9232286,47.7079179,0],[36.8445799,47.710891,0],[36.8390195,47.7295281,0],[36.8258227,47.7524605,0],[36.8364857,47.8037809,0],[36.8200231,47.8054199,0],[36.8052767,47.8049814,0],[36.7953521,47.8077924,0],[36.7921045,47.8076835,0],[36.7916037,47.8043463,0],[36.7952364,47.7989402,0],[36.7877398,47.7961995,0],[36.7809882,47.7888734,0],[36.7904857,47.7804498,0],[36.7991779,47.7712165,0],[36.7964796,47.7618658,0],[36.7844286,47.7588058,0],[36.7809623,47.7506676,0],[36.8202041,47.6796947,0],[36.6837635,47.6626204,0],[36.5548938,47.6726743,0],[36.539154,47.621191,0],[36.4341806,47.6049894,0],[36.3679683,47.631198,0],[36.120171,47.5480049,0],[36.0244688,47.534261,0],[35.9902975,47.531172,0],[35.952032,47.4970048,0],[35.8205869,47.5120678,0],[35.7654746,47.5403035,0],[35.7220434,47.5652067,0],[35.6805864,47.5600425,0],[35.5992997,47.551619,0],[35.4091474,47.5426762,0],[35.3946627,47.5205651,0],[35.2942106,47.44745,0],[35.2645654,47.4541369,0],[35.2707678,47.471615,0],[35.265981,47.4729057,0],[35.2488776,47.4672309,0],[35.2022915,47.4446113,0],[35.1483113,47.445294,0],[35.0771591,47.4529096,0],[35.0586487,47.4469957,0],[35.0442631,47.4373645,0],[35.0161971,47.4111308,0],[34.9683437,47.3888413,0],[34.9280574,47.3923437,0],[34.8805332,47.408514,0],[34.8615646,47.4204922,0],[34.8719899,47.4362367,0],[34.8714315,47.4491942,0],[34.8595748,47.4508616,0],[34.8248539,47.4644103,0],[34.7897248,47.4654981,0],[34.7468745,47.4927306,0],[34.7353254,47.4905702,0],[34.7086344,47.4901894,0],[34.6860624,47.4925871,0],[34.6798516,47.5103383,0],[34.6591351,47.5263506,0],[34.6437415,47.5416799,0],[34.6280309,47.5454374,0],[34.5552786,47.4988788,0],[34.4097775,47.4996834,0],[34.3906093,47.5059926,0],[34.3634542,47.4934979,0],[34.34867,47.4735765,0],[34.338344,47.4448677,0],[34.295758,47.4282951,0],[34.262812,47.4260343,0],[34.1264991,47.4151305,0],[34.0837571,47.4221828,0],[34.0588661,47.4180747,0],[34.0395751,47.4021943,0],[33.9874547,47.226306,0],[33.9166814,47.1633177,0],[33.8638587,47.1423051,0],[33.8404469,47.0981315,0],[33.8019775,47.0586238,0],[33.7224099,47.0169906,0],[33.7083154,46.9996555,0],[33.7011069,46.9626424,0],[33.6949441,46.9209355,0],[33.678107,46.9005327,0],[33.6573358,46.9032299,0],[33.6406865,46.8946642,0],[33.6382903,46.8812899,0],[33.6482522,46.8735474,0],[33.6203002,46.8235956,0],[33.5559307,46.812666,0],[33.513875,46.818856,0],[33.475937,46.8156341,0],[33.3893282,46.7671665,0],[33.3563041,46.7920139,0],[33.3474545,46.789736,0],[33.353533,46.7843966,0],[33.371453,46.7685154,0],[33.2863131,46.7485933,0],[33.2567927,46.7552972,0],[33.2234983,46.7671449,0],[33.1984364,46.7686374,0],[33.1435809,46.7599592,0],[33.0011696,46.7179043,0],[32.9210717,46.7117331,0],[32.844876,46.6850914,0],[32.7723323,46.6683442,0],[32.718709,46.6656893,0],[32.701464,46.6626671,0],[32.659008,46.6499968,0],[32.5538255,46.5475863,0],[32.5158849,46.535963,0],[32.4179407,46.4853242,0],[32.3308639,46.4673464,0],[31.8607262,46.5155751,0],[31.8076795,46.4833006,0],[31.9482061,46.4395736,0],[31.9705696,46.4430965,0],[32.0084394,46.4557845,0],[32.0442764,46.424362,0],[32.0595249,46.3756975,0],[31.9435968,46.342538,0],[31.8383148,46.335374,0],[31.7426898,46.3186399,0],[31.7796209,46.2622631,0],[31.8014172,46.2656771,0],[32.247461,46.124245,0],[32.534363,46.0650206,0],[32.7098616,46.1024475,0],[32.9123093,46.1019529,0],[33.1772138,46.1201098,0],[33.2988557,46.0698046,0],[33.4285253,46.0269836,0],[33.5144787,46.0268673,0],[33.4963625,46.0699214,0],[33.5634111,46.0743766,0],[33.5244618,46.1153326,0],[33.5570005,46.1218879,0],[33.5734077,46.1253447,0],[33.6076289,46.1473165,0],[33.6908993,46.2050773,0]]]},"properties":{"name":"Окуповано","styleUrl":"#poly-A52714-1200-77-nodesc","styleHash":"5f0393c8","styleMapHash":{"normal":"#poly-A52714-1200-77-nodesc-normal","highlight":"#poly-A52714-1200-77-nodesc-highlight"},"stroke-opacity":1,"stroke":"#a52714","stroke-width":1.2,"fill-opacity":0.30196078431372547,"fill":"#a52714"}},{"type":"Feature","geometry":{"type":"Polygon","coordinates":[[[38.355341,49.0541261,0],[38.3448782,49.0470349,0],[38.3403623,49.0426207,0],[38.3384519,49.0385873,0],[38.3344555,49.0328516,0],[38.330918,49.0304024,0],[38.3281413,49.0293108,0],[38.3315352,49.024416,0],[38.3377475,49.0177882,0],[38.337978,49.0168383,0],[38.3386376,49.0160011,0],[38.3397385,49.0158683,0],[38.3409253,49.0164673,0],[38.3430414,49.0177215,0],[38.3433256,49.0190479,0],[38.3464689,49.0197304,0],[38.3494412,49.0193153,0],[38.3530731,49.0192906,0],[38.3546879,49.0192377,0],[38.3563811,49.0205853,0],[38.357719,49.0243794,0],[38.3688424,49.0227627,0],[38.3682066,49.0195628,0],[38.3739741,49.0187917,0],[38.3734758,49.0171128,0],[38.3724764,49.0135383,0],[38.3852978,49.0113145,0],[38.3834413,49.0051496,0],[38.3851418,49.0051109,0],[38.3913648,49.0030006,0],[38.3932208,49.0029654,0],[38.3944761,49.0033243,0],[38.3958012,49.0063321,0],[38.3947232,49.0074255,0],[38.393559,49.0095048,0],[38.3931391,49.0111648,0],[38.3926333,49.0120366,0],[38.3910546,49.0159766,0],[38.3937843,49.0193259,0],[38.396343,49.0299923,0],[38.4068499,49.0361959,0],[38.355341,49.0541261,0]]]},"properties":{"name":"Рубіжне. Території зайняті ворогом","styleUrl":"#poly-A52714-1200-77","styleHash":"bf33a3e","styleMapHash":{"normal":"#poly-A52714-1200-77-normal","highlight":"#poly-A52714-1200-77-highlight"},"description":"Інформація актуальна на  11.04.2022. Карта в Рубіжному зроблена точно по вулицям, наскільки це можливо. Тривають бої<br><br>En: Information is current at 11.04.2022. The map in Rubizhne is made exactly on the streets as much as possible. The fighting continues","stroke-opacity":1,"stroke":"#a52714","stroke-width":1.2,"fill-opacity":0.30196078431372547,"fill":"#a52714"}},{"type":"Feature","geometry":{"type":"Polygon","coordinates":[[[36.3433079,50.0860841,0],[36.355204,50.0836584,0],[36.3764899,50.0723117,0],[36.397261,50.0676841,0],[36.4042977,50.0752992,0],[36.4032677,50.0815784,0],[36.4055594,50.0899831,0],[36.4113959,50.0995639,0],[36.4192923,50.1085923,0],[36.4223822,50.1176191,0],[36.4287337,50.1297254,0],[36.4330252,50.1388582,0],[36.4318236,50.1483192,0],[36.4316519,50.1544789,0],[36.4272647,50.1596073,0],[36.4155192,50.1625742,0],[36.3997229,50.1575584,0],[36.3851317,50.1491992,0],[36.3746603,50.1436989,0],[36.3674506,50.1373178,0],[36.3686522,50.1319262,0],[36.3672789,50.1258737,0],[36.3583525,50.1161881,0],[36.3590392,50.1073813,0],[36.3475378,50.0997841,0],[36.3433079,50.0860841,0]]]},"properties":{"name":"Окуповані Циркуни","styleUrl":"#poly-A52714-1200-77-nodesc","styleHash":"5f0393c8","styleMapHash":{"normal":"#poly-A52714-1200-77-nodesc-normal","highlight":"#poly-A52714-1200-77-nodesc-highlight"},"stroke-opacity":1,"stroke":"#a52714","stroke-width":1.2,"fill-opacity":0.30196078431372547,"fill":"#a52714"}},{"type":"Feature","geometry":{"type":"Polygon","coordinates":[[[37.258105,49.2298041,0],[37.2505519,49.226441,0],[37.2340724,49.2180322,0],[37.235274,49.2019955,0],[37.2385356,49.1923486,0],[37.246947,49.1778746,0],[37.2696063,49.1749569,0],[37.2694572,49.1716214,0],[37.263203,49.1706831,0],[37.2600176,49.1673456,0],[37.2609093,49.1654114,0],[37.2658212,49.1655427,0],[37.2668258,49.1651904,0],[37.2673425,49.1641024,0],[37.2665407,49.1629348,0],[37.2651206,49.161874,0],[37.263958,49.1606447,0],[37.2655788,49.15589,0],[37.2975922,49.1463637,0],[37.3062666,49.1563857,0],[37.3048966,49.1584778,0],[37.3018096,49.1621976,0],[37.2999335,49.1639989,0],[37.2997861,49.1656373,0],[37.30138,49.1661641,0],[37.3026797,49.1664322,0],[37.3030478,49.1678104,0],[37.3039558,49.1694446,0],[37.3049138,49.1701878,0],[37.3055425,49.170608,0],[37.3056578,49.1707131,0],[37.3057047,49.170927,0],[37.3056925,49.1711304,0],[37.3056522,49.1713319,0],[37.3055891,49.1714853,0],[37.3055361,49.1717058,0],[37.305456,49.1718932,0],[37.3053998,49.1720325,0],[37.30529,49.172256,0],[37.3052041,49.1723804,0],[37.30507,49.1725829,0],[37.3048527,49.1727929,0],[37.3047119,49.1728839,0],[37.3045985,49.172982,0],[37.3044668,49.1732134,0],[37.3044492,49.1733642,0],[37.3044457,49.1736079,0],[37.3045513,49.1737929,0],[37.305086,49.1744899,0],[37.3057994,49.1749336,0],[37.3066068,49.1753378,0],[37.3073539,49.176073,0],[37.3077704,49.1769596,0],[37.307807,49.1777116,0],[37.307718,49.1786627,0],[37.3075448,49.1793627,0],[37.3080161,49.1799932,0],[37.3085522,49.1804348,0],[37.3099789,49.1809641,0],[37.3109498,49.181327,0],[37.3121863,49.1824341,0],[37.3125256,49.183142,0],[37.3124163,49.1841551,0],[37.3121139,49.1848456,0],[37.3116753,49.1856103,0],[37.3109838,49.1860767,0],[37.3100586,49.1865063,0],[37.3089951,49.1867631,0],[37.307562,49.1873263,0],[37.306781,49.1878883,0],[37.3066479,49.1887723,0],[37.3070319,49.1900698,0],[37.307374,49.1907467,0],[37.3077596,49.1923332,0],[37.3074372,49.192832,0],[37.3060529,49.1931375,0],[37.3050603,49.1930658,0],[37.3043924,49.1931842,0],[37.3036292,49.1930751,0],[37.3021533,49.1927962,0],[37.3011149,49.1923622,0],[37.3005743,49.1918787,0],[37.2996817,49.1919454,0],[37.2986346,49.1915862,0],[37.2971883,49.1920095,0],[37.2967543,49.192394,0],[37.2964276,49.1928206,0],[37.296448,49.1930856,0],[37.2964254,49.1933085,0],[37.2962277,49.1936558,0],[37.2961534,49.19401,0],[37.2959074,49.1944098,0],[37.2946927,49.1952477,0],[37.2936554,49.1957946,0],[37.2924894,49.1962994,0],[37.2914502,49.1966254,0],[37.2909351,49.1966989,0],[37.2903342,49.1968461,0],[37.2888428,49.197498,0],[37.2883438,49.1977697,0],[37.2879374,49.1983003,0],[37.2877396,49.1985727,0],[37.2876061,49.198845,0],[37.287755,49.1994037,0],[37.2880403,49.1998799,0],[37.288508,49.2007697,0],[37.2908802,49.2018593,0],[37.2933967,49.2025443,0],[37.294934,49.2034476,0],[37.2960353,49.204467,0],[37.2966216,49.2050098,0],[37.2963904,49.2057286,0],[37.2954486,49.2061932,0],[37.2947739,49.2065726,0],[37.2936426,49.2066327,0],[37.2924761,49.2067889,0],[37.2896788,49.2065806,0],[37.2909578,49.2094037,0],[37.2926704,49.2131842,0],[37.2985888,49.2132078,0],[37.3035811,49.213322,0],[37.3107121,49.2100146,0],[37.3133332,49.2109118,0],[37.3189354,49.2092577,0],[37.328057,49.208949,0],[37.3333568,49.2104906,0],[37.3292263,49.2140649,0],[37.3268175,49.2170295,0],[37.3286146,49.2197136,0],[37.3308248,49.2222924,0],[37.331147,49.2255439,0],[37.3202465,49.2323822,0],[37.3085736,49.240004,0],[37.2950123,49.2384349,0],[37.2823093,49.2354086,0],[37.2807645,49.2343999,0],[37.2787044,49.2337554,0],[37.2774599,49.2333071,0],[37.2758291,49.2333351,0],[37.267203,49.2323823,0],[37.258105,49.2298041,0]]]},"properties":{"name":"Ізюм. Окуповано ","styleUrl":"#poly-A52714-1200-77","styleHash":"bf33a3e","styleMapHash":{"normal":"#poly-A52714-1200-77-normal","highlight":"#poly-A52714-1200-77-highlight"},"description":"У зведенні Генерального Штабу 1.04 говориться, що \"ворог продовжує контролювати місто\".<br><br>En: General State Report 1.04 states that \"the enemy continues to control the city.\"","stroke-opacity":1,"stroke":"#a52714","stroke-width":1.2,"fill-opacity":0.30196078431372547,"fill":"#a52714"}},{"type":"Feature","geometry":{"type":"Polygon","coordinates":[[[30.1934477,45.2668024,0],[30.1810881,45.2498856,0],[30.2058073,45.2392496,0],[30.223316,45.253026,0],[30.2109571,45.2672857,0],[30.1934477,45.2668024,0]]]},"properties":{"name":"Зміїний","styleUrl":"#poly-A52714-1200-77-nodesc","styleHash":"5f0393c8","styleMapHash":{"normal":"#poly-A52714-1200-77-nodesc-normal","highlight":"#poly-A52714-1200-77-nodesc-highlight"},"stroke-opacity":1,"stroke":"#a52714","stroke-width":1.2,"fill-opacity":0.30196078431372547,"fill":"#a52714"}},{"type":"Feature","geometry":{"type":"Polygon","coordinates":[[[37.2230016,49.1191418,0],[37.2233833,49.1172293,0],[37.2086205,49.1074535,0],[37.2148003,49.1033515,0],[37.2028698,49.094135,0],[37.2143711,49.0899196,0],[37.1895311,49.057824,0],[37.2096155,49.0533242,0],[37.2298715,49.0859384,0],[37.2289274,49.0941729,0],[37.2326181,49.1025465,0],[37.2262666,49.1043446,0],[37.2209451,49.107716,0],[37.230129,49.1157503,0],[37.229126,49.1197518,0],[37.2230016,49.1191418,0]]]},"properties":{"name":"Окуповано 04.04","styleUrl":"#poly-A52714-1200-77","styleHash":"bf33a3e","styleMapHash":{"normal":"#poly-A52714-1200-77-normal","highlight":"#poly-A52714-1200-77-highlight"},"description":"Зведення Генерального штабу 06:00 05.04: \"У напрямку на Барвінкове ворог має частковий успіх, просунувся на 7 км, взяв під контроль населений пункт Бражківка.\"<br><br>En: Summary of the General Staff 06:00 05.04: \"In the direction of Barvinkova the enemy has partial success, advanced 7 km, took control of the village of Brazhkivka.\"","stroke-opacity":1,"stroke":"#a52714","stroke-width":1.2,"fill-opacity":0.30196078431372547,"fill":"#a52714"}},{"type":"Feature","geometry":{"type":"Polygon","coordinates":[[[38.1687275,49.5546426,0],[38.1083024,49.4440476,0],[38.0869468,49.4415461,0],[37.9176746,49.6473248,0],[37.8990637,49.6500799,0],[37.7502003,49.6908653,0],[37.7038421,49.7286984,0],[37.6371335,49.7132625,0],[37.6475101,49.6628114,0],[37.6513537,49.6452441,0],[37.6907192,49.6218972,0],[37.7668364,49.6411137,0],[37.8023886,49.6369292,0],[37.8506875,49.6377245,0],[37.8805521,49.6120487,0],[38.0106756,49.4251843,0],[37.9543167,49.4000171,0],[37.6027927,49.3886081,0],[37.6111528,49.352759,0],[37.6374934,49.3078365,0],[37.6619118,49.3098954,0],[37.6688585,49.3627197,0],[37.8280929,49.3759315,0],[37.8339134,49.3265294,0],[37.7958249,49.2645937,0],[37.8345743,49.2599169,0],[37.8745689,49.3202708,0],[37.8816597,49.3752488,0],[38.0739496,49.385135,0],[38.0886314,49.3858772,0],[38.1440081,49.3886564,0],[38.1829777,49.3804278,0],[38.1935119,49.3780902,0],[38.438949,49.3256894,0],[38.6623335,49.2905176,0],[38.6955878,49.2761211,0],[38.6766542,49.2576893,0],[38.6165276,49.2166248,0],[38.6002291,49.1924981,0],[38.5963005,49.1665755,0],[38.5875076,49.1423143,0],[38.5704871,49.1198485,0],[38.3864533,49.0849574,0],[38.3564281,49.0567455,0],[38.355341,49.0541261,0],[38.4068499,49.0361959,0],[38.419964,49.0293865,0],[38.4376054,49.0295824,0],[38.4558235,49.02239,0],[38.4621741,49.0218647,0],[38.4650601,49.0226205,0],[38.4777299,49.0217796,0],[38.4783538,49.026355,0],[38.4673359,49.0313443,0],[38.4714212,49.0501193,0],[38.4662373,49.0631238,0],[38.4588197,49.0671293,0],[38.457887,49.081777,0],[38.4730204,49.0829594,0],[38.513097,49.0903218,0],[38.5504758,49.0999554,0],[38.5674266,49.0968852,0],[38.5620101,49.0771785,0],[38.546947,49.060127,0],[38.5274305,49.0486971,0],[38.528859,49.0404759,0],[38.5347495,49.0333799,0],[38.5481935,49.0279742,0],[38.5525108,49.0265109,0],[38.5568379,49.0254998,0],[38.5619476,49.0247341,0],[38.5637582,49.0315523,0],[38.5810198,49.03263,0],[38.582544,49.0441936,0],[38.5919716,49.080619,0],[38.6190964,49.1217418,0],[38.6930794,49.2230982,0],[38.8473121,49.2782646,0],[38.7285237,49.9042486,0],[38.7413162,49.8973019,0],[38.7438242,49.897457,0],[38.7338906,49.9048183,0],[38.7322969,49.9065962,0],[38.7301878,49.9129068,0],[38.7257,49.9216767,0],[38.7232467,49.9271688,0],[38.6928998,49.9349292,0],[38.6925049,49.936334,0],[38.6915431,49.9368787,0],[38.6908205,49.9386863,0],[38.691349,49.9400366,0],[38.6906883,49.9429033,0],[38.6896718,49.946902,0],[38.6878397,49.9505141,0],[38.6875308,49.953574,0],[38.6863207,49.9582906,0],[38.6852993,49.9605072,0],[38.6854115,49.9622831,0],[38.6936353,49.9687381,0],[38.69429,49.9688391,0],[38.6947842,49.9691515,0],[38.6996787,49.9727023,0],[38.7004557,49.9736763,0],[38.7050076,49.9769232,0],[38.7073052,49.9786432,0],[38.7092167,49.9801699,0],[38.7153145,49.9825472,0],[38.7167348,49.9829374,0],[38.7162341,49.9840917,0],[38.7150467,49.9848184,0],[38.7150898,49.9855989,0],[38.7135879,49.9865449,0],[38.7128158,49.9870573,0],[38.7131597,49.9874751,0],[38.7132917,49.9878136,0],[38.7132575,49.9879037,0],[38.7131204,49.9880021,0],[38.7129428,49.9879988,0],[38.712416,49.9881163,0],[38.7121992,49.9882962,0],[38.7120963,49.9886736,0],[38.7118803,49.9888707,0],[38.7117368,49.9890832,0],[38.7115273,49.9892161,0],[38.7112264,49.9893577,0],[38.7103295,49.9895994,0],[38.7101062,49.9896684,0],[38.7100063,49.9897615,0],[38.7098473,49.9897874,0],[38.7096348,49.9898961,0],[38.7095677,49.9899997,0],[38.7093048,49.9901103,0],[38.7092725,49.9902211,0],[38.7092187,49.9902634,0],[38.7086711,49.9906238,0],[38.7086382,49.9908136,0],[38.7085722,49.9908829,0],[38.7085369,49.9910352,0],[38.708402,49.99105,0],[38.7083359,49.9911072,0],[38.7078604,49.9911183,0],[38.7074995,49.9910714,0],[38.7073571,49.9911846,0],[38.7071152,49.9913075,0],[38.7066635,49.9914566,0],[38.7065433,49.9915964,0],[38.7065175,49.9916827,0],[38.7064015,49.9916966,0],[38.706309,49.991621,0],[38.7060572,49.9916291,0],[38.7049419,49.9923281,0],[38.7031617,49.9928845,0],[38.702219,49.9930318,0],[38.7014063,49.993409,0],[38.7011542,49.9941084,0],[38.7021089,49.9956728,0],[38.7020441,49.9962083,0],[38.7017427,49.9972794,0],[38.7007105,49.9977113,0],[38.6996758,49.9990718,0],[38.6973209,50.0017013,0],[38.6950517,50.0027309,0],[38.6921439,50.0030245,0],[38.6908772,50.0051564,0],[38.6874851,50.0059999,0],[38.6864512,50.0072455,0],[38.6847266,50.0078611,0],[38.6805362,50.006451,0],[38.6797794,50.0049306,0],[38.6787807,50.0033239,0],[38.677642,50.0009933,0],[38.676052,49.9923598,0],[38.6768203,49.9914799,0],[38.6797305,49.9746573,0],[38.6769688,49.973133,0],[38.66694,49.9723199,0],[38.6461952,49.9561007,0],[38.6314824,49.9655489,0],[38.6160771,49.9745534,0],[38.611701,49.9757794,0],[38.5815687,49.9775796,0],[38.5680406,49.9724265,0],[38.5267143,49.9584342,0],[38.5103004,49.9627464,0],[38.5084765,49.9636347,0],[38.4877047,49.9637656,0],[38.4828956,49.9702443,0],[38.4822015,49.9777908,0],[38.4789245,49.9778689,0],[38.4775184,49.9834347,0],[38.4644892,49.9835809,0],[38.4680383,49.9954103,0],[38.4340937,50.0011822,0],[38.4285188,49.9970537,0],[38.4160062,49.9815016,0],[38.3971747,49.9911901,0],[38.349573,50.0066076,0],[38.3530892,50.0189083,0],[38.3511988,50.0349042,0],[38.3400321,50.0485902,0],[38.3393272,50.051709,0],[38.3341373,50.0581694,0],[38.3323397,50.0583051,0],[38.3325196,50.0673978,0],[38.3290971,50.0853707,0],[38.3123223,50.0886703,0],[38.3003546,50.0871225,0],[38.2907057,50.0795158,0],[38.2870662,50.0780774,0],[38.2757709,50.073644,0],[38.2514684,50.0729234,0],[38.1779973,50.0800842,0],[38.1841283,50.0558549,0],[38.1832433,50.0469384,0],[38.187264,50.0408273,0],[38.1875572,50.0237952,0],[38.1853864,50.0229161,0],[38.1847301,50.0223111,0],[38.1861615,50.021788,0],[38.1917456,50.0142665,0],[38.1962984,50.0086751,0],[38.2003389,50.0049388,0],[38.1998923,50.0040868,0],[38.2021152,50.0019507,0],[38.2043421,50.0011586,0],[38.2039532,49.9985557,0],[38.2047887,49.9973647,0],[38.2043694,49.9969348,0],[38.2069493,49.9917676,0],[38.2164373,49.9873451,0],[38.255245,49.9096982,0],[38.1769673,49.8424375,0],[38.1879536,49.7395957,0],[38.1330218,49.5973864,0],[38.1687275,49.5546426,0]]]},"properties":{"name":"Окуповано","styleUrl":"#poly-A52714-1200-77-nodesc","styleHash":"5f0393c8","styleMapHash":{"normal":"#poly-A52714-1200-77-nodesc-normal","highlight":"#poly-A52714-1200-77-nodesc-highlight"},"stroke-opacity":1,"stroke":"#a52714","stroke-width":1.2,"fill-opacity":0.30196078431372547,"fill":"#a52714"}},{"type":"Feature","geometry":{"type":"Polygon","coordinates":[[[38.7278112,48.9564349,0],[38.6331849,48.9755983,0],[38.6276389,48.9676976,0],[38.7005034,48.9487523,0],[38.5901335,48.9405778,0],[38.5642082,48.9150297,0],[38.5868753,48.9051684,0],[38.6131979,48.9292041,0],[38.6967474,48.9359542,0],[38.7429174,48.9253149,0],[38.778623,48.9447108,0],[38.7278112,48.9564349,0]]]},"properties":{"name":"Окуповано","styleUrl":"#poly-A52714-1200-77-nodesc","styleHash":"5f0393c8","styleMapHash":{"normal":"#poly-A52714-1200-77-nodesc-normal","highlight":"#poly-A52714-1200-77-nodesc-highlight"},"stroke-opacity":1,"stroke":"#a52714","stroke-width":1.2,"fill-opacity":0.30196078431372547,"fill":"#a52714"}},{"type":"Feature","geometry":{"type":"Polygon","coordinates":[[[39.4070785,48.6594145,0],[39.4106832,48.6576569,0],[39.4174832,48.6594142,0],[39.4372209,48.656472,0],[39.4460615,48.6575492,0],[39.4506805,48.6555591,0],[39.4512972,48.6517092,0],[39.4481056,48.6475073,0],[39.4496553,48.6428491,0],[39.4505565,48.6415163,0],[39.4542043,48.6397865,0],[39.4597833,48.6397298,0],[39.4639142,48.6394599,0],[39.4656626,48.638085,0],[39.4627126,48.632937,0],[39.4631306,48.6290376,0],[39.4672934,48.6286973,0],[39.4730871,48.6291511,0],[39.4785803,48.6291511,0],[39.4856613,48.6304275,0],[39.4892234,48.6316187,0],[39.493987,48.6333772,0],[39.4997376,48.6341997,0],[39.502613,48.6349654,0],[39.5069156,48.6355463,0],[39.5101772,48.6354896,0],[39.5128253,48.6345517,0],[39.5157561,48.6298739,0],[39.511967,48.625135,0],[39.5116363,48.6218747,0],[39.5162584,48.6180996,0],[39.5233093,48.6150091,0],[39.527,48.6095614,0],[39.5236507,48.6061827,0],[39.5224617,48.6026941,0],[39.5239941,48.5986906,0],[39.5313755,48.5971012,0],[39.5321606,48.5934985,0],[39.5274273,48.5919922,0],[39.5251957,48.5885859,0],[39.5312038,48.5842709,0],[39.5415035,48.5842709,0],[39.5459667,48.5873368,0],[39.5457951,48.5923328,0],[39.5476833,48.5969877,0],[39.5545498,48.5995988,0],[39.5617596,48.5985771,0],[39.5656346,48.5939526,0],[39.5653644,48.5889265,0],[39.5612572,48.5848122,0],[39.568111,48.5819997,0],[39.5749043,48.5842444,0],[39.5822859,48.5889568,0],[39.5931737,48.5936953,0],[39.6010701,48.5914245,0],[39.6050183,48.5867691,0],[39.6000401,48.58552,0],[39.594547,48.5810912,0],[39.5943021,48.5764083,0],[39.6024434,48.5746176,0],[39.6094815,48.5750719,0],[39.614803,48.5799555,0],[39.6173779,48.5863149,0],[39.6221846,48.5868826,0],[39.6304244,48.5809776,0],[39.6408957,48.5830217,0],[39.6505087,48.5854064,0],[39.6693908,48.5892114,0],[39.677288,48.5875639,0],[39.6863129,48.5869697,0],[39.6879846,48.5870714,0],[39.687254,48.5872359,0],[39.6867815,48.5879,0],[39.6866738,48.589694,0],[39.6861263,48.5899807,0],[39.6854663,48.5901099,0],[39.6838917,48.5908841,0],[39.6833618,48.5915834,0],[39.6832041,48.5922595,0],[39.6830179,48.5925549,0],[39.6799851,48.5924614,0],[39.679477,48.5921023,0],[39.6795664,48.5907731,0],[39.6790532,48.5903498,0],[39.678625,48.5902659,0],[39.6777028,48.59038,0],[39.6767481,48.5909338,0],[39.6763566,48.591452,0],[39.6757102,48.5932438,0],[39.6757087,48.593941,0],[39.6762015,48.5945593,0],[39.6768128,48.5951503,0],[39.6776173,48.5955993,0],[39.6778935,48.5959356,0],[39.6781589,48.5960094,0],[39.6785759,48.5959292,0],[39.6788595,48.5957471,0],[39.6792266,48.5956561,0],[39.6795282,48.5956674,0],[39.6799473,48.5958788,0],[39.6802963,48.5961761,0],[39.6804494,48.5964453,0],[39.6802791,48.5968567,0],[39.6800653,48.5971653,0],[39.6798832,48.5973373,0],[39.679481,48.5975901,0],[39.6789419,48.5978796,0],[39.6785597,48.5980173,0],[39.6781433,48.5980507,0],[39.6778664,48.5980699,0],[39.6766901,48.5979506,0],[39.6760055,48.597593,0],[39.6753735,48.5968678,0],[39.6750253,48.5966755,0],[39.674465,48.5962884,0],[39.6736699,48.5958749,0],[39.6728217,48.5956184,0],[39.6718075,48.5954405,0],[39.6708928,48.5954651,0],[39.6701672,48.5956264,0],[39.6693879,48.5959651,0],[39.6688088,48.5964395,0],[39.6682831,48.5971593,0],[39.6679344,48.5980017,0],[39.6679961,48.5990899,0],[39.6681341,48.5998895,0],[39.668053,48.6008853,0],[39.6679254,48.6010279,0],[39.6679909,48.6013265,0],[39.6684367,48.6017809,0],[39.6688396,48.6022637,0],[39.6698219,48.6026543,0],[39.6706993,48.6032328,0],[39.6710522,48.6037491,0],[39.6707864,48.6040769,0],[39.6704175,48.6044678,0],[39.6695893,48.6047768,0],[39.66851,48.6049738,0],[39.6676592,48.6050368,0],[39.6664076,48.6050258,0],[39.6658275,48.6049422,0],[39.6653143,48.6048033,0],[39.6649272,48.6047461,0],[39.6643259,48.6047365,0],[39.6638695,48.6047731,0],[39.6635903,48.6048158,0],[39.6632897,48.6049223,0],[39.6627423,48.6052238,0],[39.6625115,48.6053604,0],[39.6622271,48.6054687,0],[39.6615103,48.60569,0],[39.6612373,48.6058365,0],[39.6610394,48.6060362,0],[39.6609019,48.6068248,0],[39.6608449,48.6069394,0],[39.6607234,48.6070612,0],[39.660486,48.607358,0],[39.6604187,48.6075897,0],[39.6604023,48.6079255,0],[39.6605545,48.6082344,0],[39.6606369,48.6085149,0],[39.6606099,48.6086518,0],[39.6605347,48.6088188,0],[39.660545,48.609057,0],[39.6605503,48.6091693,0],[39.6606039,48.6092391,0],[39.6607807,48.6094992,0],[39.6609215,48.6097455,0],[39.661089,48.6100874,0],[39.6611922,48.6106405,0],[39.6613741,48.6108759,0],[39.6616526,48.6110332,0],[39.6621987,48.6115324,0],[39.662584,48.6119464,0],[39.6629351,48.6121501,0],[39.663297,48.6124673,0],[39.6635745,48.6128201,0],[39.6637125,48.6131161,0],[39.663974,48.613969,0],[39.664169,48.6147785,0],[39.6647816,48.6153109,0],[39.6648143,48.6153926,0],[39.6648011,48.6156055,0],[39.6647838,48.6158007,0],[39.6648503,48.6160489,0],[39.6650578,48.6162795,0],[39.6651375,48.6164621,0],[39.6653003,48.616721,0],[39.6656244,48.6172966,0],[39.6660451,48.6178048,0],[39.6661262,48.6179674,0],[39.6661,48.6183285,0],[39.6663743,48.6188953,0],[39.6664899,48.6194341,0],[39.6668965,48.6199871,0],[39.6671695,48.6205367,0],[39.6678502,48.6214338,0],[39.6681565,48.6215794,0],[39.6689564,48.6224483,0],[39.6715159,48.6244803,0],[39.6745691,48.6265122,0],[39.6775968,48.6281861,0],[39.6799906,48.6295761,0],[39.6843419,48.6316892,0],[39.685639,48.6322281,0],[39.6869361,48.632611,0],[39.6876646,48.6328804,0],[39.688436,48.6333484,0],[39.6901617,48.6352497,0],[39.6905558,48.6354841,0],[39.6910787,48.6356192,0],[39.6927872,48.636123,0],[39.6934639,48.6365573,0],[39.693969,48.6370058,0],[39.6941144,48.6374391,0],[39.6942956,48.6377778,0],[39.6943481,48.6382584,0],[39.6943362,48.6388382,0],[39.6942551,48.6391778,0],[39.6942682,48.6397517,0],[39.694028,48.6406199,0],[39.6938757,48.6412951,0],[39.6938531,48.6419092,0],[39.6937346,48.6429323,0],[39.6935358,48.643295,0],[39.693018,48.6436323,0],[39.692684,48.6437726,0],[39.69212,48.6442113,0],[39.6915805,48.6449766,0],[39.6913092,48.6454795,0],[39.6911653,48.6458323,0],[39.6911042,48.6463826,0],[39.6912984,48.6466393,0],[39.6915784,48.6468321,0],[39.6918745,48.6470498,0],[39.6920065,48.6473021,0],[39.6920725,48.6475134,0],[39.6920794,48.6477884,0],[39.6922442,48.6478767,0],[39.6924473,48.6480272,0],[39.6926856,48.648285,0],[39.6929148,48.6485503,0],[39.6931849,48.6489417,0],[39.6933844,48.6491073,0],[39.6935597,48.6493561,0],[39.6938674,48.6495501,0],[39.6942064,48.6496258,0],[39.6944295,48.649692,0],[39.6946189,48.6498066,0],[39.6948316,48.6500074,0],[39.6949674,48.6500671,0],[39.6952634,48.6502777,0],[39.69576,48.6505017,0],[39.6965126,48.6507802,0],[39.6967383,48.650872,0],[39.6969962,48.650939,0],[39.6972545,48.6510517,0],[39.6982345,48.6517533,0],[39.6986123,48.6520031,0],[39.6989621,48.6522414,0],[39.6994482,48.6525307,0],[39.7000882,48.6527037,0],[39.7006657,48.6528079,0],[39.7011476,48.6529486,0],[39.7016621,48.6531642,0],[39.7018443,48.6532481,0],[39.7020748,48.6533069,0],[39.7022028,48.6533483,0],[39.7022826,48.6533949,0],[39.7028812,48.6540075,0],[39.703444,48.6545894,0],[39.7039345,48.6548875,0],[39.7042213,48.6551147,0],[39.7045642,48.6555124,0],[39.7046203,48.6557254,0],[39.7047154,48.6559595,0],[39.7050527,48.6563175,0],[39.7051408,48.6564575,0],[39.7052493,48.656609,0],[39.7054538,48.6567061,0],[39.7057276,48.656712,0],[39.7059987,48.6567753,0],[39.7061772,48.6569309,0],[39.7063156,48.6569681,0],[39.7065078,48.6569768,0],[39.7066838,48.6569148,0],[39.7068577,48.6568093,0],[39.707009,48.6566715,0],[39.7071437,48.656468,0],[39.7072532,48.6563126,0],[39.7073438,48.6561995,0],[39.7076336,48.655906,0],[39.7080353,48.6555944,0],[39.7081733,48.6554966,0],[39.7084561,48.655218,0],[39.7085888,48.6550751,0],[39.7087946,48.6548654,0],[39.7090584,48.6547109,0],[39.7093379,48.6546284,0],[39.7094964,48.6546119,0],[39.7096749,48.6546515,0],[39.7099599,48.6546731,0],[39.7101507,48.6547335,0],[39.7103078,48.6548071,0],[39.7105231,48.6549857,0],[39.7106741,48.6551677,0],[39.7107644,48.6552888,0],[39.7108659,48.6556789,0],[39.7109327,48.6561822,0],[39.7108171,48.6570718,0],[39.7105176,48.6576098,0],[39.7099016,48.6586014,0],[39.7095832,48.6593697,0],[39.7095179,48.6600817,0],[39.709509,48.6608042,0],[39.7096749,48.6620806,0],[39.7096037,48.662506,0],[39.7101118,48.6630023,0],[39.7105771,48.6640442,0],[39.7107025,48.6644164,0],[39.7107222,48.6649993,0],[39.7109574,48.6656663,0],[39.7110424,48.6665317,0],[39.7109858,48.6667024,0],[39.7104532,48.6671562,0],[39.7103518,48.6672554,0],[39.7101753,48.6673121,0],[39.7097256,48.6674964,0],[39.7091365,48.6675461,0],[39.7084556,48.6675709,0],[39.7074984,48.6674097,0],[39.7071216,48.6671981,0],[39.7066707,48.6669928,0],[39.706252,48.6669328,0],[39.7057999,48.6668532,0],[39.7054015,48.6667842,0],[39.7049628,48.6668073,0],[39.7044127,48.6668258,0],[39.703999,48.666883,0],[39.7035641,48.666956,0],[39.7032742,48.6669864,0],[39.7021046,48.6681327,0],[39.7025227,48.6688822,0],[39.7029835,48.6705584,0],[39.7117933,48.6752118,0],[39.7150142,48.6811539,0],[39.7221412,48.6841489,0],[39.7162224,48.6904307,0],[39.7154944,48.6958378,0],[39.7199164,48.6980723,0],[39.7027563,48.7067841,0],[39.7109971,48.7135186,0],[39.7048187,48.7216124,0],[39.7226977,48.734259,0],[39.7389083,48.7485591,0],[39.7413929,48.7719131,0],[39.7651844,48.7651576,0],[39.7842898,48.7974979,0],[39.7971077,48.840725,0],[39.8046535,48.8437256,0],[39.8080254,48.8396294,0],[39.8074845,48.8387303,0],[39.827813,48.8316143,0],[39.8304204,48.8337036,0],[39.8862366,48.8210949,0],[39.9383062,48.8000392,0],[39.9522558,48.7976266,0],[39.9581999,48.7980025,0],[39.9761594,48.793854,0],[40.0788129,48.8700157,0],[40.0712683,48.8771241,0],[40.0554768,48.9102473,0],[40.0484775,48.9103354,0],[40.0311769,48.9159504,0],[40.0180448,48.9079403,0],[39.9837125,48.868209,0],[39.924661,48.8943991,0],[39.8711026,48.8943991,0],[39.8408903,48.9025242,0],[39.8244108,48.8907875,0],[39.8189176,48.9079403,0],[39.7941983,48.9250872,0],[39.7694791,48.9305008,0],[39.7887053,48.94764,0],[39.7378935,48.9882093,0],[39.7255338,48.9737884,0],[39.698068,49.0026259,0],[39.6774686,48.9909127,0],[39.6609891,49.001725,0],[39.6702577,49.0032975,0],[39.6664823,49.0422503,0],[39.6898282,49.0521515,0],[39.7681058,49.0404499,0],[39.7983182,49.0611508,0],[39.8147977,49.0593511,0],[39.8752225,49.0656499,0],[39.9356473,49.0539515,0],[39.9356474,49.0836421,0],[39.9974455,49.1474617,0],[40.2141133,49.2594755,0],[40.1876998,49.34647,0],[40.0425589,49.4328857,0],[40.0375813,49.5200443,0],[40.1568108,49.571992,0],[40.1209125,49.6160659,0],[39.9504881,49.5900219,0],[39.8076974,49.5637667,0],[39.6438532,49.6323583,0],[39.6115113,49.7293259,0],[39.4457825,49.7577329,0],[39.2799454,49.7610594,0],[39.1783817,49.8881503,0],[39.087252,49.8257464,0],[38.9469067,49.7951155,0],[38.8984458,49.8705657,0],[38.8763944,49.8695721,0],[38.8751146,49.8686882,0],[38.8745707,49.8680282,0],[38.8745418,49.8667874,0],[38.8693774,49.8646377,0],[38.8668164,49.8650406,0],[38.8652993,49.8661784,0],[38.8626943,49.8660194,0],[38.8571408,49.8681629,0],[38.8565908,49.8687985,0],[38.8558336,49.8690399,0],[38.8544357,49.8683446,0],[38.8541536,49.8680089,0],[38.8541412,49.8675788,0],[38.853816,49.8672717,0],[38.852007,49.8666577,0],[38.8513931,49.8663147,0],[38.8505944,49.8660159,0],[38.849083,49.8652524,0],[38.846704,49.8656339,0],[38.8461087,49.8658714,0],[38.8456477,49.8659589,0],[38.8439105,49.8653317,0],[38.8432685,49.8652944,0],[38.8393239,49.865911,0],[38.8389446,49.8661759,0],[38.8359972,49.8672864,0],[38.8363251,49.8675158,0],[38.8347918,49.8692191,0],[38.834643,49.8711044,0],[38.8366625,49.8723027,0],[38.8356799,49.87398,0],[38.8349162,49.874486,0],[38.8344188,49.8747233,0],[38.8329516,49.8748937,0],[38.8277416,49.8773082,0],[38.8270202,49.8779057,0],[38.8260063,49.8785197,0],[38.8244074,49.879084,0],[38.8224109,49.8791336,0],[38.7949362,49.8834592,0],[38.7901284,49.8786592,0],[38.7834663,49.8812624,0],[38.7776615,49.8854692,0],[38.7682102,49.8961934,0],[38.7438251,49.8974564,0],[38.7413171,49.8973013,0],[38.7285245,49.904248,0],[38.847313,49.278264,0],[38.9633573,48.9521494,0],[38.7758765,48.9447118,0],[38.7401709,48.9253159,0],[38.7960039,48.9035294,0],[38.8230954,48.9068944,0],[38.9753624,48.9240616,0],[38.965853,48.7751962,0],[39.194248,48.7074681,0],[39.1958003,48.7066559,0],[39.1964012,48.7033707,0],[39.1998344,48.6995187,0],[39.2053277,48.6994055,0],[39.2070442,48.7013881,0],[39.2099624,48.7035972,0],[39.2132241,48.7056364,0],[39.2191464,48.7067692,0],[39.2237812,48.7102242,0],[39.2276436,48.7121498,0],[39.2327935,48.7122631,0],[39.2360475,48.7104132,0],[39.2390516,48.7105264,0],[39.2455747,48.713698,0],[39.2472989,48.7176997,0],[39.2483288,48.7209841,0],[39.2486721,48.7243815,0],[39.253822,48.732421,0],[39.2514187,48.7366101,0],[39.2498738,48.7400065,0],[39.2516687,48.7426858,0],[39.2651443,48.7431386,0],[39.266346,48.7455157,0],[39.2658385,48.7486095,0],[39.2649802,48.7515522,0],[39.2683201,48.7545705,0],[39.2742498,48.7541553,0],[39.2749364,48.7499677,0],[39.2806013,48.7503072,0],[39.2847995,48.7517976,0],[39.2851427,48.7545139,0],[39.2859227,48.7585689,0],[39.2880977,48.7610344,0],[39.2931325,48.7625296,0],[39.2982823,48.7653584,0],[39.3012789,48.7686021,0],[39.3024022,48.7714681,0],[39.3042905,48.7737307,0],[39.3090895,48.7754467,0],[39.3142468,48.7758802,0],[39.3193035,48.7769173,0],[39.3253973,48.775673,0],[39.3259198,48.77226,0],[39.3259123,48.7686586,0],[39.330898,48.7676213,0],[39.3377645,48.7672819,0],[39.3435076,48.7693941,0],[39.3487508,48.7696579,0],[39.3530348,48.7667918,0],[39.3497807,48.7633216,0],[39.3447092,48.7613039,0],[39.342056,48.7552871,0],[39.3455675,48.7506092,0],[39.3463475,48.7472512,0],[39.3492658,48.7423838,0],[39.3545873,48.7404593,0],[39.357498,48.7360065,0],[39.3561322,48.7321946,0],[39.3530423,48.728911,0],[39.353464,48.7262124,0],[39.3601588,48.7225887,0],[39.3667677,48.7212297,0],[39.3713106,48.7199407,0],[39.3721559,48.7170962,0],[39.3684844,48.7156235,0],[39.3629912,48.7159067,0],[39.357498,48.7146042,0],[39.3541313,48.713132,0],[39.3486382,48.7133585,0],[39.3453959,48.7119424,0],[39.3502882,48.7059387,0],[39.3525198,48.7008407,0],[39.3585945,48.6963656,0],[39.367006,48.6914933,0],[39.3792928,48.6863078,0],[39.3889979,48.6844103,0],[39.3879679,48.6807269,0],[39.3903519,48.6781202,0],[39.3936134,48.67642,0],[39.4010142,48.6751162,0],[39.4058207,48.6736993,0],[39.4111232,48.6698451,0],[39.4123248,48.6668976,0],[39.4080333,48.6625326,0],[39.4070785,48.6594145,0]]]},"properties":{"name":"Окуповано","styleUrl":"#poly-A52714-1200-77-nodesc","styleHash":"5f0393c8","styleMapHash":{"normal":"#poly-A52714-1200-77-nodesc-normal","highlight":"#poly-A52714-1200-77-nodesc-highlight"},"stroke-opacity":1,"stroke":"#a52714","stroke-width":1.2,"fill-opacity":0.30196078431372547,"fill":"#a52714"}},{"type":"Feature","geometry":{"type":"Polygon","coordinates":[[[33.3967657,47.4749894,0],[33.3967056,47.4680827,0],[33.4298362,47.4693591,0],[33.4713783,47.4750448,0],[33.4775581,47.4608875,0],[33.4972992,47.4610036,0],[33.4938659,47.4806139,0],[33.5156669,47.4829341,0],[33.5199585,47.4744647,0],[33.5652771,47.4867623,0],[33.5544203,47.5050804,0],[33.5460514,47.5180609,0],[33.4989476,47.5120287,0],[33.5124054,47.4917502,0],[33.4645118,47.4847902,0],[33.4294929,47.4775974,0],[33.3967657,47.4749894,0]]]},"properties":{"name":"Окуповано","styleUrl":"#poly-A52714-1200-77-nodesc","styleHash":"5f0393c8","styleMapHash":{"normal":"#poly-A52714-1200-77-nodesc-normal","highlight":"#poly-A52714-1200-77-nodesc-highlight"},"stroke-opacity":1,"stroke":"#a52714","stroke-width":1.2,"fill-opacity":0.30196078431372547,"fill":"#a52714"}},{"type":"Feature","geometry":{"type":"Polygon","coordinates":[[[37.8562077,48.1928465,0],[37.8833302,48.1997121,0],[37.8965706,48.2154292,0],[37.89157,48.2550609,0],[37.8650718,48.265702,0],[37.8544288,48.2563309,0],[37.8455024,48.2405561,0],[37.8194098,48.2414707,0],[37.8125434,48.2380409,0],[37.8228431,48.230723,0],[37.8290229,48.2041871,0],[37.8562077,48.1928465,0]]]},"properties":{"name":"Окуповано","styleUrl":"#poly-A52714-1200-77-nodesc","styleHash":"5f0393c8","styleMapHash":{"normal":"#poly-A52714-1200-77-nodesc-normal","highlight":"#poly-A52714-1200-77-nodesc-highlight"},"stroke-opacity":1,"stroke":"#a52714","stroke-width":1.2,"fill-opacity":0.30196078431372547,"fill":"#a52714"}},{"type":"Feature","geometry":{"type":"Polygon","coordinates":[[[37.299243,49.1314433,0],[37.2820136,49.1313473,0],[37.2786208,49.1218186,0],[37.3011084,49.1101334,0],[37.3179312,49.0798965,0],[37.3529502,49.0531287,0],[37.3615332,49.0562786,0],[37.336299,49.0763545,0],[37.3550946,49.0870069,0],[37.3527785,49.0937808,0],[37.3671981,49.104627,0],[37.3919173,49.0979959,0],[37.4564619,49.0840003,0],[37.4704522,49.0798684,0],[37.4911806,49.0855601,0],[37.4902263,49.098505,0],[37.470216,49.105154,0],[37.4648734,49.0885536,0],[37.3927764,49.1061728,0],[37.3805886,49.1080553,0],[37.3679712,49.1126343,0],[37.3641081,49.1113695,0],[37.3548358,49.1004688,0],[37.3359557,49.0929377,0],[37.3400756,49.0872045,0],[37.3290892,49.0838317,0],[37.3151847,49.1187852,0],[37.299243,49.1314433,0]]]},"properties":{"name":"Окуповано","styleUrl":"#poly-A52714-1200-77","styleHash":"bf33a3e","styleMapHash":{"normal":"#poly-A52714-1200-77-normal","highlight":"#poly-A52714-1200-77-highlight"},"description":"Приблизно з кінця березня-початку квітня<br><br>En: About the end of March-beginning of April","stroke-opacity":1,"stroke":"#a52714","stroke-width":1.2,"fill-opacity":0.30196078431372547,"fill":"#a52714"}},{"type":"Feature","geometry":{"type":"Polygon","coordinates":[[[38.4024861,48.5572586,0],[38.4019504,48.5615018,0],[38.4019712,48.5747527,0],[38.402637,48.5810386,0],[38.402637,48.5919397,0],[38.4060702,48.6019302,0],[38.4048036,48.6090985,0],[38.4046894,48.6169314,0],[38.3739903,48.6047285,0],[38.3719304,48.5749798,0],[38.4024861,48.5572586,0]]]},"properties":{"name":"Окуповано","styleUrl":"#poly-A52714-1200-77-nodesc","styleHash":"5f0393c8","styleMapHash":{"normal":"#poly-A52714-1200-77-nodesc-normal","highlight":"#poly-A52714-1200-77-nodesc-highlight"},"stroke-opacity":1,"stroke":"#a52714","stroke-width":1.2,"fill-opacity":0.30196078431372547,"fill":"#a52714"}},{"type":"Feature","geometry":{"type":"GeometryCollection","geometries":[{"type":"Polygon","coordinates":[[[36.442791,50.1948843,0],[36.4756871,50.2224278,0],[36.5349597,50.2310514,0],[36.5688825,50.2451174,0],[36.560134,50.2506442,0],[36.5685677,50.2576353,0],[36.5742447,50.2552869,0],[36.5777704,50.2586122,0],[36.5750703,50.2607689,0],[36.5804148,50.262451,0],[36.5775943,50.2671876,0],[36.5758405,50.2743012,0],[36.5739147,50.2753804,0],[36.5939454,50.275778,0],[36.5935765,50.2780338,0],[36.5893578,50.2792715,0],[36.5877881,50.2814183,0],[36.5886216,50.2838941,0],[36.5836791,50.2863778,0],[36.569763,50.2855973,0],[36.5615122,50.2845964,0],[36.5562823,50.2812329,0],[36.5252953,50.2859664,0],[36.527203,50.2925651,0],[36.5236867,50.2936724,0],[36.520984,50.2929646,0],[36.5168861,50.2936524,0],[36.5156951,50.2958604,0],[36.5126961,50.2959226,0],[36.5117972,50.2952408,0],[36.5003186,50.2992313,0],[36.4977973,50.3022131,0],[36.4921859,50.3045917,0],[36.4896642,50.3077523,0],[36.4897172,50.3099261,0],[36.4874198,50.3116425,0],[36.4723521,50.3129375,0],[36.4406691,50.3108091,0],[36.437196,50.3180914,0],[36.4337192,50.3307479,0],[36.4240611,50.3285,0],[36.4205385,50.3226879,0],[36.400448,50.3073336,0],[36.3753767,50.3011746,0],[36.373987,50.2989435,0],[36.3763675,50.2957118,0],[36.3783951,50.2937102,0],[36.3765068,50.2936005,0],[36.3668763,50.287477,0],[36.3550095,50.2879248,0],[36.2964342,50.2919211,0],[36.3002758,50.2992945,0],[36.2845474,50.3000884,0],[36.284119,50.3050194,0],[36.2808571,50.3100582,0],[36.2774212,50.3124621,0],[36.2750103,50.3170522,0],[36.2767126,50.31856,0],[36.2787438,50.3228931,0],[36.2725031,50.3238871,0],[36.2744416,50.3265342,0],[36.2772896,50.3309544,0],[36.2826447,50.3354141,0],[36.278591,50.3385283,0],[36.26998,50.3340503,0],[36.2658352,50.3198193,0],[36.2587212,50.3175515,0],[36.2433677,50.3196669,0],[36.1796015,50.3472138,0],[36.1715681,50.3269263,0],[36.1595922,50.2669172,0],[36.1577873,50.2582685,0],[36.1901487,50.2553118,0],[36.2039331,50.2552354,0],[36.2086199,50.2545081,0],[36.2107294,50.2375362,0],[36.2070518,50.2196193,0],[36.2017097,50.2078668,0],[36.1983475,50.2029996,0],[36.2488838,50.2026887,0],[36.2574018,50.1660139,0],[36.2531122,50.1534316,0],[36.2519988,50.152838,0],[36.249086,50.1527507,0],[36.2463507,50.152356,0],[36.244829,50.1501372,0],[36.2429878,50.1477896,0],[36.2415376,50.1463948,0],[36.2412125,50.1443757,0],[36.243896,50.1433141,0],[36.2486395,50.1434626,0],[36.2531482,50.1438693,0],[36.2551269,50.1396221,0],[36.2544492,50.1384988,0],[36.2524074,50.1377926,0],[36.2502119,50.1364905,0],[36.2516571,50.1333362,0],[36.2551875,50.1325823,0],[36.2621509,50.1319381,0],[36.2668506,50.1305374,0],[36.2681669,50.1324775,0],[36.2765507,50.1318752,0],[36.284048,50.1302299,0],[36.2940477,50.1318481,0],[36.2974382,50.133466,0],[36.3031896,50.1352707,0],[36.3037978,50.1421384,0],[36.3026619,50.1450115,0],[36.29938,50.1487094,0],[36.2940924,50.1482208,0],[36.2833801,50.1491862,0],[36.2822035,50.1510774,0],[36.2801685,50.1521986,0],[36.2776058,50.1514944,0],[36.2753865,50.1502401,0],[36.2703574,50.147816,0],[36.267646,50.1473167,0],[36.2647983,50.1469782,0],[36.2598376,50.1486392,0],[36.2617432,50.1528302,0],[36.2640092,50.1656115,0],[36.2740368,50.1685188,0],[36.2639742,50.1868065,0],[36.2611164,50.2057533,0],[36.2786264,50.224096,0],[36.3112493,50.2182684,0],[36.353072,50.2298834,0],[36.3800226,50.2257959,0],[36.3982192,50.2200969,0],[36.3970194,50.2187172,0],[36.395132,50.218302,0],[36.3936737,50.2171728,0],[36.3920038,50.2171321,0],[36.3930807,50.2110498,0],[36.396092,50.204982,0],[36.4085832,50.2005193,0],[36.4172319,50.2037812,0],[36.4205597,50.2068231,0],[36.4281664,50.1989237,0],[36.4299893,50.1943325,0],[36.4280998,50.1834191,0],[36.4236341,50.1864323,0],[36.4147017,50.1885009,0],[36.4134242,50.1839773,0],[36.4183263,50.177475,0],[36.4097637,50.1761223,0],[36.4146111,50.1648416,0],[36.4155192,50.1625742,0],[36.4272647,50.1596073,0],[36.442791,50.1948843,0]]]},{"type":"Polygon","coordinates":[[[37.2820136,49.1313473,0],[37.299243,49.1314433,0],[37.2975922,49.1463637,0],[37.2655788,49.15589,0],[37.263958,49.1606447,0],[37.2651206,49.161874,0],[37.2665407,49.1629348,0],[37.2673425,49.1641024,0],[37.2672725,49.1647819,0],[37.2668258,49.1651904,0],[37.2658212,49.1655427,0],[37.2638978,49.1655457,0],[37.2609093,49.1654114,0],[37.2600176,49.1673456,0],[37.263203,49.1706831,0],[37.2694572,49.1716214,0],[37.2696063,49.1749569,0],[37.246947,49.1778746,0],[37.2464459,49.1589732,0],[37.2376134,49.1503645,0],[37.2353061,49.1409696,0],[37.2209513,49.1391157,0],[37.2205017,49.1368121,0],[37.2242381,49.133834,0],[37.2160909,49.1312467,0],[37.2193322,49.1258966,0],[37.2230016,49.1191418,0],[37.229126,49.1197518,0],[37.2241786,49.1276636,0],[37.2576879,49.1354613,0],[37.2820136,49.1313473,0]]]},{"type":"Polygon","coordinates":[[[37.6378547,49.7131521,0],[37.7045602,49.7286012,0],[37.7291091,49.7689049,0],[37.7759385,49.84212,0],[37.8192395,49.9025627,0],[37.8721418,49.9202955,0],[37.8701481,49.940127,0],[37.874681,49.9410425,0],[37.8789152,49.945806,0],[37.8937374,49.9470829,0],[37.938783,49.9629324,0],[37.9231299,49.9817117,0],[37.9415719,49.9886746,0],[37.951521,49.9980089,0],[37.947525,50.0030582,0],[37.90551,49.9873025,0],[37.9004551,49.9699128,0],[37.872502,49.9678022,0],[37.8399358,49.9821123,0],[37.7871574,49.9903847,0],[37.7187864,49.9987024,0],[37.6998286,50.0184791,0],[37.6687958,50.0377402,0],[37.6425726,50.0596502,0],[37.5772797,50.0675247,0],[37.4903859,50.0300345,0],[37.4460907,50.0440841,0],[37.4445125,50.0776918,0],[37.441027,50.1107911,0],[37.4043151,50.1290966,0],[37.3976653,50.1453109,0],[37.4664683,50.1556176,0],[37.5001039,50.1727254,0],[37.5506828,50.1738766,0],[37.5945024,50.1700226,0],[37.6534642,50.1676448,0],[37.6538249,50.168992,0],[37.6521256,50.170999,0],[37.6454594,50.1745598,0],[37.6396556,50.1763743,0],[37.6383146,50.1798933,0],[37.6390335,50.1851711,0],[37.6421886,50.1913299,0],[37.6246285,50.206065,0],[37.6082806,50.1946301,0],[37.5503762,50.1908778,0],[37.5071403,50.1957191,0],[37.4704229,50.1834159,0],[37.4513754,50.1864961,0],[37.4141913,50.1811545,0],[37.3577977,50.1749461,0],[37.3526302,50.1652082,0],[37.3472247,50.1687712,0],[37.2992005,50.1865434,0],[37.2527518,50.181743,0],[37.1903319,50.1845092,0],[37.1812921,50.1937969,0],[37.1499891,50.2012972,0],[37.1296599,50.2167028,0],[37.1286339,50.2166203,0],[37.133062,50.2350265,0],[37.1309429,50.2641289,0],[37.1251679,50.2921578,0],[37.1399958,50.3043929,0],[37.1737261,50.3087018,0],[37.197851,50.3165118,0],[37.2098418,50.3272165,0],[37.2273282,50.3295897,0],[37.2657081,50.340498,0],[37.2996302,50.3467984,0],[37.3127128,50.3446477,0],[37.3422879,50.3565757,0],[37.3561081,50.3646644,0],[37.3725519,50.3718442,0],[37.4144015,50.3785853,0],[37.4641113,50.3852789,0],[37.4657555,50.3952556,0],[37.4653401,50.4052323,0],[37.4641842,50.4226714,0],[37.4674724,50.4314666,0],[37.4814765,50.4310531,0],[37.4865542,50.4417921,0],[37.4910732,50.4580667,0],[37.4764437,50.4598836,0],[37.4734876,50.4551426,0],[37.4318705,50.4436889,0],[37.4241712,50.4365194,0],[37.3971068,50.4309195,0],[37.3520339,50.4367122,0],[37.3330496,50.4368105,0],[37.3191165,50.4321915,0],[37.3097985,50.4225118,0],[37.3001019,50.4061836,0],[37.2910179,50.401087,0],[37.2737209,50.3964523,0],[37.26465,50.3941135,0],[37.2613641,50.3925524,0],[37.2574776,50.390991,0],[37.2558842,50.3924646,0],[37.2547307,50.3922069,0],[37.2223932,50.3794522,0],[37.2231225,50.3780223,0],[37.2146263,50.3745018,0],[37.205188,50.3722736,0],[37.1874938,50.3657997,0],[37.176311,50.3620474,0],[37.1599291,50.3585678,0],[37.1492607,50.3559086,0],[37.1372662,50.360992,0],[37.1041536,50.3572209,0],[37.1059114,50.3518676,0],[37.0826455,50.3481603,0],[37.0684957,50.346708,0],[37.0587336,50.3473086,0],[37.0440136,50.3454405,0],[37.0375019,50.3484683,0],[36.99185,50.348542,0],[36.9358952,50.3503614,0],[36.9215108,50.3484492,0],[36.8920617,50.3402348,0],[36.8827272,50.3365913,0],[36.8696171,50.3357955,0],[36.8628594,50.3314927,0],[36.8540428,50.3300383,0],[36.8334542,50.3132265,0],[36.8295215,50.3119783,0],[36.8185975,50.3129139,0],[36.8120509,50.3114921,0],[36.809164,50.3113841,0],[36.8049038,50.31007,0],[36.7993883,50.3059617,0],[36.7860944,50.3049565,0],[36.7811269,50.3030185,0],[36.7710206,50.3030883,0],[36.768318,50.3018023,0],[36.7643738,50.2908494,0],[36.7585426,50.2897112,0],[36.7538679,50.2896085,0],[36.7478202,50.2873119,0],[36.7502674,50.2865594,0],[36.750912,50.2846004,0],[36.7504846,50.28156,0],[36.7485999,50.2801958,0],[36.7465328,50.2805046,0],[36.745324,50.2816909,0],[36.7422197,50.2817598,0],[36.7403026,50.2829944,0],[36.7289879,50.2772503,0],[36.7199917,50.2773193,0],[36.7058471,50.2687753,0],[36.7035485,50.268679,0],[36.704413,50.2649214,0],[36.7025707,50.2641124,0],[36.7007285,50.264291,0],[36.6967926,50.2668707,0],[36.6952721,50.2692868,0],[36.6908578,50.267974,0],[36.6885903,50.2664415,0],[36.6832082,50.2571157,0],[36.6839204,50.2509718,0],[36.6796871,50.2380552,0],[36.6768287,50.2348004,0],[36.6637035,50.2219758,0],[36.6480128,50.2174882,0],[36.6406387,50.2221486,0],[36.6189692,50.2271418,0],[36.6148078,50.226972,0],[36.6132719,50.2237687,0],[36.5952612,50.2298794,0],[36.5956179,50.231213,0],[36.5970047,50.2312289,0],[36.5838898,50.2365271,0],[36.5688825,50.2451174,0],[36.5349597,50.2310514,0],[36.4756871,50.2224278,0],[36.442791,50.1948843,0],[36.4967617,50.1797094,0],[36.5184371,50.1658413,0],[36.5906822,50.1497005,0],[36.621185,50.1565483,0],[36.6197217,50.1508219,0],[36.6231093,50.1393789,0],[36.6498306,50.1116493,0],[36.6272659,50.095392,0],[36.6034557,50.0848939,0],[36.5980431,50.0751556,0],[36.5855944,50.0741197,0],[36.5773052,50.0710513,0],[36.444564,50.0581742,0],[36.4575324,50.0350982,0],[36.5752134,50.0611857,0],[36.5827041,50.0625472,0],[36.5857326,50.0697488,0],[36.5956461,50.0700551,0],[36.605667,50.0682798,0],[36.6069865,50.0666483,0],[36.6071043,50.0650168,0],[36.6089049,50.0598428,0],[36.6192004,50.0598523,0],[36.6298388,50.0632216,0],[36.6363579,50.0622926,0],[36.6820044,50.0663875,0],[36.7189789,50.0701346,0],[36.7407511,50.068783,0],[36.7650735,50.066042,0],[36.8234141,50.077218,0],[36.8304818,50.0675691,0],[36.8368452,50.05245,0],[36.8537987,50.0347849,0],[36.8793819,50.0185998,0],[36.8877034,50.0131984,0],[36.9049497,50.0190487,0],[36.9092275,50.0025088,0],[36.9263217,49.9950748,0],[36.9348305,49.9849885,0],[36.9469779,49.9698365,0],[36.9559914,49.9625585,0],[36.9538623,49.9568157,0],[36.9563851,49.9466005,0],[36.9550892,49.9438671,0],[36.9506652,49.939186,0],[36.9544825,49.9349453,0],[36.9591201,49.9300836,0],[36.9715658,49.9278734,0],[36.9887745,49.926989,0],[37.0004682,49.9234525,0],[37.0310292,49.9285372,0],[37.0351547,49.923453,0],[37.0126709,49.9188141,0],[37.008386,49.9165998,0],[37.007868,49.9085293,0],[37.0043694,49.9059586,0],[37.0029313,49.9013975,0],[36.997116,49.8956196,0],[36.9970743,49.8898134,0],[36.996839,49.8874636,0],[36.9895027,49.8834277,0],[36.992829,49.8775612,0],[37.0070079,49.8704974,0],[37.0010521,49.8576764,0],[37.0028923,49.8424104,0],[36.9856275,49.8334502,0],[36.977347,49.8358304,0],[36.9498599,49.825502,0],[36.9090014,49.8092546,0],[36.9038084,49.8075174,0],[36.8927814,49.7995755,0],[36.8941348,49.7811977,0],[36.8832046,49.7550598,0],[36.8780246,49.7507496,0],[36.8711889,49.7465176,0],[36.8777803,49.7427222,0],[36.8616592,49.7338447,0],[36.8290634,49.7329503,0],[36.8055712,49.7231769,0],[36.7971894,49.7137903,0],[36.819489,49.7116698,0],[36.8224967,49.7215154,0],[36.8268552,49.7232829,0],[36.838593,49.7090682,0],[36.871037,49.6794317,0],[36.9007836,49.652597,0],[36.904477,49.6472477,0],[36.8757326,49.6281136,0],[36.8602365,49.6133745,0],[36.8320473,49.6061944,0],[36.7961687,49.6140235,0],[36.7844922,49.6106134,0],[36.7851127,49.6032407,0],[36.8078234,49.6023068,0],[36.8281281,49.59703,0],[36.8656359,49.6088357,0],[36.8859923,49.621969,0],[36.9205173,49.6331479,0],[36.9301526,49.6247528,0],[36.9709804,49.6025791,0],[36.9612629,49.563682,0],[36.9045636,49.5153786,0],[36.8645063,49.4834133,0],[36.8517722,49.4834445,0],[36.846398,49.4925422,0],[36.8218653,49.4971359,0],[36.8003351,49.498551,0],[36.7856808,49.4780348,0],[36.7839718,49.476937,0],[36.7859618,49.474797,0],[36.7874529,49.4717438,0],[36.7894052,49.4698205,0],[36.7927092,49.4665315,0],[36.794468,49.4646091,0],[36.7940599,49.4633411,0],[36.7945102,49.4618499,0],[36.7947234,49.4595253,0],[36.7930913,49.4578422,0],[36.8013681,49.4573582,0],[36.806162,49.4570596,0],[36.8126582,49.456016,0],[36.8163805,49.4557138,0],[36.8176446,49.4533243,0],[36.8177689,49.4514469,0],[36.8190467,49.4494778,0],[36.8188546,49.4450939,0],[36.8236186,49.4425762,0],[36.8297114,49.4420047,0],[36.8308227,49.4387504,0],[36.831378,49.4353368,0],[36.8314833,49.4317317,0],[36.8312641,49.4277591,0],[36.8349312,49.4237632,0],[36.8353913,49.4200904,0],[36.8296133,49.417584,0],[36.8276124,49.4135141,0],[36.828166,49.4109384,0],[36.833011,49.4078042,0],[36.8393288,49.4053867,0],[36.8401658,49.4059559,0],[36.8476007,49.4131347,0],[36.8487441,49.4187349,0],[36.8376427,49.4282348,0],[36.8410176,49.4344362,0],[36.844393,49.4368417,0],[36.8560159,49.4513754,0],[36.8607993,49.4535078,0],[36.8626335,49.4513934,0],[36.8639367,49.4501408,0],[36.8649317,49.4498772,0],[36.8696349,49.4513077,0],[36.8792801,49.4552332,0],[36.8851774,49.453429,0],[36.8974571,49.4528513,0],[36.9227791,49.4428962,0],[36.9612357,49.4311724,0],[37.0122001,49.4250074,0],[37.0324222,49.4152629,0],[37.0529736,49.391889,0],[37.0741814,49.3934696,0],[37.0878746,49.3993941,0],[37.1060526,49.3998953,0],[37.1302463,49.399361,0],[37.1510955,49.3975272,0],[37.1640929,49.3954919,0],[37.1729935,49.3891109,0],[37.1928796,49.3402461,0],[37.1643869,49.3186147,0],[37.1362491,49.2894086,0],[37.1398589,49.2825275,0],[37.1681922,49.3027396,0],[37.2052979,49.3062268,0],[37.2043798,49.2959989,0],[37.2127269,49.2696497,0],[37.2505519,49.2263288,0],[37.258105,49.2296919,0],[37.267203,49.2323823,0],[37.2787044,49.2337554,0],[37.2823093,49.2354086,0],[37.2950123,49.2384349,0],[37.3085736,49.240004,0],[37.331147,49.2255439,0],[37.3308248,49.2222924,0],[37.3268175,49.2170295,0],[37.3292263,49.2140649,0],[37.3333568,49.2104906,0],[37.328057,49.208949,0],[37.3189354,49.2092577,0],[37.3133332,49.2109118,0],[37.3107121,49.2100146,0],[37.3355949,49.1933786,0],[37.3505327,49.1915217,0],[37.417164,49.1990202,0],[37.4346967,49.1992357,0],[37.4594683,49.2480889,0],[37.4747896,49.2582859,0],[37.5534511,49.3146846,0],[37.5388179,49.337035,0],[37.5290668,49.3492414,0],[37.5021438,49.3497513,0],[37.4801735,49.352738,0],[37.4526851,49.3995432,0],[37.4391334,49.3953713,0],[37.4319185,49.3903325,0],[37.3891734,49.3933983,0],[37.3587807,49.4000278,0],[37.3488041,49.4035506,0],[37.3405202,49.4070184,0],[37.2360546,49.4045042,0],[37.206925,49.4014473,0],[37.1903222,49.4010703,0],[37.1628757,49.4031638,0],[37.136112,49.4072617,0],[37.1038497,49.4526366,0],[37.138697,49.5120796,0],[37.0458298,49.584799,0],[37.0143855,49.6154354,0],[37.0270785,49.6384689,0],[37.0415785,49.6482848,0],[37.0524262,49.6514362,0],[37.0753637,49.6527875,0],[37.1033186,49.6504597,0],[37.1236527,49.643958,0],[37.1400052,49.6410383,0],[37.1469244,49.6454804,0],[37.1486938,49.6534789,0],[37.1711245,49.6741408,0],[37.203675,49.6626597,0],[37.2400009,49.6747195,0],[37.2419552,49.6702113,0],[37.2905908,49.6528094,0],[37.3277058,49.6542835,0],[37.3418019,49.6570145,0],[37.3909209,49.6597368,0],[37.4167108,49.6538439,0],[37.4404366,49.651502,0],[37.4908324,49.6648858,0],[37.5082898,49.6818151,0],[37.5380492,49.6955549,0],[37.5461477,49.6958623,0],[37.5548317,49.6940723,0],[37.5635144,49.6902829,0],[37.5767553,49.6870315,0],[37.5813128,49.6900684,0],[37.5856521,49.6929184,0],[37.5907402,49.6900114,0],[37.5939694,49.6863365,0],[37.5983294,49.6853875,0],[37.6015383,49.6871339,0],[37.6048598,49.6883397,0],[37.6078936,49.6897196,0],[37.6109552,49.6912975,0],[37.6143744,49.6905313,0],[37.61471,49.6974769,0],[37.6189989,49.699505,0],[37.6171946,49.7051813,0],[37.6183535,49.7096834,0],[37.627345,49.7093801,0],[37.626517,49.7027892,0],[37.633999,49.7013823,0],[37.6305286,49.6972368,0],[37.634802,49.6902787,0],[37.6338477,49.6831351,0],[37.6364602,49.6753426,0],[37.6365642,49.6704465,0],[37.6338692,49.6682207,0],[37.6309768,49.6673301,0],[37.6375988,49.6654405,0],[37.6361031,49.6619398,0],[37.6343251,49.6584115,0],[37.6344658,49.6563138,0],[37.6379693,49.6539312,0],[37.6410945,49.6507391,0],[37.6411122,49.6488093,0],[37.644726,49.6455101,0],[37.648593,49.644527,0],[37.652072,49.6451469,0],[37.6502069,49.6532371,0],[37.6392423,49.7068647,0],[37.6378547,49.7131521,0]],[[37.345543,50.1540296,0],[37.3468704,50.1538129,0],[37.346535,50.154772,0],[37.345543,50.1540296,0]],[[37.1285977,50.2164698,0],[37.1289687,50.2164086,0],[37.1286339,50.2166203,0],[37.1285977,50.2164698,0]],[[37.6378518,49.7131653,0],[37.6378521,49.7131515,0],[37.6378547,49.7131521,0],[37.6378518,49.7131653,0]],[[36.9902726,50.0782094,0],[36.9904378,50.0782444,0],[36.9788036,50.0762851,0],[36.9902726,50.0782094,0]],[[36.9775191,50.0802187,0],[36.9781095,50.0782486,0],[36.9788036,50.0762851,0],[36.9775191,50.0802187,0]],[[37.1695861,49.6819699,0],[37.1694253,49.6820526,0],[37.169318,49.6819953,0],[37.1695861,49.6819699,0]],[[37.3518288,50.1648259,0],[37.3518609,50.1649839,0],[37.3515025,50.1648278,0],[37.3519038,50.1646884,0],[37.3518288,50.1648259,0]],[[37.1286842,50.2157058,0],[37.1286898,50.2155024,0],[37.1301439,50.2154482,0],[37.1302082,50.2157632,0],[37.1296599,50.2167028,0],[37.1286842,50.2157058,0]],[[37.0737191,50.2061337,0],[37.02917,50.2248552,0],[36.9943736,50.2310649,0],[36.9430579,50.2688789,0],[36.9175845,50.2482127,0],[36.9131039,50.2137357,0],[36.9039886,50.17409,0],[36.8966742,50.1591158,0],[36.8777353,50.1462478,0],[36.8850866,50.1389398,0],[36.881543,50.1292349,0],[36.9091203,50.1236133,0],[36.9283969,50.1220077,0],[36.971695,50.113674,0],[36.9888902,50.0958996,0],[36.9896006,50.085172,0],[37.064514,50.1012676,0],[37.077273,50.1710256,0],[37.0859343,50.2003131,0],[37.0737191,50.2061337,0]],[[36.6457165,50.0771592,0],[36.6453919,50.0702197,0],[36.6735651,50.0734649,0],[36.7025893,50.0796176,0],[36.7345714,50.0821836,0],[36.7518291,50.0758293,0],[36.7781011,50.0718882,0],[36.7936035,50.0789658,0],[36.8259958,50.0817231,0],[36.8187823,50.0987857,0],[36.819037,50.1185485,0],[36.8220002,50.1384976,0],[36.8245425,50.1457937,0],[36.8312057,50.1517696,0],[36.847655,50.1551051,0],[36.8477357,50.1654483,0],[36.8436957,50.1757915,0],[36.825201,50.1553944,0],[36.7263769,50.1692769,0],[36.7133016,50.1568866,0],[36.7038568,50.133756,0],[36.6950255,50.119772,0],[36.6615687,50.1065897,0],[36.638431,50.0867945,0],[36.6457165,50.0771592,0]],[[36.9938226,50.0747832,0],[36.9908126,50.0703022,0],[36.9748036,50.0665192,0],[36.9680004,50.0709075,0],[36.9684063,50.0752958,0],[36.9442457,50.0727156,0],[36.8654977,50.0745195,0],[36.8371678,50.0783323,0],[36.8417989,50.0653978,0],[36.8618103,50.0557225,0],[36.8714736,50.0405918,0],[36.8896903,50.0272906,0],[36.9147703,50.0338335,0],[36.9254227,50.009646,0],[36.984767,49.9624954,0],[36.984825,49.942557,0],[37.0068882,49.9344967,0],[37.03999,49.9378132,0],[37.0591238,49.9619186,0],[37.1141333,49.986436,0],[37.168369,49.989544,0],[37.1918723,50.0260921,0],[37.2277759,50.0889467,0],[37.1788783,50.0916162,0],[37.1683303,50.0965244,0],[37.158469,50.0904191,0],[37.1392912,50.0983793,0],[37.1201111,50.0953242,0],[37.1057797,50.1019853,0],[37.0616176,50.0902028,0],[36.9904378,50.0782444,0],[36.9938226,50.0747832,0]]]}]},"properties":{"name":"Окуповано","styleUrl":"#poly-A52714-1200-77-nodesc","styleHash":"5f0393c8","styleMapHash":{"normal":"#poly-A52714-1200-77-nodesc-normal","highlight":"#poly-A52714-1200-77-nodesc-highlight"},"stroke-opacity":1,"stroke":"#a52714","stroke-width":1.2,"fill-opacity":0.30196078431372547,"fill":"#a52714"}},{"type":"Feature","geometry":{"type":"Polygon","coordinates":[[[38.1606314,49.1192721,0],[38.1731192,49.1232467,0],[38.1819174,49.1242152,0],[38.1832907,49.1619467,0],[38.1839773,49.2023414,0],[38.225176,49.215799,0],[38.2299826,49.2722808,0],[38.2341024,49.3694037,0],[38.1447254,49.3885592,0],[38.0267355,49.3823688,0],[38.0569479,49.3519626,0],[38.0699942,49.221181,0],[37.9841635,49.23284,0],[37.9525778,49.1309551,0],[37.9635641,49.1291579,0],[37.9470846,49.0887034,0],[37.9759237,49.0855556,0],[37.9992697,49.1394909,0],[38.0157492,49.2068277,0],[38.0871603,49.1956113,0],[38.1606314,49.1192721,0]]]},"properties":{"name":"Окуповано","styleUrl":"#poly-A52714-1200-77","styleHash":"bf33a3e","styleMapHash":{"normal":"#poly-A52714-1200-77-normal","highlight":"#poly-A52714-1200-77-highlight"},"description":"Дорога Сватове-Житлівка повністю під контролем орків. Актуально на 01.04.<br><br>En: The Svatove-Zhytlivka road is completely under the control of orcs. Actual on 01.04.","stroke-opacity":1,"stroke":"#a52714","stroke-width":1.2,"fill-opacity":0.30196078431372547,"fill":"#a52714"}},{"type":"Feature","geometry":{"type":"GeometryCollection","geometries":[{"type":"Polygon","coordinates":[[[32.4430299,46.5749688,0],[32.4262069,46.5750869,0],[32.42655,46.5744986,0],[32.4430299,46.5749688,0]]]},{"type":"Polygon","coordinates":[[[33.3032363,47.3393172,0],[33.2206386,47.3595268,0],[33.22799,47.3929685,0],[33.2427405,47.4043975,0],[33.2403274,47.4135025,0],[33.2391164,47.424931,0],[33.2361145,47.4461377,0],[33.22221,47.4447446,0],[33.2230154,47.4245432,0],[33.2236576,47.4144708,0],[33.2217249,47.4073002,0],[33.2187646,47.3978055,0],[33.1886607,47.3535221,0],[33.1764407,47.3087705,0],[33.1710428,47.2480742,0],[33.0960352,47.2355342,0],[33.093828,47.2262448,0],[33.0981391,47.2188305,0],[33.1580654,47.2212006,0],[33.1583154,47.1906943,0],[33.1750498,47.156456,0],[33.1860819,47.1066607,0],[33.0680786,47.0252093,0],[32.9767211,46.911028,0],[32.8723685,46.776727,0],[32.8311517,46.8096129,0],[32.7894411,46.809852,0],[32.7738167,46.8237097,0],[32.7702013,46.8525816,0],[32.7940729,46.9035225,0],[32.7926998,46.9860271,0],[32.8905478,47.0602197,0],[33.0053484,47.1125797,0],[32.9959248,47.1195775,0],[32.9819119,47.1200544,0],[32.9167598,47.0983215,0],[32.8781384,47.0910572,0],[32.8415281,47.0936921,0],[32.8176661,47.0943364,0],[32.7950079,47.0936921,0],[32.7596456,47.0671567,0],[32.7597408,47.0422074,0],[32.7350213,46.9157187,0],[32.6883291,46.7936319,0],[32.5466708,46.7654683,0],[32.442987,46.7339463,0],[32.4318885,46.7397777,0],[32.4202498,46.7465364,0],[32.4242486,46.7536061,0],[32.4225575,46.7596695,0],[32.4174325,46.7640864,0],[32.4088738,46.7667392,0],[32.3999715,46.7668044,0],[32.3951037,46.764694,0],[32.3916096,46.7616428,0],[32.3822181,46.7651562,0],[32.3630816,46.7742961,0],[32.3387607,46.7784184,0],[32.3071007,46.8007473,0],[32.2435333,46.7860309,0],[32.2203169,46.7650752,0],[32.1700004,46.7544272,0],[32.198362,46.728113,0],[32.202774,46.7116911,0],[32.2270996,46.706682,0],[32.2360033,46.7007887,0],[32.275215,46.7044421,0],[32.2934042,46.6844839,0],[32.3475075,46.6672347,0],[32.4045544,46.6381073,0],[32.4169471,46.6222876,0],[32.2785331,46.580983,0],[32.3204735,46.5533914,0],[32.4262069,46.5750869,0],[32.4430299,46.5749688,0],[32.5415638,46.5991537,0],[32.5896292,46.602456,0],[32.6239617,46.62934,0],[32.6500544,46.6543254,0],[32.71932,46.6747058,0],[32.718709,46.6656893,0],[32.7218781,46.665834,0],[32.7212311,46.6749468,0],[32.7552621,46.6732205,0],[32.7789515,46.6762829,0],[32.8089145,46.6850398,0],[32.8521734,46.7019947,0],[32.9421241,46.7396534,0],[33.0135357,46.7420061,0],[33.0458081,46.7467114,0],[33.0948244,46.7689457,0],[33.1559362,46.7884602,0],[33.2297509,46.7865795,0],[33.3056254,46.780232,0],[33.329229,46.7799381,0],[33.353533,46.7843966,0],[33.3474545,46.789736,0],[33.3563041,46.7920139,0],[33.3804702,46.8051475,0],[33.4121117,46.8296559,0],[33.441765,46.8417295,0],[33.4697108,46.8467504,0],[33.5085065,46.8580735,0],[33.5904017,46.853766,0],[33.5951998,46.9345465,0],[33.6619044,46.9998457,0],[33.6558935,47.0557705,0],[33.7471245,47.0938856,0],[33.7818218,47.1306919,0],[33.7884076,47.1861888,0],[33.8198671,47.198086,0],[33.8547659,47.2071728,0],[33.9003297,47.2309593,0],[33.912273,47.2617347,0],[33.9194258,47.284942,0],[33.953905,47.3002724,0],[33.9643572,47.3286375,0],[33.9690629,47.380581,0],[33.8856385,47.4183734,0],[33.8441039,47.4091809,0],[33.8355409,47.4341268,0],[33.7754874,47.4239825,0],[33.7231182,47.4201487,0],[33.7026823,47.3921812,0],[33.8185326,47.373332,0],[33.8262722,47.353641,0],[33.8008761,47.3508026,0],[33.8034632,47.3384265,0],[33.7615081,47.3330276,0],[33.7477074,47.3362308,0],[33.6945747,47.332284,0],[33.6744624,47.3362496,0],[33.6207931,47.328179,0],[33.6015819,47.3492496,0],[33.5746293,47.3462905,0],[33.5390865,47.3612335,0],[33.5859507,47.4068902,0],[33.5695506,47.4079811,0],[33.5679582,47.4190977,0],[33.5887922,47.4211716,0],[33.5878264,47.4253352,0],[33.5605588,47.4233079,0],[33.5618597,47.4093489,0],[33.5130311,47.3705769,0],[33.4545049,47.3938806,0],[33.4249118,47.432106,0],[33.4100617,47.4408278,0],[33.3975377,47.4566272,0],[33.3967056,47.4680827,0],[33.3967657,47.4749894,0],[33.3952984,47.4891605,0],[33.4007012,47.4976547,0],[33.3947744,47.505917,0],[33.3856642,47.5050427,0],[33.3810185,47.4962822,0],[33.377885,47.4706177,0],[33.368747,47.4691987,0],[33.3899279,47.4508482,0],[33.3932517,47.4434056,0],[33.3961733,47.4301428,0],[33.4020981,47.4216542,0],[33.3942911,47.4164174,0],[33.3763899,47.3971768,0],[33.366053,47.3746807,0],[33.3233588,47.35895,0],[33.3032363,47.3393172,0]],[[33.2903063,47.3266923,0],[33.3035269,47.339246,0],[33.3032363,47.3393172,0],[33.2903063,47.3266923,0]],[[33.2515299,47.3350367,0],[33.2424529,47.3238332,0],[33.2352917,47.3103786,0],[33.2075118,47.3112127,0],[33.1989951,47.2749419,0],[33.1967043,47.2442963,0],[33.239027,47.2624972,0],[33.2600885,47.2858152,0],[33.274962,47.3021367,0],[33.2719843,47.3065836,0],[33.2903063,47.3266923,0],[33.2515299,47.3350367,0]],[[33.8179136,47.3321419,0],[33.7562962,47.3248139,0],[33.7475476,47.3290554,0],[33.729529,47.3260815,0],[33.7198583,47.3184122,0],[33.6858151,47.3174883,0],[33.6762045,47.3251445,0],[33.6044554,47.3137018,0],[33.5900435,47.3229318,0],[33.5247914,47.3536111,0],[33.4766384,47.3690606,0],[33.4406827,47.3881473,0],[33.4095054,47.413035,0],[33.3972282,47.3958961,0],[33.393364,47.3914207,0],[33.3904409,47.3875839,0],[33.3789346,47.3744476,0],[33.3815069,47.363403,0],[33.3483677,47.3430499,0],[33.3108951,47.3123567,0],[33.2878449,47.2858459,0],[33.2362636,47.2415891,0],[33.2038184,47.2036788,0],[33.230516,47.1844883,0],[33.2462191,47.1606323,0],[33.2728507,47.1119265,0],[33.3049059,47.06694,0],[33.4206635,47.0535611,0],[33.5266062,46.9924992,0],[33.6298711,47.0885948,0],[33.7130757,47.1863963,0],[33.8103703,47.2766271,0],[33.8577909,47.346006,0],[33.8477559,47.3519631,0],[33.814034,47.3457759,0],[33.8179136,47.3321419,0]]]}]},"properties":{"name":"Окуповано","styleUrl":"#poly-A52714-1200-77-nodesc","styleHash":"5f0393c8","styleMapHash":{"normal":"#poly-A52714-1200-77-nodesc-normal","highlight":"#poly-A52714-1200-77-nodesc-highlight"},"stroke-opacity":1,"stroke":"#a52714","stroke-width":1.2,"fill-opacity":0.30196078431372547,"fill":"#a52714"}},{"type":"Feature","geometry":{"type":"Polygon","coordinates":[[[32.2785331,46.580983,0],[32.4169471,46.6222876,0],[32.4045544,46.6381073,0],[32.3475075,46.6672347,0],[32.2522194,46.6675923,0],[32.1092491,46.6492124,0],[32.090182,46.6176949,0],[32.1198845,46.5969803,0],[32.1397972,46.5509591,0],[32.1847725,46.5755086,0],[32.2091484,46.5764526,0],[32.2348976,46.588487,0],[32.2465706,46.5924979,0],[32.2596169,46.5906105,0],[32.2785331,46.580983,0]]]},"properties":{"name":"Окуповано","styleUrl":"#poly-A52714-1200-77","styleHash":"bf33a3e","styleMapHash":{"normal":"#poly-A52714-1200-77-normal","highlight":"#poly-A52714-1200-77-highlight"},"description":"Станіслав, Олександрівка та відповідно інші пункти є окупованими<br><br>Джерело: https://www.youtube.com/watch?v=3kNAv5f7o_E<br><br>Stanislav, Oleksandrivka and other settlements are occupied<br><br>Source: https://www.youtube.com/watch?v=3kNAv5f7o_E","stroke-opacity":1,"stroke":"#a52714","stroke-width":1.2,"fill-opacity":0.30196078431372547,"fill":"#a52714"}}]}