{"type":"FeatureCollection","features":[{"type":"Feature","geometry":{"type":"Polygon","coordinates":[[[39.4070891,48.6594135,0],[39.4106939,48.6576559,0],[39.4174939,48.6594132,0],[39.4372315,48.656471,0],[39.4460721,48.6575482,0],[39.4506911,48.6555581,0],[39.4513078,48.6517082,0],[39.4481162,48.6475063,0],[39.4496659,48.6428481,0],[39.4505671,48.6415153,0],[39.4542149,48.6397855,0],[39.4597939,48.6397288,0],[39.4639249,48.6394589,0],[39.4656733,48.638084,0],[39.4627233,48.632936,0],[39.4631413,48.6290366,0],[39.4673041,48.6286963,0],[39.4730977,48.6291501,0],[39.4785909,48.6291501,0],[39.4856719,48.6304265,0],[39.489234,48.6316177,0],[39.4939976,48.6333762,0],[39.4997482,48.6341987,0],[39.5026236,48.6349644,0],[39.5069262,48.6355453,0],[39.5101878,48.6354886,0],[39.5128359,48.6345507,0],[39.5157668,48.6298729,0],[39.5119776,48.625134,0],[39.5116469,48.6218737,0],[39.5162691,48.6180986,0],[39.5233199,48.6150081,0],[39.5270106,48.6095604,0],[39.5236505,48.6061817,0],[39.5224616,48.6026931,0],[39.5239939,48.5986896,0],[39.5313754,48.5971002,0],[39.5321605,48.5934975,0],[39.5274271,48.5919912,0],[39.5251955,48.5885849,0],[39.5312037,48.5842699,0],[39.5415034,48.5842699,0],[39.5459666,48.5873358,0],[39.545795,48.5923318,0],[39.5476832,48.5969867,0],[39.5545497,48.5995978,0],[39.5617595,48.5985761,0],[39.5656345,48.5939516,0],[39.5653643,48.5889255,0],[39.5612571,48.5848112,0],[39.5681109,48.5819987,0],[39.5749042,48.5842434,0],[39.5822857,48.5889558,0],[39.5931736,48.5936943,0],[39.60107,48.5914235,0],[39.6050182,48.5867681,0],[39.60004,48.585519,0],[39.5945469,48.5810902,0],[39.594302,48.5764073,0],[39.6024433,48.5746166,0],[39.6094814,48.5750709,0],[39.6148029,48.5799545,0],[39.6173778,48.5863139,0],[39.6221845,48.5868816,0],[39.6304242,48.5809766,0],[39.6408956,48.5830207,0],[39.6505086,48.5854054,0],[39.6693907,48.5892104,0],[39.6772879,48.5875629,0],[39.6863127,48.5869687,0],[39.6879844,48.5870704,0],[39.6872538,48.5872349,0],[39.6867813,48.587899,0],[39.6866736,48.589693,0],[39.6861261,48.5899797,0],[39.6854661,48.5901089,0],[39.6838915,48.5908831,0],[39.6833616,48.5915824,0],[39.6832039,48.5922585,0],[39.6830177,48.5925539,0],[39.6799849,48.5924604,0],[39.6794769,48.5921013,0],[39.6795663,48.5907721,0],[39.6790531,48.5903488,0],[39.6786249,48.5902649,0],[39.6777027,48.590379,0],[39.676748,48.5909328,0],[39.6763565,48.591451,0],[39.6757101,48.5932428,0],[39.6757086,48.59394,0],[39.6762014,48.5945583,0],[39.6768127,48.5951493,0],[39.6776172,48.5955983,0],[39.6778934,48.5959346,0],[39.6781588,48.5960084,0],[39.6785758,48.5959282,0],[39.6788594,48.5957461,0],[39.6792265,48.5956551,0],[39.6795281,48.5956664,0],[39.6799471,48.5958778,0],[39.6802961,48.5961751,0],[39.6804492,48.5964443,0],[39.6802789,48.5968557,0],[39.6800651,48.5971643,0],[39.679883,48.5973363,0],[39.6794809,48.5975891,0],[39.6789418,48.5978786,0],[39.6785596,48.5980163,0],[39.6781432,48.5980497,0],[39.6778663,48.5980689,0],[39.67669,48.5979496,0],[39.6760054,48.597592,0],[39.6753734,48.5968668,0],[39.6750252,48.5966745,0],[39.6744649,48.5962874,0],[39.6736698,48.5958739,0],[39.6728216,48.5956174,0],[39.6718074,48.5954395,0],[39.6708927,48.5954641,0],[39.6701671,48.5956254,0],[39.6693878,48.5959641,0],[39.6688087,48.5964385,0],[39.668283,48.5971583,0],[39.6679343,48.5980007,0],[39.667996,48.5990889,0],[39.668134,48.5998885,0],[39.6680529,48.6008843,0],[39.6679253,48.6010269,0],[39.6679908,48.6013255,0],[39.6684366,48.6017799,0],[39.6688395,48.6022627,0],[39.6698218,48.6026533,0],[39.6706992,48.6032318,0],[39.6710521,48.6037481,0],[39.6707863,48.6040759,0],[39.6704174,48.6044668,0],[39.6695892,48.6047758,0],[39.6685099,48.6049728,0],[39.6676591,48.6050358,0],[39.6664075,48.6050248,0],[39.6658274,48.6049412,0],[39.6653142,48.6048023,0],[39.6649271,48.6047451,0],[39.6643258,48.6047355,0],[39.6638694,48.6047721,0],[39.6635902,48.6048148,0],[39.6632896,48.6049213,0],[39.6627422,48.6052228,0],[39.6625114,48.6053594,0],[39.662227,48.6054677,0],[39.6615102,48.605689,0],[39.6612372,48.6058355,0],[39.6610393,48.6060352,0],[39.6609018,48.6068238,0],[39.6608448,48.6069384,0],[39.6607233,48.6070602,0],[39.6604859,48.607357,0],[39.6604186,48.6075887,0],[39.6604022,48.6079245,0],[39.6605544,48.6082334,0],[39.6606368,48.6085139,0],[39.6606098,48.6086508,0],[39.6605346,48.6088178,0],[39.6605449,48.609056,0],[39.6605502,48.6091683,0],[39.6606038,48.6092381,0],[39.6607806,48.6094982,0],[39.6609214,48.6097445,0],[39.6610889,48.6100864,0],[39.6611921,48.6106395,0],[39.661374,48.6108749,0],[39.6616525,48.6110322,0],[39.6621986,48.6115314,0],[39.6625839,48.6119454,0],[39.662935,48.6121491,0],[39.6632969,48.6124663,0],[39.6635744,48.6128191,0],[39.6637124,48.6131151,0],[39.6639739,48.613968,0],[39.6641689,48.6147775,0],[39.6647815,48.6153099,0],[39.6648142,48.6153916,0],[39.664801,48.6156045,0],[39.6647837,48.6157997,0],[39.6648502,48.6160479,0],[39.6650577,48.6162785,0],[39.6651374,48.6164611,0],[39.6653002,48.61672,0],[39.6656243,48.6172956,0],[39.666045,48.6178038,0],[39.6661261,48.6179664,0],[39.6660999,48.6183275,0],[39.6663742,48.6188943,0],[39.6664898,48.6194331,0],[39.6668964,48.6199861,0],[39.6671694,48.6205357,0],[39.6678501,48.6214328,0],[39.6681564,48.6215784,0],[39.6689563,48.6224473,0],[39.6715158,48.6244793,0],[39.674569,48.6265112,0],[39.6775967,48.6281851,0],[39.6799904,48.6295751,0],[39.6843417,48.6316882,0],[39.6856388,48.6322271,0],[39.6869359,48.63261,0],[39.6876644,48.6328794,0],[39.6884358,48.6333474,0],[39.6901616,48.6352487,0],[39.6905557,48.6354831,0],[39.6910786,48.6356182,0],[39.6927871,48.636122,0],[39.6934638,48.6365563,0],[39.6939689,48.6370048,0],[39.6941143,48.6374381,0],[39.6942955,48.6377768,0],[39.694348,48.6382574,0],[39.6943361,48.6388372,0],[39.694255,48.6391768,0],[39.6942681,48.6397507,0],[39.6940279,48.6406189,0],[39.6938756,48.6412941,0],[39.693853,48.6419082,0],[39.6937345,48.6429313,0],[39.6935357,48.643294,0],[39.6930179,48.6436313,0],[39.6926839,48.6437716,0],[39.6921199,48.6442103,0],[39.6915804,48.6449756,0],[39.6913091,48.6454785,0],[39.6911652,48.6458313,0],[39.6911041,48.6463816,0],[39.6912983,48.6466383,0],[39.6915783,48.6468311,0],[39.6918744,48.6470488,0],[39.6920064,48.6473011,0],[39.6920724,48.6475124,0],[39.6920793,48.6477874,0],[39.6922441,48.6478757,0],[39.6924472,48.6480262,0],[39.6926855,48.648284,0],[39.6929147,48.6485493,0],[39.6931848,48.6489407,0],[39.6933843,48.6491063,0],[39.6935596,48.6493551,0],[39.6938673,48.6495491,0],[39.6942063,48.6496248,0],[39.6944294,48.649691,0],[39.6946188,48.6498056,0],[39.6948315,48.6500064,0],[39.6949673,48.6500661,0],[39.6952633,48.6502767,0],[39.6957599,48.6505007,0],[39.6965125,48.6507792,0],[39.6967382,48.650871,0],[39.6969961,48.650938,0],[39.6972544,48.6510507,0],[39.6982344,48.6517523,0],[39.6986122,48.6520021,0],[39.698962,48.6522404,0],[39.6994481,48.6525297,0],[39.7000881,48.6527027,0],[39.7006656,48.6528069,0],[39.7011475,48.6529476,0],[39.701662,48.6531632,0],[39.7018442,48.6532471,0],[39.7020747,48.6533059,0],[39.7022027,48.6533473,0],[39.7022825,48.6533939,0],[39.7028811,48.6540065,0],[39.7034439,48.6545884,0],[39.7039344,48.6548865,0],[39.7042212,48.6551137,0],[39.7045641,48.6555114,0],[39.7046202,48.6557244,0],[39.7047153,48.6559585,0],[39.7050526,48.6563165,0],[39.7051407,48.6564565,0],[39.7052492,48.656608,0],[39.7054537,48.6567051,0],[39.7057275,48.656711,0],[39.7059986,48.6567743,0],[39.7061771,48.6569299,0],[39.7063155,48.6569671,0],[39.7065077,48.6569758,0],[39.7066837,48.6569138,0],[39.7068576,48.6568083,0],[39.7070089,48.6566705,0],[39.7071436,48.656467,0],[39.7072531,48.6563116,0],[39.7073437,48.6561985,0],[39.7076335,48.655905,0],[39.7080352,48.6555934,0],[39.7081732,48.6554956,0],[39.708456,48.655217,0],[39.7085887,48.6550741,0],[39.7087945,48.6548644,0],[39.7090583,48.6547099,0],[39.7093378,48.6546274,0],[39.7094963,48.6546109,0],[39.7096748,48.6546505,0],[39.7099598,48.6546721,0],[39.7101506,48.6547325,0],[39.7103077,48.6548061,0],[39.710523,48.6549847,0],[39.710674,48.6551667,0],[39.7107643,48.6552878,0],[39.7108658,48.6556779,0],[39.7109326,48.6561812,0],[39.710817,48.6570708,0],[39.7105175,48.6576088,0],[39.7099015,48.6586004,0],[39.7095831,48.6593687,0],[39.7095178,48.6600807,0],[39.7095089,48.6608032,0],[39.7096748,48.6620796,0],[39.7096036,48.662505,0],[39.7101117,48.6630013,0],[39.710577,48.6640432,0],[39.7107024,48.6644154,0],[39.7107221,48.6649983,0],[39.7109573,48.6656653,0],[39.7110423,48.6665307,0],[39.7109857,48.6667014,0],[39.7104531,48.6671552,0],[39.7103517,48.6672544,0],[39.7101752,48.6673111,0],[39.7097255,48.6674954,0],[39.7091364,48.6675451,0],[39.7087452,48.6674636,0],[39.7079918,48.6670544,0],[39.7073039,48.666779,0],[39.7068101,48.6667863,0],[39.7063163,48.6668255,0],[39.7060895,48.6667884,0],[39.7053263,48.6668257,0],[39.7050056,48.6667354,0],[39.7046253,48.6666053,0],[39.7044674,48.666565,0],[39.7040907,48.6665555,0],[39.7039238,48.6665631,0],[39.7037035,48.6666148,0],[39.7034565,48.6666948,0],[39.7025226,48.6688812,0],[39.7031336,48.6710534,0],[39.7130377,48.6754375,0],[39.7150141,48.6811529,0],[39.7221411,48.6841479,0],[39.7162223,48.6904297,0],[39.7154943,48.6958368,0],[39.7199163,48.6980713,0],[39.7027562,48.7067831,0],[39.710997,48.7135176,0],[39.7048186,48.7216114,0],[39.7226976,48.734258,0],[39.7389081,48.7485581,0],[39.7413928,48.7719121,0],[39.7651843,48.7651566,0],[39.7842896,48.7974969,0],[39.7971076,48.840724,0],[39.8046534,48.8437246,0],[39.8121452,48.8389505,0],[39.9727261,48.7940792,0],[40.0757229,48.8691114,0],[40.0441372,48.9187696,0],[40.0180447,48.9079393,0],[39.9837124,48.868208,0],[39.9246609,48.8943981,0],[39.8711025,48.8943981,0],[39.8408901,48.9025232,0],[39.8244107,48.8907865,0],[39.8189175,48.9079393,0],[39.7941982,48.9250862,0],[39.769479,48.9304998,0],[39.7887051,48.947639,0],[39.7378933,48.9882083,0],[39.7255337,48.9737874,0],[39.6980679,49.0026249,0],[39.6774685,48.9909117,0],[39.660989,49.001724,0],[39.6664822,49.0422493,0],[39.6898281,49.0521505,0],[39.7681057,49.0404489,0],[39.7983181,49.0611498,0],[39.8147976,49.0593501,0],[39.8752224,49.0656489,0],[39.9356472,49.0539505,0],[39.9356472,49.0836411,0],[39.9974453,49.1474607,0],[40.2141132,49.2594745,0],[40.1876996,49.346469,0],[40.0425587,49.4328847,0],[40.0375811,49.5200433,0],[40.1568107,49.571991,0],[40.1209124,49.6160649,0],[39.950488,49.5900209,0],[39.8076973,49.5637657,0],[39.6438531,49.6323573,0],[39.6115112,49.7293249,0],[39.4457824,49.7577319,0],[39.2799452,49.7610584,0],[39.1783815,49.8881493,0],[39.0872519,49.8257454,0],[38.9469066,49.7951144,0],[38.8198359,49.878939,0],[38.7936486,49.8826839,0],[38.7866092,49.8786582,0],[38.7773181,49.883422,0],[38.7669226,49.8960265,0],[38.741317,49.8973003,0],[38.7285244,49.904247,0],[38.8473129,49.278263,0],[38.9633572,48.9521483,0],[38.7758764,48.9447108,0],[38.7401708,48.9253149,0],[38.7960038,48.9035284,0],[38.8230953,48.9068934,0],[38.9753623,48.9240605,0],[38.9658529,48.7751951,0],[39.1942479,48.7074671,0],[39.196487,48.7065417,0],[39.1970035,48.7034275,0],[39.2005211,48.6994045,0],[39.2053276,48.6994045,0],[39.2106491,48.703483,0],[39.2139107,48.7055222,0],[39.219833,48.706655,0],[39.2244678,48.71011,0],[39.2283302,48.7120356,0],[39.2334801,48.7121489,0],[39.2367341,48.710299,0],[39.2397382,48.7104122,0],[39.2462613,48.7135838,0],[39.2479855,48.7175855,0],[39.2490154,48.7208699,0],[39.2493587,48.7242673,0],[39.2545086,48.7323068,0],[39.2505604,48.7398923,0],[39.2523553,48.7425716,0],[39.2658307,48.7430244,0],[39.2670324,48.7454015,0],[39.2656666,48.751438,0],[39.2690065,48.7544563,0],[39.2749363,48.7540411,0],[39.2756229,48.7498535,0],[39.2812878,48.750193,0],[39.285486,48.7516834,0],[39.2851426,48.7545129,0],[39.2859226,48.7585679,0],[39.2880976,48.7610334,0],[39.2931324,48.7625286,0],[39.2982822,48.7653574,0],[39.3012788,48.7686011,0],[39.3024021,48.7714671,0],[39.3042904,48.7737297,0],[39.3090894,48.7754457,0],[39.3142467,48.7758792,0],[39.3193033,48.7769163,0],[39.3253972,48.775672,0],[39.3259197,48.772259,0],[39.3259122,48.7686576,0],[39.3308979,48.7676203,0],[39.3377644,48.7672809,0],[39.3435075,48.7693931,0],[39.3487507,48.7696569,0],[39.3530347,48.7667908,0],[39.3497806,48.7633206,0],[39.3447091,48.7613029,0],[39.3420559,48.7552861,0],[39.3455674,48.7506082,0],[39.3463474,48.7472502,0],[39.3492657,48.7423828,0],[39.3545872,48.7404583,0],[39.3574979,48.7360055,0],[39.3561321,48.7321936,0],[39.3530422,48.72891,0],[39.3534639,48.7262114,0],[39.3601587,48.7225877,0],[39.3667676,48.7212287,0],[39.3713104,48.7199397,0],[39.3721557,48.7170952,0],[39.3684842,48.7156225,0],[39.3629911,48.7159057,0],[39.3574979,48.7146032,0],[39.3541312,48.713131,0],[39.3486381,48.7133575,0],[39.3453958,48.7119414,0],[39.3502881,48.7059377,0],[39.3525197,48.7008397,0],[39.3585944,48.6963646,0],[39.3670058,48.6914923,0],[39.3792927,48.6863068,0],[39.3889978,48.6844093,0],[39.3879678,48.6807259,0],[39.3903518,48.6781192,0],[39.3936133,48.676419,0],[39.4010141,48.6751152,0],[39.4058206,48.6736983,0],[39.4111231,48.6698441,0],[39.4123247,48.6668966,0],[39.4080332,48.6625316,0],[39.4070891,48.6594135,0]]]},"properties":{"name":"Окуповано","styleUrl":"#poly-A52714-1200-87-nodesc","styleHash":"-6f5bcb69","styleMapHash":{"normal":"#poly-A52714-1200-87-nodesc-normal","highlight":"#poly-A52714-1200-87-nodesc-highlight"},"stroke-opacity":1,"stroke":"#a52714","stroke-width":1.2,"fill-opacity":0.3411764705882353,"fill":"#a52714"}},{"type":"Feature","geometry":{"type":"Polygon","coordinates":[[[38.1694448,49.5545316,0],[38.10902,49.4439366,0],[38.0876643,49.4414351,0],[37.8815856,49.6470791,0],[37.7509186,49.6907543,0],[37.7045605,49.7285874,0],[37.6378521,49.7131515,0],[37.6373512,49.7075835,0],[37.6759882,49.7108929,0],[37.7024951,49.7047688,0],[37.7466303,49.6797121,0],[37.8514055,49.6376135,0],[37.8812701,49.6119377,0],[38.0113933,49.4250733,0],[37.9550345,49.3999061,0],[37.6035113,49.3884971,0],[37.6241358,49.2925017,0],[37.5788746,49.259181,0],[37.6296714,49.2562587,0],[37.669577,49.3626087,0],[37.828811,49.3758205,0],[37.8346314,49.3264184,0],[37.796543,49.2644827,0],[37.8352923,49.2598059,0],[37.8752869,49.3201598,0],[37.8823777,49.3751378,0],[38.0746672,49.385024,0],[38.0893489,49.3857662,0],[38.1447256,49.3885454,0],[38.183695,49.3803168,0],[38.1942291,49.3779792,0],[38.4396657,49.3255784,0],[38.6630497,49.2904066,0],[38.8130336,49.2800417,0],[38.6773704,49.2575783,0],[38.6172439,49.2165138,0],[38.6009455,49.1923871,0],[38.5970169,49.1664645,0],[38.588224,49.1422033,0],[38.5712035,49.1197375,0],[38.3845953,49.0864766,0],[38.356058,49.0540151,0],[38.4068499,49.0361959,0],[38.5459987,49.0899173,0],[38.5153256,48.9985917,0],[38.5574738,49.0014501,0],[38.6198127,49.1216308,0],[38.6937955,49.2229872,0],[38.8500595,49.278263,0],[38.731271,49.904247,0],[38.6137907,49.9750612,0],[38.5840874,49.9786829,0],[38.5288041,49.9567218,0],[38.5102231,49.9631372,0],[38.4166372,49.9820529,0],[38.3493459,50.0054485,0],[38.3246643,50.0898856,0],[38.2449758,50.0746853,0],[38.198284,50.076448,0],[38.2559622,49.9095872,0],[38.1776846,49.8423265,0],[38.1886709,49.7394847,0],[38.1337393,49.5972754,0],[38.1694448,49.5545316,0]]]},"properties":{"name":"Окуповано","styleUrl":"#poly-A52714-1200-87-nodesc","styleHash":"-6f5bcb69","styleMapHash":{"normal":"#poly-A52714-1200-87-nodesc-normal","highlight":"#poly-A52714-1200-87-nodesc-highlight"},"stroke-opacity":1,"stroke":"#a52714","stroke-width":1.2,"fill-opacity":0.3411764705882353,"fill":"#a52714"}},{"type":"Feature","geometry":{"type":"Polygon","coordinates":[[[38.1942291,49.3779792,0],[38.183695,49.3803168,0],[38.1832931,49.370668,0],[38.1851225,49.3612428,0],[38.1813142,49.3594963,0],[38.1798754,49.3597492,0],[38.16855,49.3598967,0],[38.1586837,49.360771,0],[38.1564608,49.3606191,0],[38.1552766,49.3594208,0],[38.1537667,49.3575834,0],[38.1534937,49.3560329,0],[38.1517464,49.354162,0],[38.150312,49.3525449,0],[38.1513913,49.3506526,0],[38.1533782,49.3492166,0],[38.1554633,49.347575,0],[38.1572298,49.3482057,0],[38.159561,49.3484606,0],[38.1616479,49.3478523,0],[38.1630748,49.3459649,0],[38.1636967,49.3440917,0],[38.1628808,49.3419113,0],[38.1586752,49.3396762,0],[38.1574821,49.3384024,0],[38.1574907,49.336793,0],[38.1544183,49.3349162,0],[38.1537668,49.3329523,0],[38.155897,49.331206,0],[38.1613587,49.33079,0],[38.1631839,49.3293987,0],[38.1608265,49.32684,0],[38.1602318,49.3248552,0],[38.1573262,49.3237945,0],[38.1566653,49.3201073,0],[38.1673576,49.3164258,0],[38.1744926,49.3158884,0],[38.1717684,49.3116813,0],[38.1642621,49.3114367,0],[38.1610952,49.3090455,0],[38.1628289,49.3057189,0],[38.1690409,49.3055572,0],[38.174394,49.3037733,0],[38.1721938,49.3008701,0],[38.1680305,49.2963099,0],[38.1658419,49.2944933,0],[38.1634172,49.2931093,0],[38.1630526,49.292061,0],[38.1671735,49.2915846,0],[38.1712938,49.2903387,0],[38.1754997,49.2893725,0],[38.1777095,49.2875248,0],[38.1762823,49.2845015,0],[38.1722804,49.2827099,0],[38.1720122,49.2817302,0],[38.1744531,49.2798966,0],[38.1765503,49.276943,0],[38.1782559,49.2738357,0],[38.1809912,49.2709524,0],[38.1828819,49.2683721,0],[38.183226,49.2632178,0],[38.1838268,49.2589609,0],[38.1853286,49.2559926,0],[38.1865941,49.2531643,0],[38.1867117,49.2496774,0],[38.1896027,49.2465895,0],[38.1956828,49.2452138,0],[38.2004389,49.2431253,0],[38.2035892,49.2414087,0],[38.203276,49.2372442,0],[38.1928359,49.2303895,0],[38.1736098,49.2214209,0],[38.143263,49.2040142,0],[38.1263147,49.2027521,0],[38.1191931,49.2128991,0],[38.1255446,49.2359941,0],[38.1164466,49.2978265,0],[38.1134433,49.3134386,0],[38.1109533,49.3294968,0],[38.1059123,49.3669255,0],[38.0951428,49.3800902,0],[38.0893489,49.3857662,0],[38.0746672,49.385024,0],[38.0885571,49.3657244,0],[38.0907887,49.3409006,0],[38.0954236,49.3090138,0],[38.0998868,49.285729,0],[38.1064975,49.2597977,0],[38.1077833,49.2544788,0],[38.1120288,49.2337963,0],[38.1079493,49.2111468,0],[38.1117545,49.2004972,0],[38.0992519,49.2087457,0],[38.0822293,49.2132403,0],[38.0535028,49.2195333,0],[38.0032503,49.226496,0],[37.9974988,49.2289833,0],[37.9959492,49.2317153,0],[37.9935333,49.234152,0],[37.9926481,49.2355502,0],[37.9893308,49.2365519,0],[37.9801204,49.2357481,0],[37.9730309,49.2332395,0],[37.9714475,49.2254343,0],[37.9762149,49.2157232,0],[37.9836883,49.2131191,0],[37.9833566,49.2080236,0],[37.9833791,49.1998527,0],[37.9810206,49.1863173,0],[37.9798781,49.1858571,0],[37.9802379,49.1841071,0],[37.978495,49.1826656,0],[37.9782113,49.1820095,0],[37.9794794,49.1792173,0],[37.9781744,49.1782754,0],[37.9735651,49.1756221,0],[37.9723718,49.1751127,0],[37.9724742,49.1746552,0],[37.9747055,49.1737688,0],[37.9757994,49.1728402,0],[37.9756193,49.1717679,0],[37.9740016,49.1702747,0],[37.973886,49.1689359,0],[37.9734601,49.1683627,0],[37.9723047,49.1676491,0],[37.9725473,49.1665588,0],[37.9735032,49.1655692,0],[37.9719181,49.1627908,0],[37.9713662,49.15962,0],[37.9696624,49.158274,0],[37.9674571,49.1574904,0],[37.9694396,49.1454864,0],[37.9644849,49.1184637,0],[37.9650779,49.1175447,0],[37.9647268,49.1152775,0],[37.9619295,49.1125326,0],[37.9602735,49.1111321,0],[37.9608616,49.1108532,0],[37.9627436,49.1116127,0],[37.9631664,49.1109114,0],[37.9561348,49.0968659,0],[37.9552842,49.0956894,0],[37.9541114,49.0953085,0],[37.9491934,49.0868484,0],[37.9546401,49.0844575,0],[37.9652788,49.0818693,0],[37.9761725,49.1044606,0],[37.9767314,49.1244149,0],[37.98416,49.1439198,0],[37.985204,49.1596934,0],[37.9923539,49.1816498,0],[38.0000271,49.2014739,0],[37.9993791,49.2204057,0],[38.0566085,49.2105824,0],[38.0841827,49.2011183,0],[38.1150944,49.1940593,0],[38.1181687,49.1790159,0],[38.1344823,49.1577449,0],[38.1416492,49.1492671,0],[38.1428062,49.1392733,0],[38.1337077,49.1374764,0],[38.1340474,49.1297292,0],[38.1485546,49.1224844,0],[38.1658047,49.1183829,0],[38.1749047,49.099054,0],[38.180396,49.086802,0],[38.1907807,49.0860158,0],[38.1980756,49.0874774,0],[38.212325,49.0933221,0],[38.2052884,49.1028192,0],[38.1922406,49.1108548,0],[38.1813415,49.1236622,0],[38.1724579,49.1316375,0],[38.1760835,49.1364114,0],[38.1749028,49.1405113,0],[38.1638322,49.1409602,0],[38.1493253,49.1560066,0],[38.1301136,49.1811631,0],[38.1278784,49.1948556,0],[38.1485665,49.1958681,0],[38.1738872,49.2080862,0],[38.1880497,49.208428,0],[38.1989075,49.207139,0],[38.2196139,49.1977446,0],[38.2309959,49.2015702,0],[38.2253857,49.2161603,0],[38.2233251,49.2278194,0],[38.2319081,49.2327522,0],[38.2322522,49.236788,0],[38.23234,49.2391386,0],[38.2312221,49.2434005,0],[38.2258247,49.2464674,0],[38.2191753,49.2460967,0],[38.2149898,49.2622694,0],[38.2062,49.2768552,0],[38.2018024,49.29669,0],[38.2025213,49.3156731,0],[38.1979199,49.3342045,0],[38.1947441,49.3553375,0],[38.1913533,49.3730859,0],[38.1942291,49.3779792,0]]]},"properties":{"name":"Окуповано. 01.04","styleUrl":"#poly-A52714-1200-87","styleHash":"7b8a7a2b","styleMapHash":{"normal":"#poly-A52714-1200-87-normal","highlight":"#poly-A52714-1200-87-highlight"},"description":"Дорога Сватове-Житлівка повністю під контролем орків. Актуально на 01.04.<br><br>En: The Svatove-Zhytlivka road is completely under the control of orcs. Actual on 01.04.","stroke-opacity":1,"stroke":"#a52714","stroke-width":1.2,"fill-opacity":0.3411764705882353,"fill":"#a52714"}},{"type":"Feature","geometry":{"type":"Polygon","coordinates":[[[32.3630817,46.7743256,0],[32.4467772,46.8417333,0],[32.4948424,46.8886804,0],[32.5319213,46.9430876,0],[32.5738067,46.9716762,0],[32.5779265,46.9904145,0],[32.5442809,47.0049321,0],[32.4873482,46.998303,0],[32.4766195,46.9849547,0],[32.422727,46.9589532,0],[32.3879391,46.9635098,0],[32.3451745,46.939601,0],[32.3362273,46.9051022,0],[32.3071007,46.8007768,0],[32.3387607,46.7784479,0],[32.3630817,46.7743256,0]]]},"properties":{"name":"Багатокутник 11","styleUrl":"#poly-A52714-1200-87-nodesc","styleHash":"-6f5bcb69","styleMapHash":{"normal":"#poly-A52714-1200-87-nodesc-normal","highlight":"#poly-A52714-1200-87-nodesc-highlight"},"stroke-opacity":1,"stroke":"#a52714","stroke-width":1.2,"fill-opacity":0.3411764705882353,"fill":"#a52714"}},{"type":"Feature","geometry":{"type":"Polygon","coordinates":[[[29.244774,47.1684368,0],[29.2476923,47.1639435,0],[29.2700511,47.151804,0],[29.275716,47.1483016,0],[29.2885906,47.1438651,0],[29.2952854,47.1400119,0],[29.2968303,47.1313706,0],[29.2940837,47.1224942,0],[29.2915088,47.1154855,0],[29.2935688,47.1092937,0],[29.3011219,47.1056718,0],[29.3083594,47.103346,0],[29.3143676,47.1028786,0],[29.3196891,47.1032292,0],[29.3286155,47.1054492,0],[29.3371986,47.1075523,0],[29.3457816,47.1057997,0],[29.3500732,47.1005416,0],[29.354193,47.0953999,0],[29.3586562,47.0840629,0],[29.3602012,47.077166,0],[29.3650077,47.0714375,0],[29.366896,47.0699175,0],[29.3741057,47.062785,0],[29.3777106,47.0614987,0],[29.3832038,47.0604462,0],[29.3895553,47.060797,0],[29.3924735,47.0590429,0],[29.3880103,47.0569379,0],[29.3830321,47.0560023,0],[29.3802856,47.0524937,0],[29.3790839,47.048283,0],[29.3795989,47.0434872,0],[29.3804572,47.0391588,0],[29.3837188,47.0360001,0],[29.3880103,47.0329582,0],[29.3873237,47.02898,0],[29.3837188,47.0258206,0],[29.3778823,47.0257036,0],[29.3725608,47.0264057,0],[29.3656943,47.0282779,0],[29.3627761,47.0317881,0],[29.3615745,47.0381059,0],[29.3589995,47.0406796,0],[29.3545364,47.0392758,0],[29.3545364,47.0356491,0],[29.3565963,47.0312031,0],[29.3591712,47.0267568,0],[29.3617461,47.0233632,0],[29.3655227,47.0172778,0],[29.3689559,47.0135325,0],[29.3722175,47.0082653,0],[29.3763373,47.0029976,0],[29.3761657,46.9963244,0],[29.3739341,46.9937486,0],[29.3614028,46.9926948,0],[29.3462966,46.9922264,0],[29.3310187,46.992929,0],[29.3178008,46.9959732,0],[29.3088744,46.9959732,0],[29.3083594,46.9904701,0],[29.3081878,46.9849664,0],[29.3040679,46.98239,0],[29.2990897,46.9853177,0],[29.3006347,46.9896504,0],[29.3033813,46.9933973,0],[29.3061278,46.9980806,0],[29.3021796,47.0007733,0],[29.2953132,46.9984318,0],[29.2920516,46.9950365,0],[29.291365,46.988011,0],[29.2930816,46.9800477,0],[29.2987464,46.97548,0],[29.3054412,46.9714975,0],[29.3100761,46.9662262,0],[29.312136,46.9642346,0],[29.3155692,46.9598999,0],[29.3224357,46.9524011,0],[29.3299888,46.9495887,0],[29.3402885,46.9430261,0],[29.3489595,46.9385073,0],[29.3605445,46.9345872,0],[29.3722175,46.933415,0],[29.3811439,46.9345872,0],[29.3928168,46.9378691,0],[29.4003699,46.9444324,0],[29.4065497,46.9495887,0],[29.4141028,46.9556819,0],[29.4199393,46.9615401,0],[29.4271491,46.9655233,0],[29.4384788,46.965289,0],[29.4494651,46.9617744,0],[29.4518684,46.9584939,0],[29.4580482,46.9526354,0],[29.463198,46.9502918,0],[29.4714377,46.9505262,0],[29.4752143,46.9441981,0],[29.4764159,46.9363454,0],[29.4755576,46.9298984,0],[29.4736693,46.9253263,0],[29.4729827,46.9193469,0],[29.4680045,46.9106698,0],[29.464743,46.9062134,0],[29.4480918,46.9018739,0],[29.4546149,46.8908478,0],[29.4635413,46.8881495,0],[29.4673179,46.8809927,0],[29.4848273,46.8843952,0],[29.4846557,46.8762991,0],[29.4841407,46.8706664,0],[29.4837974,46.8649156,0],[29.4884322,46.8555253,0],[29.4891832,46.8537645,0],[29.4792269,46.8531188,0],[29.4744633,46.8469846,0],[29.4706867,46.8508002,0],[29.4692276,46.8536177,0],[29.4681118,46.8562003,0],[29.4657086,46.8572568,0],[29.4593571,46.8576089,0],[29.4550655,46.855496,0],[29.4529198,46.8547329,0],[29.4484566,46.8544395,0],[29.4379852,46.8598392,0],[29.4333504,46.8614825,0],[29.4321488,46.8596044,0],[29.4357536,46.8529133,0],[29.4357536,46.8493914,0],[29.4103478,46.8466911,0],[29.4048546,46.8462214,0],[29.4041679,46.8328351,0],[29.4050263,46.8158038,0],[29.3978165,46.8185057,0],[29.3964432,46.8068749,0],[29.3969582,46.8046425,0],[29.4069145,46.8033499,0],[29.4084595,46.7766701,0],[29.4024513,46.774554,0],[29.4014214,46.7584451,0],[29.4120644,46.7590331,0],[29.414296,46.7551521,0],[29.4582413,46.7592683,0],[29.4621895,46.773731,0],[29.4697426,46.7716148,0],[29.4754074,46.7803144,0],[29.4839905,46.7824303,0],[29.4875954,46.781725,0],[29.4891403,46.7781984,0],[29.5059631,46.7799618,0],[29.5081947,46.7846637,0],[29.5104263,46.7883075,0],[29.5123146,46.7888951,0],[29.5148895,46.784076,0],[29.5251892,46.7805495,0],[29.5349739,46.777258,0],[29.5418404,46.7781984,0],[29.5340298,46.7746716,0],[29.5366905,46.7709093,0],[29.5410679,46.767676,0],[29.5499943,46.7669705,0],[29.5586632,46.7557402,0],[29.5598648,46.7420961,0],[29.5567749,46.7353903,0],[29.5586632,46.7242123,0],[29.5562599,46.7173867,0],[29.5629547,46.7142089,0],[29.5825241,46.7138559,0],[29.5742844,46.72433,0],[29.5718811,46.7325666,0],[29.5727394,46.7403315,0],[29.5811508,46.7432724,0],[29.5935104,46.7431548,0],[29.6070717,46.7409197,0],[29.6273277,46.7412726,0],[29.6426056,46.7431548,0],[29.6573685,46.7443311,0],[29.6573685,46.7358609,0],[29.6693848,46.7330373,0],[29.6697281,46.7212703,0],[29.6635483,46.7123258,0],[29.6669815,46.7036151,0],[29.6583126,46.7014373,0],[29.6486137,46.7010841,0],[29.6483563,46.6953741,0],[29.6549652,46.6953152,0],[29.6511887,46.6910764,0],[29.6599434,46.6897812,0],[29.6547936,46.6856597,0],[29.6527336,46.6822446,0],[29.6551369,46.6767093,0],[29.6635483,46.6752959,0],[29.6676682,46.6754137,0],[29.6741913,46.6763559,0],[29.6779678,46.6755315,0],[29.6814011,46.673058,0],[29.6858643,46.6717623,0],[29.6912716,46.6727635,0],[29.6943615,46.6741769,0],[29.6952198,46.6790059,0],[29.6993397,46.678417,0],[29.7013996,46.6760615,0],[29.7008846,46.6708789,0],[29.6984814,46.666756,0],[29.7000263,46.6649889,0],[29.7063778,46.6642821,0],[29.7091244,46.6620437,0],[29.7147892,46.6589806,0],[29.7182224,46.6576846,0],[29.722514,46.6589806,0],[29.7268055,46.6613369,0],[29.7254322,46.6652246,0],[29.721999,46.6681696,0],[29.7244022,46.6718212,0],[29.7292088,46.6718212,0],[29.7357319,46.6700543,0],[29.7369335,46.667345,0],[29.7400234,46.6646355,0],[29.7434567,46.6659314,0],[29.7451733,46.6682874,0],[29.754958,46.6688764,0],[29.7619961,46.668523,0],[29.7649143,46.6651068,0],[29.7592495,46.656742,0],[29.7547863,46.6514397,0],[29.7561596,46.6473153,0],[29.7654293,46.6516754,0],[29.7734974,46.6556816,0],[29.774699,46.6502613,0],[29.7643993,46.6479045,0],[29.7595928,46.645312,0],[29.7673176,46.6376513,0],[29.7729824,46.6411871,0],[29.7786472,46.6364727,0],[29.7781323,46.633408,0],[29.7649143,46.6337617,0],[29.7585629,46.6338795,0],[29.7515247,46.6306969,0],[29.7597645,46.6259815,0],[29.7630261,46.6227984,0],[29.7626827,46.619733,0],[29.7585629,46.6212657,0],[29.7546146,46.6237415,0],[29.7482632,46.6262173,0],[29.7424267,46.625392,0],[29.7425984,46.6232699,0],[29.7455166,46.6204404,0],[29.7522114,46.6172569,0],[29.7558163,46.615842,0],[29.7504948,46.614427,0],[29.7479199,46.614427,0],[29.7496365,46.6117149,0],[29.7472332,46.6079413,0],[29.7420834,46.6061724,0],[29.7374485,46.6098282,0],[29.7338436,46.6057006,0],[29.731097,46.6007472,0],[29.7232006,46.6021625,0],[29.722514,46.5990959,0],[29.731097,46.5948496,0],[29.7389935,46.5931982,0],[29.7513531,46.5898952,0],[29.7602795,46.5901311,0],[29.7671459,46.5894233,0],[29.7664593,46.5856481,0],[29.7760723,46.5814008,0],[29.7843121,46.578569,0],[29.7925518,46.5823447,0],[29.795985,46.5804569,0],[29.7983883,46.5851762,0],[29.7946117,46.5896592,0],[29.795985,46.5948496,0],[29.8042248,46.5922545,0],[29.806628,46.5870639,0],[29.8107479,46.5894233,0],[29.807658,46.5943778,0],[29.8055981,46.6016907,0],[29.7977017,46.6021625,0],[29.8018215,46.6059365,0],[29.8090313,46.6040495,0],[29.8176144,46.6014548,0],[29.8134945,46.5962651,0],[29.8138378,46.5856481,0],[29.8207043,46.590603,0],[29.8237942,46.5969728,0],[29.8217342,46.6026343,0],[29.828944,46.6016907,0],[29.8306606,46.5974446,0],[29.8323773,46.5953215,0],[29.8399304,46.5969728,0],[29.8368404,46.5891874,0],[29.828944,46.586356,0],[29.8258541,46.5817547,0],[29.8311756,46.579631,0],[29.8394154,46.5817547,0],[29.8457668,46.5860021,0],[29.8495434,46.5891874,0],[29.8531483,46.586474,0],[29.8533199,46.5822267,0],[29.8560665,46.579513,0],[29.8625897,46.578333,0],[29.8713444,46.578687,0],[29.8718594,46.5822267,0],[29.8713444,46.5875358,0],[29.8770092,46.5861201,0],[29.8780392,46.5825806,0],[29.8752926,46.578333,0],[29.8685978,46.5760911,0],[29.8625897,46.5737311,0],[29.861388,46.571253,0],[29.8670528,46.5706629,0],[29.8734043,46.5704269,0],[29.8716877,46.5686567,0],[29.8596714,46.5696008,0],[29.8598431,46.5666504,0],[29.8631046,46.564408,0],[29.8696278,46.5626376,0],[29.8794125,46.5624016,0],[29.883189,46.5638179,0],[29.8897122,46.5594508,0],[29.893832,46.556854,0],[29.8964069,46.5526043,0],[29.8922871,46.5500072,0],[29.8869656,46.5524863,0],[29.8795841,46.5557916,0],[29.8795841,46.5588606,0],[29.8718594,46.5580344,0],[29.8739193,46.5504794,0],[29.8761509,46.5462293,0],[29.8778675,46.5426873,0],[29.8816441,46.5417427,0],[29.8845623,46.5462293,0],[29.8876522,46.5474099,0],[29.9455021,46.5549653,0],[29.9479054,46.5615754,0],[29.9386356,46.5596869,0],[29.9427555,46.5667684,0],[29.949622,46.5684207,0],[29.9376057,46.5703089,0],[29.9345158,46.5804569,0],[29.936919,46.5835245,0],[29.9352024,46.5884795,0],[29.9393223,46.5894233,0],[29.9444721,46.5842324,0],[29.9633549,46.5837605,0],[29.9681614,46.5990959,0],[29.9585484,46.6094744,0],[29.9544285,46.6182002,0],[29.9530552,46.6271604,0],[29.9558018,46.6387121,0],[29.9479054,46.6434264,0],[29.9489353,46.6521467,0],[29.9544285,46.6582737,0],[29.958205,46.6707611,0],[29.9623249,46.682068,0],[29.969878,46.6860719,0],[29.9678181,46.700672,0],[29.9659784,46.712263,0],[29.96821,46.7212076,0],[29.969755,46.72968,0],[29.9707849,46.736857,0],[29.9723299,46.7409746,0],[29.9742182,46.7450918,0],[29.974309,46.7536004,0],[29.9661551,46.7558938,0],[29.9655543,46.7595983,0],[29.9664126,46.771592,0],[29.9429415,46.7950167,0],[29.9343584,46.8060626,0],[29.9625108,46.818046,0],[29.9783037,46.8166363,0],[29.9803636,46.8201604,0],[29.9714372,46.8248588,0],[29.9676607,46.8319057,0],[29.958391,46.8370729,0],[29.9491213,46.8427092,0],[29.9250887,46.8349591,0],[29.9316118,46.8286173,0],[29.9062059,46.8192207,0],[29.8825166,46.850693,0],[29.8928163,46.8530409,0],[29.8825166,46.8882477,0],[29.8454378,46.8812082,0],[29.850931,46.8746371,0],[29.7486208,46.8614926,0],[29.7348543,46.9206888,0],[29.7184084,46.9182725,0],[29.7128816,46.9338188,0],[29.6991823,46.9239003,0],[29.6476839,46.9206175,0],[29.6366976,46.957186,0],[29.5694063,46.9403113,0],[29.5536134,46.957186,0],[29.6016786,46.9656213,0],[29.6003053,47.0414794,0],[29.6284578,47.0456906,0],[29.6120304,47.0998224,0],[29.5502323,47.095148,0],[29.5474857,47.0736407,0],[29.5145268,47.1110392,0],[29.4884342,47.113843,0],[29.4939274,47.1278599,0],[29.5804447,47.1372025,0],[29.5516056,47.2538461,0],[29.5982975,47.2575744,0],[29.5782991,47.367164,0],[29.4856876,47.3609318,0],[29.4815678,47.3274326,0],[29.4856876,47.3069505,0],[29.430756,47.2911179,0],[29.4183964,47.3069505,0],[29.408011,47.296427,0],[29.3970247,47.341114,0],[29.4074101,47.3637224,0],[29.3868107,47.3823229,0],[29.3428654,47.3711634,0],[29.3140263,47.4483016,0],[29.2426151,47.4185749,0],[29.2426151,47.464087,0],[29.1863102,47.4260082,0],[29.1849369,47.4464442,0],[29.1986698,47.4631586,0],[29.1588444,47.4520162,0],[29.1519779,47.4668722,0],[29.1835636,47.4733704,0],[29.1904301,47.499355,0],[29.1849369,47.5188351,0],[29.1464848,47.5058492,0],[29.1148991,47.5512857,0],[29.1657108,47.5707465,0],[29.1904301,47.5707465,0],[29.1863102,47.5911262,0],[29.2034715,47.5969504,0],[29.2003816,47.6034324,0],[29.2161745,47.6122283,0],[29.2106813,47.6293527,0],[29.2196077,47.6272703,0],[29.2336839,47.642308,0],[29.2072481,47.6427706,0],[29.2110246,47.6587289,0],[29.219951,47.6584976,0],[29.2196077,47.6802301,0],[29.2312807,47.6843906,0],[29.2028008,47.7194487,0],[29.215847,47.7383851,0],[29.2515526,47.7522367,0],[29.2803917,47.8039167,0],[29.2481194,47.8122176,0],[29.2316399,47.7979208,0],[29.2165337,47.798382,0],[29.1973076,47.818673,0],[29.2051277,47.8377647,0],[29.2254601,47.8546238,0],[29.239193,47.8661413,0],[29.2784185,47.886026,0],[29.217907,47.8859453,0],[29.2234977,47.8901741,0],[29.2185195,47.8955839,0],[29.2143997,47.8925913,0],[29.212683,47.8875265,0],[29.2099365,47.8854544,0],[29.2013534,47.8844184,0],[29.1977485,47.8963896,0],[29.1846835,47.9660878,0],[29.1771304,47.9656281,0],[29.1750704,47.9913683,0],[29.1249453,47.9941254,0],[29.1304385,47.9817172,0],[29.1070925,47.9835557,0],[29.0878665,47.9780401,0],[29.0995394,47.9610302,0],[29.081,47.972524,0],[29.0871798,47.9467744,0],[29.0658938,47.9430948,0],[29.0446078,47.9458545,0],[29.026755,47.9458545,0],[29.0116488,47.9545926,0],[28.9986025,47.9596508,0],[28.9766299,47.9706852,0],[28.9622103,47.9784998,0],[28.9271914,47.9612601,0],[28.8784396,48.0003284,0],[28.8880526,48.0058415,0],[28.8835894,48.0088276,0],[28.8890826,48.0115838,0],[28.8938891,48.0088276,0],[28.9021289,48.0102057,0],[28.9010989,48.0129618,0],[28.8870226,48.0141101,0],[28.8815295,48.0111244,0],[28.8677966,48.0173253,0],[28.8695132,48.0196218,0],[28.8595568,48.0219182,0],[28.8547503,48.0189329,0],[28.8564669,48.0278882,0],[28.8379627,48.0356595,0],[28.8544422,48.0618237,0],[28.8420826,48.068248,0],[28.8516956,48.0728363,0],[28.8407093,48.0769654,0],[28.8565022,48.1012744,0],[28.8448292,48.1251136,0],[28.8283497,48.1278636,0],[28.8132435,48.1237386,0],[28.8050037,48.1333631,0],[28.7919575,48.1274053,0],[28.7741047,48.1260303,0],[28.7548786,48.1374873,0],[28.7274128,48.1310717,0],[28.7033802,48.1274053,0],[28.6889607,48.1241969,0],[28.678661,48.141153,0],[28.6841541,48.1480255,0],[28.6436421,48.1439021,0],[28.6477619,48.1530648,0],[28.6264759,48.1571874,0],[28.6086231,48.1581035,0],[28.5928303,48.1718431,0],[28.5756641,48.1663477,0],[28.5703035,48.1738358,0],[28.5433918,48.1663477,0],[28.5351521,48.1571874,0],[28.5262257,48.154439,0],[28.5071321,48.153684,0],[28.5200459,48.1379456,0],[28.5001331,48.1260303,0],[28.4997898,48.1209884,0],[28.4956338,48.1191235,0],[28.4946789,48.1195604,0],[28.4945287,48.119367,0],[28.4918894,48.1188442,0],[28.4987773,48.1152413,0],[28.4995311,48.1154671,0],[28.5091442,48.1216554,0],[28.5218471,48.1209679,0],[28.5410732,48.1182175,0],[28.5640758,48.1101949,0],[28.5784954,48.1044636,0],[28.5939449,48.0980439,0],[28.611111,48.0955216,0],[28.6255306,48.0925406,0],[28.632397,48.0881835,0],[28.6354869,48.0796974,0],[28.633427,48.0702922,0],[28.621754,48.0643271,0],[28.6128276,48.064786,0],[28.6059612,48.0774036,0],[28.5990947,48.0760273,0],[28.5960048,48.0668509,0],[28.5891384,48.056755,0],[28.5884517,48.0482637,0],[28.5750621,48.0425256,0],[28.5530895,48.0393119,0],[28.5441631,48.0358685,0],[28.5427898,48.0271442,0],[28.5362667,48.021863,0],[28.5283702,48.0129066,0],[28.5318035,48.0034893,0],[28.5390132,47.9984354,0],[28.5465663,47.9972867,0],[28.5599559,47.9922321,0],[28.5750621,47.9984354,0],[28.578152,48.0078536,0],[28.5877651,48.0172702,0],[28.590855,48.0276034,0],[28.5932582,48.0349503,0],[28.6087127,48.0370175,0],[28.6207241,48.0298994,0],[28.6368602,48.0276034,0],[28.6509365,48.0257665,0],[28.6773723,48.0276034,0],[28.7024349,48.0234704,0],[28.7048381,48.0129066,0],[28.7027782,48.0032596,0],[28.7141078,47.9959082,0],[28.730244,47.9812024,0],[28.7460369,47.9761463,0],[28.7563365,47.9754568,0],[28.7625163,47.9784446,0],[28.773846,47.9848792,0],[28.7882656,47.9864878,0],[28.7944454,47.9812024,0],[28.7927288,47.9713195,0],[28.8013118,47.963274,0],[28.8157314,47.9506284,0],[28.8298076,47.9441895,0],[28.8353008,47.9347596,0],[28.8284343,47.925558,0],[28.8201946,47.9117527,0],[28.8250011,47.9016264,0],[28.8356441,47.8974832,0],[28.8528102,47.897253,0],[28.8730663,47.8947209,0],[28.8867992,47.890347,0],[28.9080852,47.8857425,0],[28.925938,47.8843611,0],[28.9424175,47.8848216,0],[28.9503139,47.8811376,0],[28.9571804,47.8811376,0],[28.9702266,47.8783744,0],[28.9815563,47.876302,0],[28.9901393,47.8737689,0],[28.9987224,47.8701992,0],[29.0061038,47.8658233,0],[29.0191501,47.8559184,0],[29.0251583,47.8486612,0],[29.02327,47.841864,0],[29.0177768,47.8323002,0],[29.0107387,47.8253855,0],[29.0078205,47.8160493,0],[29.0016406,47.8087866,0],[28.9937442,47.8002545,0],[28.9884227,47.7905677,0],[28.9870494,47.782494,0],[28.9834445,47.7688813,0],[28.9803546,47.757573,0],[28.9810413,47.7455698,0],[28.9734882,47.7303309,0],[28.967995,47.7199382,0],[28.9721149,47.7044608,0],[28.979668,47.6924453,0],[28.9861911,47.6718738,0],[28.991341,47.6584634,0],[28.9958042,47.6503692,0],[28.9927143,47.6390352,0],[28.9855045,47.6263105,0],[28.9831012,47.6133512,0],[28.9937442,47.6013147,0],[29.0088504,47.5902017,0],[29.0270465,47.5723695,0],[29.0273899,47.5512874,0],[29.0208667,47.536687,0],[29.0253299,47.518373,0],[29.0414661,47.5102571,0],[29.0606922,47.4995886,0],[29.0768283,47.4928617,0],[29.0967411,47.4831177,0],[29.1080707,47.4712834,0],[29.1180271,47.4585179,0],[29.1060108,47.4450527,0],[29.0909046,47.4369255,0],[29.0788883,47.4241516,0],[29.0778583,47.4141626,0],[29.0915912,47.4048688,0],[29.1077274,47.3927844,0],[29.1321033,47.3816271,0],[29.1492694,47.3695374,0],[29.1588825,47.3590729,0],[29.1640323,47.3474433,0],[29.1605991,47.337905,0],[29.1468662,47.3306921,0],[29.13176,47.3288305,0],[29.1276401,47.3255726,0],[29.1228336,47.3167287,0],[29.1245502,47.3102111,0],[29.1338199,47.3090472,0],[29.1475528,47.3104439,0],[29.163689,47.3167287,0],[29.1726154,47.3207435,0],[29.1822284,47.325398,0],[29.1957038,47.3292377,0],[29.2094367,47.3331353,0],[29.2205947,47.3256889,0],[29.2394775,47.3395336,0],[29.2484039,47.346978,0],[29.2616218,47.3526769,0],[29.2707199,47.3629101,0],[29.2829078,47.3724438,0],[29.288401,47.37814,0],[29.2983573,47.3841842,0],[29.3129486,47.3799998,0],[29.3227333,47.3695374,0],[29.3235916,47.360352,0],[29.2957824,47.3481411,0],[29.2727798,47.3383703,0],[29.2532104,47.334764,0],[29.224028,47.3137028,0],[29.2075485,47.296708,0],[29.1946739,47.3039256,0],[29.1744178,47.2963588,0],[29.1596549,47.2939139,0],[29.1455787,47.2930989,0],[29.1277259,47.2880922,0],[29.1143363,47.2819205,0],[29.1272109,47.2733022,0],[29.1342541,47.2674838,0],[29.1418072,47.2609602,0],[29.1467854,47.2540863,0],[29.1478153,47.2481437,0],[29.1497036,47.2446478,0],[29.1567417,47.2394034,0],[29.1612049,47.2329929,0],[29.1632648,47.227048,0],[29.1670414,47.2198199,0],[29.1706463,47.2152726,0],[29.179401,47.214573,0],[29.1861516,47.2155202,0],[29.187071,47.2160354,0],[29.18701,47.2131299,0],[29.1897565,47.2077658,0],[29.1911298,47.2014681,0],[29.195593,47.1944698,0],[29.2007429,47.1895704,0],[29.2093259,47.1821039,0],[29.2223722,47.17697,0],[29.217909,47.1650669,0],[29.2337018,47.1526941,0],[29.2405683,47.159231,0],[29.2409116,47.1711355,0],[29.2411156,47.1714053,0],[29.244774,47.1684368,0]],[[29.1870743,47.2161906,0],[29.187071,47.2160354,0],[29.1872206,47.2161193,0],[29.1870743,47.2161906,0]],[[29.1872206,47.2161193,0],[29.1879112,47.2157826,0],[29.188748,47.2138003,0],[29.1893918,47.2119346,0],[29.1899711,47.2100835,0],[29.1904217,47.2080281,0],[29.1907436,47.2065413,0],[29.1937047,47.1991792,0],[29.1957218,47.196963,0],[29.1979534,47.1943969,0],[29.2003137,47.1921806,0],[29.2044765,47.1880976,0],[29.2062789,47.1868143,0],[29.2167503,47.1800766,0],[29.2222435,47.1785306,0],[29.2264492,47.1769846,0],[29.2394525,47.1727546,0],[29.2411156,47.1714053,0],[29.2532712,47.1874706,0],[29.2433149,47.2000685,0],[29.249838,47.2012348,0],[29.2601377,47.1954029,0],[29.2852003,47.2038006,0],[29.2810804,47.2117306,0],[29.2954999,47.239476,0],[29.3126661,47.2397091,0],[29.3305189,47.2571882,0],[29.3442518,47.2592853,0],[29.3610746,47.2849099,0],[29.3428785,47.2914305,0],[29.3092329,47.2662751,0],[29.3020231,47.2674399,0],[29.2941267,47.2604503,0],[29.2776472,47.267207,0],[29.2608243,47.254858,0],[29.250868,47.2634793,0],[29.2385084,47.2618483,0],[29.2312986,47.2529938,0],[29.2191106,47.2518286,0],[29.2141325,47.2425062,0],[29.2155057,47.2372616,0],[29.197653,47.2307343,0],[29.2024595,47.2244393,0],[29.1931039,47.2197759,0],[29.1895849,47.2174441,0],[29.1872206,47.2161193,0]]]},"properties":{"name":"Придністров'я","styleUrl":"#poly-880E4F-1200-77-nodesc","styleHash":"-6b23f4d9","styleMapHash":{"normal":"#poly-880E4F-1200-77-nodesc-normal","highlight":"#poly-880E4F-1200-77-nodesc-highlight"},"stroke-opacity":1,"stroke":"#880e4f","stroke-width":1.2,"fill-opacity":0.30196078431372547,"fill":"#880e4f"}},{"type":"Feature","geometry":{"type":"Polygon","coordinates":[[[32.6053285,46.6565135,0],[32.6044594,46.6562705,0],[32.6040893,46.6561232,0],[32.6043468,46.6557108,0],[32.6050119,46.6559759,0],[32.6055216,46.6561121,0],[32.6055108,46.6563257,0],[32.6053285,46.6565135,0]]]},"properties":{"name":"Окуповано","styleUrl":"#poly-A52714-1200-77-nodesc","styleHash":"5f0393c8","styleMapHash":{"normal":"#poly-A52714-1200-77-nodesc-normal","highlight":"#poly-A52714-1200-77-nodesc-highlight"},"stroke-opacity":1,"stroke":"#a52714","stroke-width":1.2,"fill-opacity":0.30196078431372547,"fill":"#a52714"}},{"type":"Feature","geometry":{"type":"Polygon","coordinates":[[[33.6895524,46.2051962,0],[33.7407637,46.2084487,0],[33.7421104,46.2083299,0],[33.7378406,46.2005747,0],[33.7278118,46.2009757,0],[33.7203949,46.1997502,0],[33.7177182,46.2024641,0],[33.7129463,46.2016824,0],[33.71571,46.1979643,0],[33.7112546,46.193492,0],[33.7097972,46.1901163,0],[33.713146,46.1862645,0],[33.7108304,46.1838399,0],[33.7160664,46.1757094,0],[33.7197659,46.1739455,0],[33.7257348,46.174014,0],[33.7299192,46.1709572,0],[33.7292637,46.1690726,0],[33.7261891,46.1667043,0],[33.7253384,46.1649261,0],[33.7262858,46.1616592,0],[33.7265868,46.1578857,0],[33.72811,46.1551668,0],[33.7350502,46.1498824,0],[33.735601,46.1471215,0],[33.7475131,46.1378538,0],[33.7495382,46.1374606,0],[33.7545527,46.1404385,0],[33.8239473,46.1869511,0],[34.025209,46.1324744,0],[34.1214677,46.1052596,0],[34.2198542,46.0752287,0],[34.4199342,46.0251892,0],[34.581571,45.9867943,0],[34.6496961,45.9716357,0],[34.7008789,45.9590612,0],[34.8396735,45.8734958,0],[34.815525,45.8354769,0],[34.8247422,45.8109669,0],[34.8670648,45.8289354,0],[34.8703794,45.8465179,0],[34.8747888,45.8553043,0],[34.8852353,45.863042,0],[34.9000715,45.8578221,0],[34.9349618,45.8051894,0],[34.9400235,45.787008,0],[34.9453002,45.7800712,0],[34.9551472,45.7671437,0],[34.9493387,45.7628178,0],[34.9582138,45.7599193,0],[34.9685965,45.7625968,0],[34.9770477,45.7651671,0],[34.8918409,45.8984474,0],[34.8521271,46.0088544,0],[34.8342939,46.1151664,0],[34.828973,46.2038097,0],[34.8992236,46.2379262,0],[35.0366537,46.2665039,0],[35.3181707,46.3348031,0],[35.4344756,46.4150752,0],[35.6143006,46.4994549,0],[35.7699819,46.6015489,0],[35.9360684,46.6582322,0],[36.0830917,46.6581318,0],[36.1895283,46.6666684,0],[36.2286868,46.6501439,0],[36.2691733,46.6053201,0],[36.3867767,46.7166726,0],[36.4954556,46.7472464,0],[36.6152407,46.7730012,0],[36.6468319,46.7803113,0],[36.7052081,46.7772605,0],[36.7460651,46.7652589,0],[36.780722,46.7485413,0],[36.8101741,46.7276278,0],[36.8217547,46.701533,0],[36.8009817,46.7067814,0],[36.7903356,46.6744379,0],[36.7779831,46.6632878,0],[36.7606545,46.6654469,0],[36.7419989,46.6369988,0],[36.7589206,46.6182938,0],[36.8023949,46.6604397,0],[36.8376925,46.7053996,0],[36.8454807,46.7237983,0],[36.8553278,46.7417216,0],[36.8681585,46.7653292,0],[36.8855916,46.789022,0],[36.9039953,46.8053733,0],[36.9291714,46.8281987,0],[36.9585394,46.8472643,0],[36.9927169,46.8620972,0],[37.0189882,46.866505,0],[37.2352809,46.9507065,0],[37.2968463,46.9269649,0],[37.3185542,46.8959368,0],[37.2921844,46.8742922,0],[37.2882744,46.8702775,0],[37.3073663,46.8655588,0],[37.4810991,47.0319678,0],[37.4890465,47.078197,0],[37.5258631,47.1036115,0],[37.542621,47.181407,0],[37.569049,47.1862314,0],[37.6404317,47.1708166,0],[37.6877891,47.1344047,0],[37.603045,47.0988387,0],[37.6066137,47.0877711,0],[37.6296409,47.0951513,0],[37.6979797,47.0796056,0],[37.7677602,47.089906,0],[37.8176309,47.089255,0],[37.8203774,47.1009414,0],[37.8191038,47.1095196,0],[37.8208204,47.1188653,0],[37.8283736,47.1331145,0],[37.8324935,47.1459587,0],[37.8393597,47.1566988,0],[37.8469129,47.165336,0],[37.8527494,47.1739718,0],[37.8541227,47.1987045,0],[37.8500027,47.2136319,0],[37.8441664,47.2266899,0],[37.83627,47.2490675,0],[37.8366134,47.2851782,0],[37.8328369,47.2956573,0],[37.8304334,47.3024094,0],[37.8376433,47.3079967,0],[37.8345534,47.3147472,0],[37.8273436,47.3212643,0],[37.8300901,47.3282457,0],[37.8306771,47.3352942,0],[37.8320504,47.3422739,0],[37.8472565,47.3417407,0],[37.859616,47.3433692,0],[37.8639793,47.3476243,0],[37.8619194,47.3541372,0],[37.8513762,47.3498826,0],[37.84039,47.3522087,0],[37.8445098,47.3582558,0],[37.8543664,47.3653003,0],[37.8444099,47.3687883,0],[37.8410766,47.3777881,0],[37.8530927,47.3840648,0],[37.859616,47.392665,0],[37.858586,47.4028905,0],[37.8664823,47.426355,0],[37.8812453,47.4414504,0],[37.880902,47.4607197,0],[37.8688857,47.4839263,0],[37.8550222,47.4978203,0],[37.8341106,47.5155388,0],[37.823224,47.5291502,0],[37.8002213,47.5460698,0],[37.7801413,47.5570775,0],[37.7569628,47.5666908,0],[37.7391101,47.5764193,0],[37.7380801,47.5879983,0],[37.7301838,47.614389,0],[37.7037478,47.6440048,0],[37.6896718,47.6537189,0],[37.6683858,47.6581127,0],[37.6460699,47.6597314,0],[37.634397,47.6583441,0],[37.6086476,47.6460867,0],[37.5924078,47.6407747,0],[37.5774055,47.6435421,0],[37.5722557,47.6525625,0],[37.5763756,47.6629686,0],[37.5859884,47.676609,0],[37.5976615,47.6856238,0],[37.611634,47.6994977,0],[37.6144843,47.7094241,0],[37.6143126,47.722589,0],[37.6154518,47.7321421,0],[37.6216314,47.7376836,0],[37.6280275,47.7422231,0],[37.6383479,47.7430024,0],[37.6521836,47.750842,0],[37.6552733,47.7577662,0],[37.6460042,47.8082862,0],[37.6985327,47.8290339,0],[37.6889853,47.8485419,0],[37.6823584,47.8591475,0],[37.6763279,47.8649768,0],[37.6698046,47.8739589,0],[37.2699341,47.7696074,0],[36.9675657,47.7094065,0],[36.9528107,47.7243069,0],[36.9284378,47.7216494,0],[36.927766,47.7020098,0],[36.868758,47.6899706,0],[36.828826,47.7666172,0],[36.791262,47.7594386,0],[36.8202041,47.6796947,0],[36.6837635,47.6626204,0],[36.5548938,47.6726743,0],[36.539154,47.621191,0],[36.4341806,47.6049894,0],[36.3679683,47.631198,0],[36.120171,47.5480049,0],[35.8124223,47.55104,0],[35.7654746,47.5403035,0],[35.7220434,47.5652067,0],[35.6805864,47.5600425,0],[35.5992997,47.551619,0],[35.368292,47.5424444,0],[35.318833,47.5198636,0],[35.2783406,47.5060805,0],[35.2488776,47.4672309,0],[35.2022915,47.4446113,0],[35.1483113,47.445294,0],[35.0771591,47.4529096,0],[35.0586487,47.4469957,0],[35.0442631,47.4373645,0],[35.0161971,47.4111308,0],[34.9683437,47.3888413,0],[34.9280574,47.3923437,0],[34.8805332,47.408514,0],[34.8615646,47.4204922,0],[34.8719899,47.4362367,0],[34.8714315,47.4491942,0],[34.8595748,47.4508616,0],[34.8248539,47.4644103,0],[34.7897248,47.4654981,0],[34.7468745,47.4927306,0],[34.7353254,47.4905702,0],[34.7086344,47.4901894,0],[34.6860624,47.4925871,0],[34.6798516,47.5103383,0],[34.6591351,47.5263506,0],[34.6437415,47.5416799,0],[34.6280309,47.5454374,0],[34.5552786,47.4988788,0],[34.4097775,47.4996834,0],[34.3906093,47.5059926,0],[34.3634542,47.4934979,0],[34.34867,47.4735765,0],[34.338344,47.4448677,0],[34.295758,47.4282951,0],[34.262812,47.4260343,0],[34.1264991,47.4151305,0],[34.0837571,47.4221828,0],[34.0588661,47.4180747,0],[34.0395751,47.4021943,0],[33.9874547,47.226306,0],[33.9166814,47.1633177,0],[33.8638587,47.1423051,0],[33.8404469,47.0981315,0],[33.8019775,47.0586238,0],[33.7224099,47.0169906,0],[33.7083154,46.9996555,0],[33.7011069,46.9626424,0],[33.6949441,46.9209355,0],[33.678107,46.9005327,0],[33.6573358,46.9032299,0],[33.6406865,46.8946642,0],[33.6382903,46.8812899,0],[33.6482522,46.8735474,0],[33.6203002,46.8235956,0],[33.5559307,46.812666,0],[33.513875,46.818856,0],[33.475937,46.8156341,0],[33.3893282,46.7671665,0],[33.3563041,46.7920139,0],[33.3474545,46.789736,0],[33.371453,46.7685154,0],[33.2863131,46.7485933,0],[33.2567927,46.7552972,0],[33.2234983,46.7671449,0],[33.1984364,46.7686374,0],[33.1435809,46.7599592,0],[33.0011696,46.7179043,0],[32.9210717,46.7117331,0],[32.844876,46.6850914,0],[32.7723323,46.6683442,0],[32.7029231,46.6610177,0],[32.659008,46.6499968,0],[32.5538255,46.5475863,0],[32.4179407,46.4853242,0],[32.3308639,46.4673464,0],[32.4203423,46.4531666,0],[32.3954481,46.3725527,0],[32.0595249,46.3756975,0],[31.9435968,46.342538,0],[31.8383148,46.335374,0],[31.7426898,46.3186399,0],[31.7796209,46.2622631,0],[31.8014172,46.2656771,0],[32.247461,46.124245,0],[32.534363,46.0650206,0],[32.7098616,46.1024475,0],[32.9123093,46.1019529,0],[33.1772138,46.1201098,0],[33.2988557,46.0698046,0],[33.4285253,46.0269836,0],[33.5144787,46.0268673,0],[33.4963625,46.0699214,0],[33.5634111,46.0743766,0],[33.5244618,46.1153326,0],[33.5570005,46.1218879,0],[33.5734077,46.1253447,0],[33.6895524,46.2051962,0]]]},"properties":{"name":"Окуповано","styleUrl":"#poly-A52714-1200-77-nodesc","styleHash":"5f0393c8","styleMapHash":{"normal":"#poly-A52714-1200-77-nodesc-normal","highlight":"#poly-A52714-1200-77-nodesc-highlight"},"stroke-opacity":1,"stroke":"#a52714","stroke-width":1.2,"fill-opacity":0.30196078431372547,"fill":"#a52714"}},{"type":"Feature","geometry":{"type":"Polygon","coordinates":[[[38.7278112,48.9564349,0],[38.7005034,48.9487523,0],[38.5901335,48.9405778,0],[38.5642082,48.9150297,0],[38.5868753,48.9051684,0],[38.6131979,48.9292041,0],[38.6967474,48.9359542,0],[38.7429174,48.9253149,0],[38.778623,48.9447108,0],[38.7278112,48.9564349,0]]]},"properties":{"name":"Окуповано","styleUrl":"#poly-A52714-1200-77-nodesc","styleHash":"5f0393c8","styleMapHash":{"normal":"#poly-A52714-1200-77-nodesc-normal","highlight":"#poly-A52714-1200-77-nodesc-highlight"},"stroke-opacity":1,"stroke":"#a52714","stroke-width":1.2,"fill-opacity":0.30196078431372547,"fill":"#a52714"}},{"type":"Feature","geometry":{"type":"Polygon","coordinates":[[[38.9330644,48.7482313,0],[38.9361543,48.7437602,0],[38.9317769,48.7364584,0],[38.9446515,48.7354394,0],[38.9571829,48.7394585,0],[38.9595003,48.747156,0],[38.979928,48.743647,0],[38.9882536,48.7346469,0],[38.9965867,48.7243805,0],[38.9977884,48.7197373,0],[38.9943476,48.715849,0],[38.9895516,48.7150925,0],[38.9831971,48.7141876,0],[38.9837904,48.7110352,0],[38.9962389,48.7123366,0],[38.9977884,48.7097701,0],[38.9965868,48.706485,0],[38.998475,48.7011605,0],[39.0018149,48.697384,0],[39.0137454,48.6960244,0],[39.0154725,48.6894886,0],[39.0122079,48.6834834,0],[39.0183832,48.6798745,0],[39.0199357,48.6766818,0],[39.0199357,48.6720342,0],[39.0242272,48.6693135,0],[39.0273171,48.6627379,0],[39.0223389,48.6616041,0],[39.0180474,48.6629646,0],[39.009633,48.6626256,0],[39.0123721,48.658336,0],[39.0190699,48.6568608,0],[39.0286829,48.6534589,0],[39.0362359,48.6481287,0],[39.0451699,48.6474292,0],[39.0540963,48.6483365,0],[39.0655901,48.6502835,0],[39.0714341,48.652646,0],[39.0793305,48.6515119,0],[39.0879136,48.6517388,0],[39.0982133,48.6510583,0],[39.1047364,48.6517388,0],[39.1108201,48.6560115,0],[39.1196634,48.6601491,0],[39.124649,48.6613206,0],[39.1378595,48.6604893,0],[39.1382104,48.6655723,0],[39.1390687,48.6684633,0],[39.1425802,48.6734703,0],[39.1470508,48.6769651,0],[39.1597464,48.6768709,0],[39.169281,48.6805922,0],[39.1772558,48.6849746,0],[39.1810324,48.6925672,0],[39.1844731,48.697817,0],[39.1873913,48.7006494,0],[39.1898729,48.7020847,0],[39.1930562,48.7069936,0],[39.1949369,48.7074658,0],[38.9658529,48.7751951,0],[38.9753623,48.9240605,0],[38.7939462,48.9035271,0],[38.7425698,48.8383084,0],[38.7149182,48.8149605,0],[38.7173214,48.8002634,0],[38.7113671,48.7783257,0],[38.8541023,48.7504938,0],[38.8728111,48.753268,0],[38.8920372,48.7508912,0],[38.9047401,48.7506082,0],[38.9198464,48.7456279,0],[38.9330644,48.7482313,0]]]},"properties":{"name":"Окуповано","styleUrl":"#poly-A52714-1200-77-nodesc","styleHash":"5f0393c8","styleMapHash":{"normal":"#poly-A52714-1200-77-nodesc-normal","highlight":"#poly-A52714-1200-77-nodesc-highlight"},"stroke-opacity":1,"stroke":"#a52714","stroke-width":1.2,"fill-opacity":0.30196078431372547,"fill":"#a52714"}},{"type":"Feature","geometry":{"type":"Polygon","coordinates":[[[38.356058,49.0540151,0],[38.3546074,49.0436747,0],[38.3357246,49.0320836,0],[38.3444098,49.0282993,0],[38.3524564,49.023628,0],[38.3596232,49.0193503,0],[38.3679488,49.0178305,0],[38.3775833,49.0167892,0],[38.3779052,49.0173943,0],[38.3836988,49.0164796,0],[38.383924,49.0173028,0],[38.3846643,49.0172922,0],[38.3851149,49.0173697,0],[38.3871508,49.0174383,0],[38.3874109,49.0177461,0],[38.3880332,49.018024,0],[38.3887896,49.0180592,0],[38.3910644,49.0252649,0],[38.3967935,49.0255322,0],[38.396343,49.0299923,0],[38.4068499,49.0361959,0],[38.356058,49.0540151,0]]]},"properties":{"name":"Рубіжне. Території зайняті ворогом","styleUrl":"#poly-A52714-1200-77","styleHash":"bf33a3e","styleMapHash":{"normal":"#poly-A52714-1200-77-normal","highlight":"#poly-A52714-1200-77-highlight"},"description":"Інформація актуальна на 9:15 25.03.2022. Карта в Рубіжному зроблена точно по вулицям, наскільки це можливо. Тривають бої<br><br>En: Information is current at 9:15 25.03.2022. The map in Rubizhne is made exactly on the streets as much as possible. The fighting continues","stroke-opacity":1,"stroke":"#a52714","stroke-width":1.2,"fill-opacity":0.30196078431372547,"fill":"#a52714"}},{"type":"Feature","geometry":{"type":"Polygon","coordinates":[[[36.3433079,50.0860841,0],[36.355204,50.0836584,0],[36.3764899,50.0723117,0],[36.397261,50.0676841,0],[36.4042977,50.0752992,0],[36.4032677,50.0815784,0],[36.4055594,50.0899831,0],[36.4113959,50.0995639,0],[36.4192923,50.1085923,0],[36.4223822,50.1176191,0],[36.4287337,50.1297254,0],[36.4330252,50.1388582,0],[36.4318236,50.1483192,0],[36.4316519,50.1544789,0],[36.4272647,50.1596073,0],[36.4155192,50.1625742,0],[36.3997229,50.1575584,0],[36.3851317,50.1491992,0],[36.3746603,50.1436989,0],[36.3674506,50.1373178,0],[36.3686522,50.1319262,0],[36.3672789,50.1258737,0],[36.3583525,50.1161881,0],[36.3590392,50.1073813,0],[36.3475378,50.0997841,0],[36.3433079,50.0860841,0]]]},"properties":{"name":"Окуповані Циркуни","styleUrl":"#poly-A52714-1200-77-nodesc","styleHash":"5f0393c8","styleMapHash":{"normal":"#poly-A52714-1200-77-nodesc-normal","highlight":"#poly-A52714-1200-77-nodesc-highlight"},"stroke-opacity":1,"stroke":"#a52714","stroke-width":1.2,"fill-opacity":0.30196078431372547,"fill":"#a52714"}},{"type":"Feature","geometry":{"type":"GeometryCollection","geometries":[{"type":"Polygon","coordinates":[[[36.442791,50.1948843,0],[36.4358617,50.2041925,0],[36.4262592,50.2102469,0],[36.4240367,50.2157517,0],[36.4245653,50.2174844,0],[36.4244073,50.2192171,0],[36.4241626,50.2212086,0],[36.4248627,50.2237491,0],[36.429931,50.2264328,0],[36.4384347,50.234936,0],[36.4459098,50.2428895,0],[36.4434293,50.249745,0],[36.4312271,50.254775,0],[36.4332516,50.2572539,0],[36.4357055,50.2599524,0],[36.4360212,50.2605753,0],[36.4433133,50.2617374,0],[36.4442114,50.2635576,0],[36.4415875,50.2658264,0],[36.429687,50.2654811,0],[36.4255972,50.2651359,0],[36.4192849,50.2667058,0],[36.4105694,50.2654223,0],[36.4065269,50.2696582,0],[36.4032469,50.2768126,0],[36.4014904,50.2858551,0],[36.4014091,50.2931907,0],[36.4033061,50.2971145,0],[36.399201,50.302112,0],[36.373987,50.2989435,0],[36.3763675,50.2957118,0],[36.3918051,50.296728,0],[36.3966046,50.2955906,0],[36.3957424,50.2893191,0],[36.3957384,50.2824993,0],[36.3980422,50.2758379,0],[36.4020616,50.2691764,0],[36.4047925,50.2615819,0],[36.4174777,50.2572791,0],[36.4142939,50.2544561,0],[36.4138568,50.2511939,0],[36.4089568,50.2521027,0],[36.406117,50.2476328,0],[36.421811,50.2476406,0],[36.4285421,50.2474788,0],[36.4309634,50.2448729,0],[36.428578,50.242267,0],[36.4163611,50.2260324,0],[36.4120056,50.2269171,0],[36.4056975,50.2266,0],[36.4059555,50.2312367,0],[36.3911932,50.2353235,0],[36.3640702,50.2372509,0],[36.3349738,50.2389405,0],[36.3242623,50.2308047,0],[36.3117002,50.2245385,0],[36.2875687,50.2326051,0],[36.2952713,50.2701534,0],[36.2845474,50.3000884,0],[36.284119,50.3050194,0],[36.2808571,50.3100582,0],[36.2774212,50.3124621,0],[36.2750103,50.3170522,0],[36.2767126,50.31856,0],[36.2787438,50.3228931,0],[36.2725031,50.3238871,0],[36.2744416,50.3265342,0],[36.2772896,50.3309544,0],[36.2826447,50.3354141,0],[36.278591,50.3385283,0],[36.26998,50.3340503,0],[36.2658352,50.3198193,0],[36.2587212,50.3175515,0],[36.2433677,50.3196669,0],[36.1796015,50.3472138,0],[36.1715681,50.3269263,0],[36.1515241,50.2348658,0],[36.1775292,50.2310594,0],[36.182228,50.3126085,0],[36.1934551,50.3224065,0],[36.2385882,50.315248,0],[36.2437763,50.3133989,0],[36.2657617,50.3110445,0],[36.2712657,50.3073729,0],[36.2755087,50.2990781,0],[36.2758023,50.2914408,0],[36.2797241,50.2793178,0],[36.2813868,50.2678006,0],[36.2764773,50.2434618,0],[36.2496238,50.2110512,0],[36.2017097,50.2078668,0],[36.1983475,50.2029996,0],[36.2488838,50.2026887,0],[36.2574018,50.1660139,0],[36.2531122,50.1534316,0],[36.2519988,50.152838,0],[36.249086,50.1527507,0],[36.2463507,50.152356,0],[36.244829,50.1501372,0],[36.2429878,50.1477896,0],[36.2415376,50.1463948,0],[36.2412125,50.1443757,0],[36.243896,50.1433141,0],[36.2486395,50.1434626,0],[36.2531482,50.1438693,0],[36.2551269,50.1396221,0],[36.2544492,50.1384988,0],[36.2524074,50.1377926,0],[36.2502119,50.1364905,0],[36.2516571,50.1333362,0],[36.2551875,50.1325823,0],[36.2621509,50.1319381,0],[36.2632028,50.1267435,0],[36.2639107,50.1241348,0],[36.2659919,50.1240573,0],[36.2677659,50.1243055,0],[36.2668506,50.1305374,0],[36.2681669,50.1324775,0],[36.2765507,50.1318752,0],[36.284048,50.1302299,0],[36.2940477,50.1318481,0],[36.2974382,50.133466,0],[36.3031896,50.1352707,0],[36.3037978,50.1421384,0],[36.3026619,50.1450115,0],[36.29938,50.1487094,0],[36.2940924,50.1482208,0],[36.2833801,50.1491862,0],[36.2822035,50.1510774,0],[36.2801685,50.1521986,0],[36.2776058,50.1514944,0],[36.2753865,50.1502401,0],[36.2703574,50.147816,0],[36.267646,50.1473167,0],[36.2647983,50.1469782,0],[36.2598376,50.1486392,0],[36.2617432,50.1528302,0],[36.2640092,50.1656115,0],[36.2740368,50.1685188,0],[36.2639742,50.1868065,0],[36.2611164,50.2057533,0],[36.2786264,50.224096,0],[36.3112493,50.2182684,0],[36.353072,50.2298834,0],[36.3800226,50.2257959,0],[36.3982192,50.2200969,0],[36.3970194,50.2187172,0],[36.395132,50.218302,0],[36.3936737,50.2171728,0],[36.3920038,50.2171321,0],[36.3930807,50.2110498,0],[36.396092,50.204982,0],[36.4085832,50.2005193,0],[36.4172319,50.2037812,0],[36.4205597,50.2068231,0],[36.4281664,50.1989237,0],[36.4299893,50.1943325,0],[36.4280998,50.1834191,0],[36.4236341,50.1864323,0],[36.4147017,50.1885009,0],[36.4134242,50.1839773,0],[36.4183263,50.177475,0],[36.4097637,50.1761223,0],[36.4146111,50.1648416,0],[36.4155192,50.1625742,0],[36.4272647,50.1596073,0],[36.442791,50.1948843,0]]]},{"type":"Polygon","coordinates":[[[37.2820136,49.1313473,0],[37.299243,49.1314433,0],[37.2975922,49.1463637,0],[37.2655788,49.15589,0],[37.263958,49.1606447,0],[37.2651206,49.161874,0],[37.2665407,49.1629348,0],[37.2673425,49.1641024,0],[37.2672725,49.1647819,0],[37.2668258,49.1651904,0],[37.2658212,49.1655427,0],[37.2638978,49.1655457,0],[37.2609093,49.1654114,0],[37.2600176,49.1673456,0],[37.263203,49.1706831,0],[37.2694572,49.1716214,0],[37.2696063,49.1749569,0],[37.246947,49.1778746,0],[37.2464459,49.1589732,0],[37.2376134,49.1503645,0],[37.2353061,49.1409696,0],[37.2209513,49.1391157,0],[37.2205017,49.1368121,0],[37.2242381,49.133834,0],[37.2160909,49.1312467,0],[37.2193322,49.1258966,0],[37.2230016,49.1191418,0],[37.229126,49.1197518,0],[37.2241786,49.1276636,0],[37.2576879,49.1354613,0],[37.2820136,49.1313473,0]]]},{"type":"Polygon","coordinates":[[[36.8401658,49.4059559,0],[36.8476007,49.4131347,0],[36.8487441,49.4187349,0],[36.8376427,49.4282348,0],[36.8410176,49.4344362,0],[36.844393,49.4368417,0],[36.8560159,49.4513754,0],[36.8607993,49.4535078,0],[36.8626335,49.4513934,0],[36.8639367,49.4501408,0],[36.8649317,49.4498772,0],[36.8696349,49.4513077,0],[36.8792801,49.4552332,0],[36.8851774,49.453429,0],[36.8974571,49.4528513,0],[36.9227791,49.4428962,0],[36.9612357,49.4311724,0],[37.0122001,49.4250074,0],[37.0324222,49.4152629,0],[37.0529736,49.391889,0],[37.0741814,49.3934696,0],[37.0878746,49.3993941,0],[37.1060526,49.3998953,0],[37.1302463,49.399361,0],[37.1510955,49.3975272,0],[37.1640929,49.3954919,0],[37.1729935,49.3891109,0],[37.1753701,49.3812774,0],[37.1957779,49.3775503,0],[37.2058144,49.381729,0],[37.214472,49.3483498,0],[37.2085117,49.3291694,0],[37.2075902,49.3164548,0],[37.2052979,49.3062268,0],[37.2043798,49.2959989,0],[37.2127269,49.2696497,0],[37.2505519,49.2263288,0],[37.258105,49.2296919,0],[37.2235136,49.2675544,0],[37.2161561,49.2903214,0],[37.2182393,49.2978598,0],[37.2226182,49.3215253,0],[37.2289705,49.3478324,0],[37.2276378,49.3715004,0],[37.2228676,49.3835423,0],[37.2583535,49.3885106,0],[37.2725591,49.3939191,0],[37.3092128,49.3926571,0],[37.331029,49.3977213,0],[37.3410094,49.3917554,0],[37.3836377,49.3848569,0],[37.4427017,49.3813983,0],[37.4598583,49.3394116,0],[37.4797441,49.3349965,0],[37.5388179,49.337035,0],[37.5290668,49.3492414,0],[37.5021438,49.3497513,0],[37.4801735,49.352738,0],[37.4526851,49.3995432,0],[37.4391334,49.3953713,0],[37.4319185,49.3903325,0],[37.3891734,49.3933983,0],[37.3587807,49.4000278,0],[37.3488041,49.4035506,0],[37.3405202,49.4070184,0],[37.2360546,49.4045042,0],[37.206925,49.4014473,0],[37.1903222,49.4010703,0],[37.1628757,49.4031638,0],[37.136112,49.4072617,0],[37.0813829,49.4076189,0],[37.0653034,49.4121228,0],[37.0447964,49.4251392,0],[36.9645098,49.4390009,0],[36.9518138,49.4396621,0],[36.8924111,49.4583936,0],[36.8935027,49.4604483,0],[36.8922461,49.4639302,0],[36.894408,49.4696595,0],[36.8963906,49.4729977,0],[36.897983,49.4750569,0],[36.8969768,49.4761978,0],[36.8992188,49.4782464,0],[36.9002542,49.4822264,0],[36.9016306,49.4875618,0],[36.98609,49.5026048,0],[36.9310743,49.5244444,0],[36.9708137,49.5603087,0],[36.987457,49.5879294,0],[37.0020513,49.5937336,0],[37.0013504,49.6014696,0],[37.0143855,49.6154354,0],[37.0270785,49.6384689,0],[37.0415785,49.6482848,0],[37.0524262,49.6514362,0],[37.0753637,49.6527875,0],[37.1033186,49.6504597,0],[37.1236527,49.643958,0],[37.1400052,49.6410383,0],[37.1469244,49.6454804,0],[37.1486938,49.6534789,0],[37.1711245,49.6741408,0],[37.1947486,49.6864323,0],[37.2400009,49.6747195,0],[37.2419552,49.6702113,0],[37.2905908,49.6528094,0],[37.3277058,49.6542835,0],[37.3418019,49.6570145,0],[37.3909209,49.6597368,0],[37.4167108,49.6538439,0],[37.4404366,49.651502,0],[37.4908324,49.6648858,0],[37.5082898,49.6818151,0],[37.5380492,49.6955549,0],[37.5461477,49.6958623,0],[37.5548317,49.6940723,0],[37.5635144,49.6902829,0],[37.5767553,49.6870315,0],[37.5813128,49.6900684,0],[37.5856521,49.6929184,0],[37.5907402,49.6900114,0],[37.5939694,49.6863365,0],[37.5983294,49.6853875,0],[37.6015383,49.6871339,0],[37.6048598,49.6883397,0],[37.6078936,49.6897196,0],[37.6109552,49.6912975,0],[37.6143744,49.6905313,0],[37.61471,49.6974769,0],[37.6189989,49.699505,0],[37.6171946,49.7051813,0],[37.6183535,49.7096834,0],[37.627345,49.7093801,0],[37.626517,49.7027892,0],[37.633999,49.7013823,0],[37.6305286,49.6972368,0],[37.634802,49.6902787,0],[37.6338477,49.6831351,0],[37.6364602,49.6753426,0],[37.6365642,49.6704465,0],[37.6338692,49.6682207,0],[37.6309768,49.6673301,0],[37.6375988,49.6654405,0],[37.6361031,49.6619398,0],[37.6343251,49.6584115,0],[37.6344658,49.6563138,0],[37.6379693,49.6539312,0],[37.6410945,49.6507391,0],[37.6411122,49.6488093,0],[37.644726,49.6455101,0],[37.648593,49.644527,0],[37.652072,49.6451469,0],[37.6569017,49.6525703,0],[37.6594883,49.6563935,0],[37.6633565,49.6587497,0],[37.6585955,49.6613726,0],[37.6553565,49.6630172,0],[37.6476537,49.6655503,0],[37.6433569,49.6695237,0],[37.6408638,49.6741773,0],[37.64099,49.6792819,0],[37.6376196,49.6855002,0],[37.6390237,49.6960502,0],[37.6374941,49.7042123,0],[37.6378521,49.7131515,0],[37.6283096,49.7124166,0],[37.6184223,49.7196726,0],[37.6077445,49.7305283,0],[37.5781846,49.7535868,0],[37.5721118,49.7612183,0],[37.5718748,49.77018,0],[37.5821632,49.7767183,0],[37.5890194,49.7817045,0],[37.5893352,49.7896766,0],[37.5940827,49.8007449,0],[37.590522,49.8188923,0],[37.5969295,49.827322,0],[37.6033384,49.8277779,0],[37.634469,49.8255752,0],[37.6484344,49.8304547,0],[37.6706476,49.8398064,0],[37.682808,49.8476597,0],[37.6934769,49.8686627,0],[37.6823493,49.8862634,0],[37.6378639,49.908233,0],[37.6043195,49.9425707,0],[37.5866221,49.9687878,0],[37.555392,49.9731443,0],[37.4967075,49.9562835,0],[37.4315114,49.9693468,0],[37.4136883,49.9928048,0],[37.4151875,50.0196636,0],[37.4651759,50.0109416,0],[37.5305123,50.0173698,0],[37.5776135,50.0439465,0],[37.6130618,50.0475767,0],[37.6482094,50.0270214,0],[37.6736961,50.0053594,0],[37.6898374,49.9847987,0],[37.7541853,49.9740638,0],[37.8151919,49.9664546,0],[37.840891,49.9551169,0],[37.8701481,49.940127,0],[37.874681,49.9410425,0],[37.8789152,49.945806,0],[37.8937374,49.9470829,0],[37.938783,49.9629324,0],[37.9231299,49.9817117,0],[37.9415719,49.9886746,0],[37.951521,49.9980089,0],[37.947525,50.0030582,0],[37.90551,49.9873025,0],[37.9004551,49.9699128,0],[37.872502,49.9678022,0],[37.8399358,49.9821123,0],[37.7871574,49.9903847,0],[37.7187864,49.9987024,0],[37.6998286,50.0184791,0],[37.6687958,50.0377402,0],[37.6425726,50.0596502,0],[37.5772797,50.0675247,0],[37.4903859,50.0300345,0],[37.4460907,50.0440841,0],[37.4445125,50.0776918,0],[37.441027,50.1107911,0],[37.4043151,50.1290966,0],[37.3976653,50.1453109,0],[37.4664683,50.1556176,0],[37.5001039,50.1727254,0],[37.5506828,50.1738766,0],[37.5945024,50.1700226,0],[37.6534642,50.1676448,0],[37.6538249,50.168992,0],[37.6521256,50.170999,0],[37.6454594,50.1745598,0],[37.6396556,50.1763743,0],[37.6383146,50.1798933,0],[37.6390335,50.1851711,0],[37.6421886,50.1913299,0],[37.6246285,50.206065,0],[37.6082806,50.1946301,0],[37.5503762,50.1908778,0],[37.5071403,50.1957191,0],[37.4704229,50.1834159,0],[37.4513754,50.1864961,0],[37.4141913,50.1811545,0],[37.3577977,50.1749461,0],[37.3526302,50.1652082,0],[37.3472247,50.1687712,0],[37.2992005,50.1865434,0],[37.2527518,50.181743,0],[37.1903319,50.1845092,0],[37.1812921,50.1937969,0],[37.1499891,50.2012972,0],[37.1296599,50.2167028,0],[37.1286339,50.2166203,0],[37.133062,50.2350265,0],[37.1309429,50.2641289,0],[37.1251679,50.2921578,0],[37.1399958,50.3043929,0],[37.1737261,50.3087018,0],[37.197851,50.3165118,0],[37.2098418,50.3272165,0],[37.2273282,50.3295897,0],[37.2657081,50.340498,0],[37.2996302,50.3467984,0],[37.3127128,50.3446477,0],[37.3422879,50.3565757,0],[37.3561081,50.3646644,0],[37.3725519,50.3718442,0],[37.4144015,50.3785853,0],[37.4641113,50.3852789,0],[37.4653401,50.4052323,0],[37.455532,50.3985732,0],[37.4480108,50.3966876,0],[37.4355445,50.4004677,0],[37.4228013,50.396527,0],[37.4101311,50.3942203,0],[37.3922024,50.3906893,0],[37.3746172,50.385188,0],[37.3579895,50.3807513,0],[37.3500819,50.3759646,0],[37.3298155,50.3755563,0],[37.3150505,50.368469,0],[37.3030163,50.3600671,0],[37.2741422,50.3529546,0],[37.2585062,50.3486299,0],[37.2511108,50.346715,0],[37.2425054,50.3459497,0],[37.2343842,50.345127,0],[37.2156215,50.3460564,0],[37.2004158,50.3415589,0],[37.1919076,50.3327835,0],[37.184772,50.3261934,0],[37.1736102,50.3221447,0],[37.1641675,50.3165605,0],[37.1494055,50.3150299,0],[37.1130154,50.3178813,0],[37.0879561,50.3094399,0],[37.0519083,50.3110809,0],[37.0203186,50.3053662,0],[36.9955958,50.2997578,0],[36.9697646,50.296349,0],[36.9696359,50.2984621,0],[36.9685635,50.301617,0],[36.9610967,50.3044182,0],[36.9458167,50.3085934,0],[36.9284743,50.312338,0],[36.9082138,50.3128126,0],[36.894471,50.31946,0],[36.9013162,50.3270547,0],[36.9095135,50.3299695,0],[36.9310604,50.3333888,0],[36.9348484,50.3372939,0],[36.9358952,50.3503614,0],[36.9215108,50.3484492,0],[36.8920617,50.3402348,0],[36.8696171,50.3357955,0],[36.8540428,50.3300383,0],[36.8635356,50.3187995,0],[36.8630751,50.3119436,0],[36.869357,50.3069016,0],[36.8718625,50.3027361,0],[36.899189,50.2992295,0],[36.9250014,50.2941894,0],[36.9084135,50.2903615,0],[36.906987,50.2831802,0],[36.9127989,50.2743227,0],[36.9047218,50.2661627,0],[36.895944,50.2568981,0],[36.890012,50.2419925,0],[36.8884411,50.2211779,0],[36.8787791,50.2140289,0],[36.8721707,50.2109435,0],[36.8662269,50.208631,0],[36.8633713,50.2082975,0],[36.8590334,50.2082909,0],[36.8546324,50.2073703,0],[36.8515084,50.1980899,0],[36.8452634,50.1993067,0],[36.8375821,50.1982168,0],[36.8308029,50.1947183,0],[36.8382806,50.1852551,0],[36.8436957,50.1757915,0],[36.8477357,50.1654483,0],[36.847655,50.1551051,0],[36.8312057,50.1517696,0],[36.8245425,50.1457937,0],[36.8220002,50.1384976,0],[36.819037,50.1185485,0],[36.8187823,50.0987857,0],[36.8259958,50.0817231,0],[36.7936035,50.0789658,0],[36.7781011,50.0718882,0],[36.7518291,50.0758293,0],[36.7345714,50.0821836,0],[36.7025893,50.0796176,0],[36.6735651,50.0734649,0],[36.6453919,50.0702197,0],[36.6457165,50.0771592,0],[36.6288732,50.0810134,0],[36.6034557,50.0848939,0],[36.5980431,50.0751556,0],[36.5855944,50.0741197,0],[36.5773052,50.0710513,0],[36.444564,50.0581742,0],[36.4575324,50.0350982,0],[36.5752134,50.0611857,0],[36.5827041,50.0625472,0],[36.5857326,50.0697488,0],[36.5956461,50.0700551,0],[36.605667,50.0682798,0],[36.6069865,50.0666483,0],[36.6071043,50.0650168,0],[36.6089049,50.0598428,0],[36.6192004,50.0598523,0],[36.6298388,50.0632216,0],[36.6363579,50.0622926,0],[36.6820044,50.0663875,0],[36.7189789,50.0701346,0],[36.7407511,50.068783,0],[36.7650735,50.066042,0],[36.8234141,50.077218,0],[36.8304818,50.0675691,0],[36.8368452,50.05245,0],[36.8537987,50.0347849,0],[36.8793819,50.0185998,0],[36.8877034,50.0131984,0],[36.9049497,50.0190487,0],[36.9092275,50.0025088,0],[36.9263217,49.9950748,0],[36.9348305,49.9849885,0],[36.9469779,49.9698365,0],[36.9559914,49.9625585,0],[36.9538623,49.9568157,0],[36.9563851,49.9466005,0],[36.9550892,49.9438671,0],[36.9506652,49.939186,0],[36.9544825,49.9349453,0],[36.9591201,49.9300836,0],[36.9715658,49.9278734,0],[36.9887745,49.926989,0],[37.0004682,49.9234525,0],[37.0310292,49.9285372,0],[37.0351547,49.923453,0],[37.0126709,49.9188141,0],[37.008386,49.9165998,0],[37.007868,49.9085293,0],[37.0043694,49.9059586,0],[37.0029313,49.9013975,0],[36.997116,49.8956196,0],[36.9970743,49.8898134,0],[36.996839,49.8874636,0],[36.9895027,49.8834277,0],[36.992829,49.8775612,0],[37.0070079,49.8704974,0],[37.0010521,49.8576764,0],[37.0028923,49.8424104,0],[36.9856275,49.8334502,0],[36.977347,49.8358304,0],[36.9498599,49.825502,0],[36.9090014,49.8092546,0],[36.9038084,49.8075174,0],[36.8927814,49.7995755,0],[36.8941348,49.7811977,0],[36.8832046,49.7550598,0],[36.8780246,49.7507496,0],[36.8711889,49.7465176,0],[36.8777803,49.7427222,0],[36.8616592,49.7338447,0],[36.8290634,49.7329503,0],[36.8055712,49.7231769,0],[36.8050858,49.7160657,0],[36.8233741,49.7187529,0],[36.8285722,49.7222013,0],[36.8414726,49.7275865,0],[36.8661209,49.7276137,0],[36.8829081,49.73761,0],[36.8986852,49.7286264,0],[36.9172034,49.7214156,0],[37.0055722,49.7218725,0],[37.0315602,49.7176684,0],[37.0534735,49.713848,0],[37.1036874,49.704455,0],[37.1508765,49.6967442,0],[37.1501328,49.6835458,0],[37.1613368,49.6795749,0],[37.1550259,49.6760509,0],[37.1504318,49.672527,0],[37.1410662,49.6633742,0],[37.1327321,49.6566648,0],[37.1273089,49.6567518,0],[37.1009281,49.6595847,0],[37.0701629,49.6628159,0],[37.0443545,49.6626183,0],[37.0236631,49.6564483,0],[36.9991979,49.6281797,0],[36.9895486,49.6118209,0],[36.9709804,49.6025791,0],[36.9612629,49.563682,0],[36.9045636,49.5153786,0],[36.8645063,49.4834133,0],[36.8517722,49.4834445,0],[36.846398,49.4925422,0],[36.8218653,49.4971359,0],[36.8003351,49.498551,0],[36.7856808,49.4780348,0],[36.7839718,49.476937,0],[36.7859618,49.474797,0],[36.7874529,49.4717438,0],[36.7894052,49.4698205,0],[36.7927092,49.4665315,0],[36.794468,49.4646091,0],[36.7940599,49.4633411,0],[36.7945102,49.4618499,0],[36.7947234,49.4595253,0],[36.7930913,49.4578422,0],[36.8013681,49.4573582,0],[36.806162,49.4570596,0],[36.8126582,49.456016,0],[36.8163805,49.4557138,0],[36.8176446,49.4533243,0],[36.8177689,49.4514469,0],[36.8190467,49.4494778,0],[36.8188546,49.4450939,0],[36.8236186,49.4425762,0],[36.8297114,49.4420047,0],[36.8308227,49.4387504,0],[36.831378,49.4353368,0],[36.8314833,49.4317317,0],[36.8312641,49.4277591,0],[36.8349312,49.4237632,0],[36.8353913,49.4200904,0],[36.8296133,49.417584,0],[36.8276124,49.4135141,0],[36.828166,49.4109384,0],[36.833011,49.4078042,0],[36.8393288,49.4053867,0],[36.8401658,49.4059559,0]],[[37.3524272,50.1648256,0],[37.3525362,50.1649834,0],[37.3526302,50.1652082,0],[37.3524272,50.1648256,0]],[[37.3470071,50.154607,0],[37.3470651,50.1546122,0],[37.3489856,50.1583376,0],[37.3470071,50.154607,0]],[[37.1246343,50.2162988,0],[37.1285977,50.2164698,0],[37.1286339,50.2166203,0],[37.1246343,50.2162988,0]],[[36.9788036,50.0762851,0],[36.9904378,50.0782444,0],[36.9902297,50.0784573,0],[36.9788036,50.0762851,0]],[[36.9775945,50.0802315,0],[36.9775191,50.0802187,0],[36.9788036,50.0762851,0],[36.9775945,50.0802315,0]],[[37.351597,50.1636235,0],[37.3507866,50.1617963,0],[37.3494235,50.1592415,0],[37.3489856,50.1583376,0],[37.3524272,50.1648256,0],[37.351597,50.1636235,0]],[[36.9128057,49.7978484,0],[36.9095665,49.7863068,0],[36.9015817,49.7649895,0],[36.8972488,49.7534425,0],[36.8925744,49.7517657,0],[36.9172502,49.7351077,0],[36.9967253,49.7331218,0],[37.0308837,49.7258228,0],[37.0872424,49.7146372,0],[37.1358803,49.7067822,0],[36.9289219,49.7980871,0],[36.9128057,49.7978484,0]],[[37.1236202,50.216255,0],[37.118471,50.2158189,0],[37.1224185,50.2269163,0],[37.1177841,50.2422928,0],[37.1199418,50.2583219,0],[37.1100326,50.2874021,0],[37.1178526,50.3028945,0],[37.1098796,50.3061059,0],[37.0925581,50.3015631,0],[37.0749496,50.3011431,0],[37.0580273,50.3033521,0],[37.0250002,50.2928783,0],[37.0074711,50.2898572,0],[36.9880679,50.2887891,0],[36.9649825,50.283872,0],[36.9637432,50.2783488,0],[36.9517906,50.27515,0],[36.9846103,50.2581925,0],[37.0071827,50.2446565,0],[37.0304758,50.2398602,0],[37.0386859,50.236141,0],[37.057189,50.2262645,0],[37.0858604,50.2170441,0],[37.1025119,50.2128721,0],[37.1124779,50.2153206,0],[37.1246343,50.2162988,0],[37.1236202,50.216255,0]],[[37.3374749,50.1537546,0],[37.3310603,50.1556463,0],[37.3252463,50.1611666,0],[37.3252683,50.1655871,0],[37.314324,50.1698091,0],[37.3033591,50.1746685,0],[37.2982303,50.1735905,0],[37.2872845,50.1756116,0],[37.2877085,50.1789941,0],[37.2636572,50.1764674,0],[37.2316849,50.1764569,0],[37.1862675,50.1786074,0],[37.1434638,50.1844736,0],[37.1198724,50.198244,0],[37.102057,50.1826922,0],[37.0874725,50.1292781,0],[37.0785772,50.10582,0],[37.1046908,50.1130911,0],[37.1263343,50.1041727,0],[37.1562122,50.1031757,0],[37.2149639,50.0983344,0],[37.2623807,50.0985561,0],[37.2845498,50.1047132,0],[37.3036336,50.1168098,0],[37.3263417,50.130419,0],[37.3411627,50.1435829,0],[37.3470071,50.154607,0],[37.3374749,50.1537546,0]],[[36.9938226,50.0747832,0],[36.9908126,50.0703022,0],[36.9748036,50.0665192,0],[36.9680004,50.0709075,0],[36.9684063,50.0752958,0],[36.9442457,50.0727156,0],[36.8654977,50.0745195,0],[36.8371678,50.0783323,0],[36.8417989,50.0653978,0],[36.8618103,50.0557225,0],[36.8714736,50.0405918,0],[36.8896903,50.0272906,0],[36.9147703,50.0338335,0],[36.9254227,50.009646,0],[36.984767,49.9624954,0],[36.984825,49.942557,0],[37.0068882,49.9344967,0],[37.03999,49.9378132,0],[37.0580938,49.9170635,0],[37.1271796,49.9276818,0],[37.199342,49.9276459,0],[37.2406268,49.9310661,0],[37.2627828,49.9449355,0],[37.2590954,49.967345,0],[37.2764684,49.9820862,0],[37.2769708,50.0124204,0],[37.293135,50.0315625,0],[37.3220562,50.0406869,0],[37.3490623,50.05845,0],[37.35528,50.0663164,0],[37.3560065,50.0761652,0],[37.3238078,50.0826414,0],[37.2909857,50.0885394,0],[37.2423407,50.0911144,0],[37.2277759,50.0889467,0],[37.1788783,50.0916162,0],[37.1683303,50.0965244,0],[37.158469,50.0904191,0],[37.1392912,50.0983793,0],[37.1201111,50.0953242,0],[37.1057797,50.1019853,0],[37.0616176,50.0902028,0],[36.9904378,50.0782444,0],[36.9938226,50.0747832,0]],[[36.9768442,50.0822856,0],[37.064514,50.1012676,0],[37.077273,50.1710256,0],[37.0859343,50.2003131,0],[37.0737191,50.2061337,0],[37.02917,50.2248552,0],[36.9943736,50.2310649,0],[36.9430579,50.2688789,0],[36.9175845,50.2482127,0],[36.9131039,50.2137357,0],[36.9039886,50.17409,0],[36.8966742,50.1591158,0],[36.8777353,50.1462478,0],[36.8850866,50.1389398,0],[36.881543,50.1292349,0],[36.9091203,50.1236133,0],[36.9283969,50.1220077,0],[36.971695,50.113674,0],[36.9888902,50.0958996,0],[36.9896006,50.085172,0],[36.9781518,50.0827675,0],[36.9689386,50.0909216,0],[36.9779212,50.0951109,0],[36.964298,50.1041501,0],[36.9603727,50.1109272,0],[36.9434728,50.1129924,0],[36.8652666,50.1224381,0],[36.8680629,50.1402358,0],[36.8606058,50.1414963,0],[36.8534901,50.1403339,0],[36.8463745,50.1413714,0],[36.8344027,50.1281296,0],[36.8317564,50.118146,0],[36.8312787,50.1109439,0],[36.839252,50.108652,0],[36.8414683,50.1060508,0],[36.8527693,50.103055,0],[36.8540835,50.1052112,0],[36.8601455,50.1040208,0],[36.8684941,50.1018633,0],[36.8714608,50.0975494,0],[36.8670979,50.095087,0],[36.8528772,50.0989659,0],[36.8350769,50.1034115,0],[36.8320893,50.1056946,0],[36.8295547,50.0996901,0],[36.8337726,50.0839394,0],[36.8404895,50.0841588,0],[36.8453398,50.0832782,0],[36.8553799,50.0835035,0],[36.8629276,50.0792236,0],[36.8820052,50.0776416,0],[36.9386732,50.0757189,0],[36.9672105,50.0784732,0],[36.9775191,50.0802187,0],[36.9768442,50.0822856,0]]]}]},"properties":{"name":"Окуповано","styleUrl":"#poly-A52714-1200-77-nodesc","styleHash":"5f0393c8","styleMapHash":{"normal":"#poly-A52714-1200-77-nodesc-normal","highlight":"#poly-A52714-1200-77-nodesc-highlight"},"stroke-opacity":1,"stroke":"#a52714","stroke-width":1.2,"fill-opacity":0.30196078431372547,"fill":"#a52714"}},{"type":"Feature","geometry":{"type":"Polygon","coordinates":[[[37.258105,49.2298041,0],[37.2505519,49.226441,0],[37.2340724,49.2180322,0],[37.235274,49.2019955,0],[37.2385356,49.1923486,0],[37.246947,49.1778746,0],[37.2696063,49.1749569,0],[37.2694572,49.1716214,0],[37.263203,49.1706831,0],[37.2600176,49.1673456,0],[37.2609093,49.1654114,0],[37.2658212,49.1655427,0],[37.2668258,49.1651904,0],[37.2673425,49.1641024,0],[37.2665407,49.1629348,0],[37.2651206,49.161874,0],[37.263958,49.1606447,0],[37.2655788,49.15589,0],[37.2975922,49.1463637,0],[37.3062666,49.1563857,0],[37.3048966,49.1584778,0],[37.3018096,49.1621976,0],[37.2999335,49.1639989,0],[37.2997861,49.1656373,0],[37.30138,49.1661641,0],[37.3026797,49.1664322,0],[37.3030478,49.1678104,0],[37.3039558,49.1694446,0],[37.3049138,49.1701878,0],[37.3055425,49.170608,0],[37.3056578,49.1707131,0],[37.3057047,49.170927,0],[37.3056925,49.1711304,0],[37.3056522,49.1713319,0],[37.3055891,49.1714853,0],[37.3055361,49.1717058,0],[37.305456,49.1718932,0],[37.3053998,49.1720325,0],[37.30529,49.172256,0],[37.3052041,49.1723804,0],[37.30507,49.1725829,0],[37.3048527,49.1727929,0],[37.3047119,49.1728839,0],[37.3045985,49.172982,0],[37.3044668,49.1732134,0],[37.3044492,49.1733642,0],[37.3044457,49.1736079,0],[37.3045513,49.1737929,0],[37.305086,49.1744899,0],[37.3057994,49.1749336,0],[37.3066068,49.1753378,0],[37.3073539,49.176073,0],[37.3077704,49.1769596,0],[37.307807,49.1777116,0],[37.307718,49.1786627,0],[37.3075448,49.1793627,0],[37.3080161,49.1799932,0],[37.3085522,49.1804348,0],[37.3099789,49.1809641,0],[37.3109498,49.181327,0],[37.3121863,49.1824341,0],[37.3125256,49.183142,0],[37.3124163,49.1841551,0],[37.3121139,49.1848456,0],[37.3116753,49.1856103,0],[37.3109838,49.1860767,0],[37.3100586,49.1865063,0],[37.3089951,49.1867631,0],[37.307562,49.1873263,0],[37.306781,49.1878883,0],[37.3066479,49.1887723,0],[37.3070319,49.1900698,0],[37.307374,49.1907467,0],[37.3077596,49.1923332,0],[37.3074372,49.192832,0],[37.3060529,49.1931375,0],[37.3050603,49.1930658,0],[37.3043924,49.1931842,0],[37.3036292,49.1930751,0],[37.3021533,49.1927962,0],[37.3011149,49.1923622,0],[37.3005743,49.1918787,0],[37.2996817,49.1919454,0],[37.2986346,49.1915862,0],[37.2971883,49.1920095,0],[37.2967543,49.192394,0],[37.2964276,49.1928206,0],[37.296448,49.1930856,0],[37.2964254,49.1933085,0],[37.2962277,49.1936558,0],[37.2961534,49.19401,0],[37.2959074,49.1944098,0],[37.2946927,49.1952477,0],[37.2936554,49.1957946,0],[37.2924894,49.1962994,0],[37.2914502,49.1966254,0],[37.2909351,49.1966989,0],[37.2903342,49.1968461,0],[37.2888428,49.197498,0],[37.2883438,49.1977697,0],[37.2879374,49.1983003,0],[37.2877396,49.1985727,0],[37.2876061,49.198845,0],[37.287755,49.1994037,0],[37.2880403,49.1998799,0],[37.288508,49.2007697,0],[37.2908802,49.2018593,0],[37.2933967,49.2025443,0],[37.294934,49.2034476,0],[37.2960353,49.204467,0],[37.2966216,49.2050098,0],[37.2963904,49.2057286,0],[37.2954486,49.2061932,0],[37.2947739,49.2065726,0],[37.2936426,49.2066327,0],[37.2924761,49.2067889,0],[37.2896788,49.2065806,0],[37.2909578,49.2094037,0],[37.2926704,49.2131842,0],[37.2985888,49.2132078,0],[37.3035811,49.213322,0],[37.3107121,49.2100146,0],[37.3133332,49.2109118,0],[37.3189354,49.2092577,0],[37.328057,49.208949,0],[37.3333568,49.2104906,0],[37.3292263,49.2140649,0],[37.3268175,49.2170295,0],[37.3286146,49.2197136,0],[37.3308248,49.2222924,0],[37.331147,49.2255439,0],[37.3202465,49.2323822,0],[37.3085736,49.240004,0],[37.2950123,49.2384349,0],[37.2823093,49.2354086,0],[37.2807645,49.2343999,0],[37.2787044,49.2337554,0],[37.2774599,49.2333071,0],[37.2758291,49.2333351,0],[37.267203,49.2323823,0],[37.258105,49.2298041,0]]]},"properties":{"name":"Ізюм. Окуповано ","styleUrl":"#poly-A52714-1200-77","styleHash":"bf33a3e","styleMapHash":{"normal":"#poly-A52714-1200-77-normal","highlight":"#poly-A52714-1200-77-highlight"},"description":"У зведенні Генерального Штабу 1.04 говориться, що \"ворог продовжує контролювати місто\".<br><br>En: General State Report 1.04 states that \"the enemy continues to control the city.\"","stroke-opacity":1,"stroke":"#a52714","stroke-width":1.2,"fill-opacity":0.30196078431372547,"fill":"#a52714"}},{"type":"Feature","geometry":{"type":"GeometryCollection","geometries":[{"type":"Polygon","coordinates":[[[32.2487829,46.5885508,0],[32.265722,46.561084,0],[32.3173835,46.5503516,0],[32.2487829,46.5885508,0]]]},{"type":"Polygon","coordinates":[[[32.3173835,46.5503516,0],[32.3987412,46.5694521,0],[32.4667193,46.5765323,0],[32.541564,46.5991832,0],[32.5896294,46.6024855,0],[32.6239619,46.6293695,0],[32.6500546,46.6543549,0],[32.7173462,46.6769732,0],[32.7552624,46.67325,0],[32.7789518,46.6763124,0],[32.8089148,46.6850693,0],[32.8521737,46.7020242,0],[32.9421245,46.7396829,0],[33.0135361,46.7420356,0],[33.0458085,46.7467409,0],[33.0948249,46.7689752,0],[33.1559367,46.7884897,0],[33.2297514,46.786609,0],[33.305626,46.7802615,0],[33.3392718,46.7884896,0],[33.3563085,46.7922473,0],[33.3804708,46.805177,0],[33.4309101,46.8450483,0],[33.4671366,46.850889,0],[33.5610483,46.8614255,0],[33.5890207,46.9795681,0],[33.7890951,47.1974169,0],[33.875195,47.2897163,0],[33.8757809,47.3021324,0],[33.8852931,47.3219949,0],[33.9075001,47.3672081,0],[33.9077325,47.4077669,0],[33.9040526,47.4574828,0],[33.9079616,47.4775019,0],[33.8760264,47.4815522,0],[33.8653908,47.4489267,0],[33.8355418,47.4341563,0],[33.7754883,47.424012,0],[33.660254,47.4157687,0],[33.6232257,47.4260233,0],[33.6177708,47.4464935,0],[33.5988251,47.4853759,0],[33.5775361,47.4964238,0],[33.5409335,47.5089237,0],[33.5258078,47.5074007,0],[33.5171857,47.5055131,0],[33.5206574,47.4772658,0],[33.5646233,47.4852174,0],[33.5686663,47.4592455,0],[33.5778472,47.4601905,0],[33.6050048,47.4124739,0],[33.6930477,47.4037736,0],[33.7205212,47.4065919,0],[33.7644812,47.4131245,0],[33.8620379,47.4205796,0],[33.8577918,47.3460355,0],[33.8103712,47.2766566,0],[33.7130765,47.1864258,0],[33.6298719,47.0886243,0],[33.5266069,46.9925287,0],[33.4206641,47.0535906,0],[33.3049065,47.0669695,0],[33.2728513,47.111956,0],[33.2462197,47.1606618,0],[33.2305165,47.1845178,0],[33.2038189,47.2037083,0],[33.2362641,47.2416186,0],[33.2878455,47.2858754,0],[33.3108957,47.3123862,0],[33.3483683,47.3430794,0],[33.3815075,47.3634325,0],[33.3789352,47.3744771,0],[33.3904415,47.3876134,0],[33.3933646,47.3914502,0],[33.3972288,47.3959256,0],[33.4038412,47.4031896,0],[33.4086581,47.4127237,0],[33.4114186,47.4250444,0],[33.4100624,47.4408573,0],[33.3949689,47.4529543,0],[33.3961739,47.4301723,0],[33.4020987,47.4216837,0],[33.3942917,47.4164469,0],[33.3763905,47.3972063,0],[33.3660536,47.3747102,0],[33.3233594,47.3589795,0],[33.2951134,47.3320739,0],[33.2719849,47.3066131,0],[33.2749626,47.3021662,0],[33.2600891,47.2858447,0],[33.2390276,47.2625267,0],[33.1967048,47.2443258,0],[33.1989956,47.2749714,0],[33.2153525,47.3519281,0],[33.2279905,47.392998,0],[33.2427411,47.404427,0],[33.240328,47.413532,0],[33.239117,47.4249605,0],[33.2361151,47.4461672,0],[33.2222105,47.4447741,0],[33.2230159,47.4245727,0],[33.2236581,47.4145003,0],[33.2217254,47.4073297,0],[33.2187651,47.397835,0],[33.1886612,47.3535516,0],[33.1764412,47.3088,0],[33.1707,47.2448408,0],[33.1580659,47.2212301,0],[33.1583159,47.1907238,0],[33.1750503,47.1564855,0],[33.1860824,47.1066902,0],[33.0680791,47.0252388,0],[32.9767215,46.9110575,0],[32.8723688,46.7767565,0],[32.831152,46.8096424,0],[32.7894414,46.8098815,0],[32.773817,46.8237392,0],[32.7702016,46.8526111,0],[32.7940732,46.903552,0],[32.7927001,46.9860566,0],[32.8905482,47.0602492,0],[32.8781387,47.0910867,0],[32.8338036,47.0994478,0],[32.8276238,47.0685892,0],[32.7877984,47.0606379,0],[32.7596459,47.0671862,0],[32.7597411,47.0422369,0],[32.7350216,46.9157482,0],[32.6883293,46.7936614,0],[32.546671,46.7654978,0],[32.4429871,46.7339758,0],[32.4318886,46.7398072,0],[32.4202499,46.7465659,0],[32.4242487,46.7536356,0],[32.4225576,46.759699,0],[32.4174326,46.7641159,0],[32.4088739,46.7667687,0],[32.3999716,46.7668339,0],[32.3951038,46.7647235,0],[32.3916097,46.7616723,0],[32.3822182,46.7651857,0],[32.3630817,46.7743256,0],[32.3387607,46.7784479,0],[32.3071007,46.8007768,0],[32.2435333,46.7860604,0],[32.2203169,46.7651047,0],[32.1700004,46.7544567,0],[32.198362,46.7281425,0],[32.225383,46.7320141,0],[32.2277411,46.738475,0],[32.252785,46.7412928,0],[32.25072,46.7508143,0],[32.282134,46.7558108,0],[32.2806781,46.7610107,0],[32.324716,46.7672667,0],[32.3732787,46.7407125,0],[32.3063641,46.6367224,0],[32.2332912,46.6082614,0],[32.1246098,46.5853881,0],[32.1389728,46.5582335,0],[32.2487829,46.5885508,0],[32.3173835,46.5503516,0]]]}]},"properties":{"name":"Окуповано","styleUrl":"#poly-A52714-1200-77-nodesc","styleHash":"5f0393c8","styleMapHash":{"normal":"#poly-A52714-1200-77-nodesc-normal","highlight":"#poly-A52714-1200-77-nodesc-highlight"},"stroke-opacity":1,"stroke":"#a52714","stroke-width":1.2,"fill-opacity":0.30196078431372547,"fill":"#a52714"}},{"type":"Feature","geometry":{"type":"Polygon","coordinates":[[[34.2080828,51.1605992,0],[34.2781206,51.1114821,0],[34.3141544,51.1336299,0],[34.4114609,51.0665102,0],[34.6884766,50.9522743,0],[34.7152202,50.9720779,0],[34.3454119,51.1580154,0],[34.3143199,51.2379602,0],[34.3001853,51.2401977,0],[34.2959734,51.1537087,0],[34.2479082,51.1795427,0],[34.2080828,51.1605992,0]]]},"properties":{"name":"Невідомо точно при вихід","styleUrl":"#poly-A52714-1200-77-nodesc","styleHash":"5f0393c8","styleMapHash":{"normal":"#poly-A52714-1200-77-nodesc-normal","highlight":"#poly-A52714-1200-77-nodesc-highlight"},"stroke-opacity":1,"stroke":"#a52714","stroke-width":1.2,"fill-opacity":0.30196078431372547,"fill":"#a52714"}},{"type":"Feature","geometry":{"type":"Polygon","coordinates":[[[34.7152202,50.9720779,0],[34.7585406,50.9662929,0],[34.7846331,50.9792641,0],[34.9274554,50.952453,0],[35.1279559,50.9853161,0],[35.2433123,50.9507227,0],[35.2968707,50.998282,0],[35.2350726,51.0345672,0],[35.0112261,51.0198838,0],[34.8986163,50.9870451,0],[34.8244586,51.0051957,0],[34.8521521,51.0758384,0],[34.9125498,51.063583,0],[34.9851336,51.0725499,0],[35.0139727,51.11395,0],[35.1499285,51.1639256,0],[35.1293292,51.1828678,0],[34.9737227,51.1154851,0],[34.9329485,51.0880793,0],[34.8491778,51.0932546,0],[34.7914996,51.0949795,0],[34.7152202,50.9720779,0]]]},"properties":{"name":"Невідомо точно при вихід","styleUrl":"#poly-A52714-1200-77-nodesc","styleHash":"5f0393c8","styleMapHash":{"normal":"#poly-A52714-1200-77-nodesc-normal","highlight":"#poly-A52714-1200-77-nodesc-highlight"},"stroke-opacity":1,"stroke":"#a52714","stroke-width":1.2,"fill-opacity":0.30196078431372547,"fill":"#a52714"}}]}