{"type":"FeatureCollection","name":"deepstatemap_data_20220410","sourceHistoryId":1649616561,"sourceCreatedAt":"2022-04-10T18:49:21.000Z","crs":{"type":"name","properties":{"name":"urn:ogc:def:crs:OGC:1.3:CRS84"}},"features":[{"type":"Feature","properties":{"controlStatus":"russian_occupied"},"geometry":{"type":"MultiPolygon","coordinates":[[[[29.244774,47.1684368],[29.2476923,47.1639435],[29.2700511,47.151804],[29.275716,47.1483016],[29.2885906,47.1438651],[29.2952854,47.1400119],[29.2968303,47.1313706],[29.2940837,47.1224942],[29.2915088,47.1154855],[29.2935688,47.1092937],[29.3011219,47.1056718],[29.3083594,47.103346],[29.3143676,47.1028786],[29.3196891,47.1032292],[29.3286155,47.1054492],[29.3371986,47.1075523],[29.3457816,47.1057997],[29.3500732,47.1005416],[29.354193,47.0953999],[29.3586562,47.0840629],[29.3602012,47.077166],[29.3650077,47.0714375],[29.366896,47.0699175],[29.3741057,47.062785],[29.3777106,47.0614987],[29.3832038,47.0604462],[29.3895553,47.060797],[29.3924735,47.0590429],[29.3880103,47.0569379],[29.3830321,47.0560023],[29.3802856,47.0524937],[29.3790839,47.048283],[29.3795989,47.0434872],[29.3804572,47.0391588],[29.3837188,47.0360001],[29.3880103,47.0329582],[29.3873237,47.02898],[29.3837188,47.0258206],[29.3778823,47.0257036],[29.3725608,47.0264057],[29.3656943,47.0282779],[29.3627761,47.0317881],[29.3615745,47.0381059],[29.3589995,47.0406796],[29.3545364,47.0392758],[29.3545364,47.0356491],[29.3565963,47.0312031],[29.3591712,47.0267568],[29.3617461,47.0233632],[29.3655227,47.0172778],[29.3689559,47.0135325],[29.3722175,47.0082653],[29.3763373,47.0029976],[29.3761657,46.9963244],[29.3739341,46.9937486],[29.3614028,46.9926948],[29.3462966,46.9922264],[29.3310187,46.992929],[29.3178008,46.9959732],[29.3088744,46.9959732],[29.3083594,46.9904701],[29.3081878,46.9849664],[29.3040679,46.98239],[29.2990897,46.9853177],[29.3006347,46.9896504],[29.3033813,46.9933973],[29.3061278,46.9980806],[29.3021796,47.0007733],[29.2953132,46.9984318],[29.2920516,46.9950365],[29.291365,46.988011],[29.2930816,46.9800477],[29.2987464,46.97548],[29.3054412,46.9714975],[29.3100761,46.9662262],[29.312136,46.9642346],[29.3155692,46.9598999],[29.3224357,46.9524011],[29.3299888,46.9495887],[29.3402885,46.9430261],[29.3489595,46.9385073],[29.3605445,46.9345872],[29.3722175,46.933415],[29.3811439,46.9345872],[29.3928168,46.9378691],[29.4003699,46.9444324],[29.4065497,46.9495887],[29.4141028,46.9556819],[29.4199393,46.9615401],[29.4271491,46.9655233],[29.4384788,46.965289],[29.4494651,46.9617744],[29.4518684,46.9584939],[29.4580482,46.9526354],[29.463198,46.9502918],[29.4714377,46.9505262],[29.4752143,46.9441981],[29.4764159,46.9363454],[29.4755576,46.9298984],[29.4736693,46.9253263],[29.4729827,46.9193469],[29.4680045,46.9106698],[29.464743,46.9062134],[29.4480918,46.9018739],[29.4546149,46.8908478],[29.4635413,46.8881495],[29.4673179,46.8809927],[29.4848273,46.8843952],[29.4846557,46.8762991],[29.4841407,46.8706664],[29.4837974,46.8649156],[29.4884322,46.8555253],[29.4891832,46.8537645],[29.4792269,46.8531188],[29.4744633,46.8469846],[29.4706867,46.8508002],[29.4692276,46.8536177],[29.4681118,46.8562003],[29.4657086,46.8572568],[29.4593571,46.8576089],[29.4550655,46.855496],[29.4529198,46.8547329],[29.4484566,46.8544395],[29.4379852,46.8598392],[29.4333504,46.8614825],[29.4321488,46.8596044],[29.4357536,46.8529133],[29.4357536,46.8493914],[29.4103478,46.8466911],[29.4048546,46.8462214],[29.4041679,46.8328351],[29.4050263,46.8158038],[29.3978165,46.8185057],[29.3964432,46.8068749],[29.3969582,46.8046425],[29.4069145,46.8033499],[29.4084595,46.7766701],[29.4024513,46.774554],[29.4014214,46.7584451],[29.4120644,46.7590331],[29.414296,46.7551521],[29.4582413,46.7592683],[29.4621895,46.773731],[29.4697426,46.7716148],[29.4754074,46.7803144],[29.4839905,46.7824303],[29.4875954,46.781725],[29.4891403,46.7781984],[29.5059631,46.7799618],[29.5081947,46.7846637],[29.5104263,46.7883075],[29.5123146,46.7888951],[29.5148895,46.784076],[29.5251892,46.7805495],[29.5349739,46.777258],[29.5418404,46.7781984],[29.5340298,46.7746716],[29.5366905,46.7709093],[29.5410679,46.767676],[29.5499943,46.7669705],[29.5586632,46.7557402],[29.5598648,46.7420961],[29.5567749,46.7353903],[29.5586632,46.7242123],[29.5562599,46.7173867],[29.5629547,46.7142089],[29.5825241,46.7138559],[29.5742844,46.72433],[29.5718811,46.7325666],[29.5727394,46.7403315],[29.5811508,46.7432724],[29.5935104,46.7431548],[29.6070717,46.7409197],[29.6273277,46.7412726],[29.6426056,46.7431548],[29.6573685,46.7443311],[29.6573685,46.7358609],[29.6693848,46.7330373],[29.6697281,46.7212703],[29.6635483,46.7123258],[29.6669815,46.7036151],[29.6583126,46.7014373],[29.6486137,46.7010841],[29.6483563,46.6953741],[29.6549652,46.6953152],[29.6511887,46.6910764],[29.6599434,46.6897812],[29.6547936,46.6856597],[29.6527336,46.6822446],[29.6551369,46.6767093],[29.6635483,46.6752959],[29.6676682,46.6754137],[29.6741913,46.6763559],[29.6779678,46.6755315],[29.6814011,46.673058],[29.6858643,46.6717623],[29.6912716,46.6727635],[29.6943615,46.6741769],[29.6952198,46.6790059],[29.6993397,46.678417],[29.7013996,46.6760615],[29.7008846,46.6708789],[29.6984814,46.666756],[29.7000263,46.6649889],[29.7063778,46.6642821],[29.7091244,46.6620437],[29.7147892,46.6589806],[29.7182224,46.6576846],[29.722514,46.6589806],[29.7268055,46.6613369],[29.7254322,46.6652246],[29.721999,46.6681696],[29.7244022,46.6718212],[29.7292088,46.6718212],[29.7357319,46.6700543],[29.7369335,46.667345],[29.7400234,46.6646355],[29.7434567,46.6659314],[29.7451733,46.6682874],[29.754958,46.6688764],[29.7619961,46.668523],[29.7649143,46.6651068],[29.7592495,46.656742],[29.7547863,46.6514397],[29.7561596,46.6473153],[29.7654293,46.6516754],[29.7734974,46.6556816],[29.774699,46.6502613],[29.7643993,46.6479045],[29.7595928,46.645312],[29.7673176,46.6376513],[29.7729824,46.6411871],[29.7786472,46.6364727],[29.7781323,46.633408],[29.7649143,46.6337617],[29.7585629,46.6338795],[29.7515247,46.6306969],[29.7597645,46.6259815],[29.7630261,46.6227984],[29.7626827,46.619733],[29.7585629,46.6212657],[29.7546146,46.6237415],[29.7482632,46.6262173],[29.7424267,46.625392],[29.7425984,46.6232699],[29.7455166,46.6204404],[29.7522114,46.6172569],[29.7558163,46.615842],[29.7504948,46.614427],[29.7479199,46.614427],[29.7496365,46.6117149],[29.7472332,46.6079413],[29.7420834,46.6061724],[29.7374485,46.6098282],[29.7338436,46.6057006],[29.731097,46.6007472],[29.7232006,46.6021625],[29.722514,46.5990959],[29.731097,46.5948496],[29.7389935,46.5931982],[29.7513531,46.5898952],[29.7602795,46.5901311],[29.7671459,46.5894233],[29.7664593,46.5856481],[29.7760723,46.5814008],[29.7843121,46.578569],[29.7925518,46.5823447],[29.795985,46.5804569],[29.7983883,46.5851762],[29.7946117,46.5896592],[29.795985,46.5948496],[29.8042248,46.5922545],[29.806628,46.5870639],[29.8107479,46.5894233],[29.807658,46.5943778],[29.8055981,46.6016907],[29.7977017,46.6021625],[29.8018215,46.6059365],[29.8090313,46.6040495],[29.8176144,46.6014548],[29.8134945,46.5962651],[29.8138378,46.5856481],[29.8207043,46.590603],[29.8237942,46.5969728],[29.8217342,46.6026343],[29.828944,46.6016907],[29.8306606,46.5974446],[29.8323773,46.5953215],[29.8399304,46.5969728],[29.8368404,46.5891874],[29.828944,46.586356],[29.8258541,46.5817547],[29.8311756,46.579631],[29.8394154,46.5817547],[29.8457668,46.5860021],[29.8495434,46.5891874],[29.8531483,46.586474],[29.8533199,46.5822267],[29.8560665,46.579513],[29.8625897,46.578333],[29.8713444,46.578687],[29.8718594,46.5822267],[29.8713444,46.5875358],[29.8770092,46.5861201],[29.8780392,46.5825806],[29.8752926,46.578333],[29.8685978,46.5760911],[29.8625897,46.5737311],[29.861388,46.571253],[29.8670528,46.5706629],[29.8734043,46.5704269],[29.8716877,46.5686567],[29.8596714,46.5696008],[29.8598431,46.5666504],[29.8631046,46.564408],[29.8696278,46.5626376],[29.8794125,46.5624016],[29.883189,46.5638179],[29.8897122,46.5594508],[29.893832,46.556854],[29.8964069,46.5526043],[29.8922871,46.5500072],[29.8869656,46.5524863],[29.8795841,46.5557916],[29.8795841,46.5588606],[29.8718594,46.5580344],[29.8739193,46.5504794],[29.8761509,46.5462293],[29.8778675,46.5426873],[29.8816441,46.5417427],[29.8845623,46.5462293],[29.8876522,46.5474099],[29.9455021,46.5549653],[29.9479054,46.5615754],[29.9386356,46.5596869],[29.9427555,46.5667684],[29.949622,46.5684207],[29.9376057,46.5703089],[29.9345158,46.5804569],[29.936919,46.5835245],[29.9352024,46.5884795],[29.9393223,46.5894233],[29.9444721,46.5842324],[29.9633549,46.5837605],[29.9681614,46.5990959],[29.9585484,46.6094744],[29.9544285,46.6182002],[29.9530552,46.6271604],[29.9558018,46.6387121],[29.9479054,46.6434264],[29.9489353,46.6521467],[29.9544285,46.6582737],[29.958205,46.6707611],[29.9623249,46.682068],[29.969878,46.6860719],[29.9678181,46.700672],[29.9659784,46.712263],[29.96821,46.7212076],[29.969755,46.72968],[29.9707849,46.736857],[29.9723299,46.7409746],[29.9742182,46.7450918],[29.974309,46.7536004],[29.9661551,46.7558938],[29.9655543,46.7595983],[29.9664126,46.771592],[29.9429415,46.7950167],[29.9343584,46.8060626],[29.9625108,46.818046],[29.9783037,46.8166363],[29.9803636,46.8201604],[29.9714372,46.8248588],[29.9676607,46.8319057],[29.958391,46.8370729],[29.9491213,46.8427092],[29.9250887,46.8349591],[29.9316118,46.8286173],[29.9062059,46.8192207],[29.8825166,46.850693],[29.8928163,46.8530409],[29.8825166,46.8882477],[29.8454378,46.8812082],[29.850931,46.8746371],[29.7486208,46.8614926],[29.7348543,46.9206888],[29.7184084,46.9182725],[29.7128816,46.9338188],[29.6991823,46.9239003],[29.6476839,46.9206175],[29.6366976,46.957186],[29.5694063,46.9403113],[29.5536134,46.957186],[29.6016786,46.9656213],[29.6003053,47.0414794],[29.6284578,47.0456906],[29.6120304,47.0998224],[29.5502323,47.095148],[29.5474857,47.0736407],[29.5145268,47.1110392],[29.4884342,47.113843],[29.4939274,47.1278599],[29.5804447,47.1372025],[29.5516056,47.2538461],[29.5982975,47.2575744],[29.5782991,47.367164],[29.4856876,47.3609318],[29.4815678,47.3274326],[29.4856876,47.3069505],[29.430756,47.2911179],[29.4183964,47.3069505],[29.408011,47.296427],[29.3970247,47.341114],[29.4074101,47.3637224],[29.3868107,47.3823229],[29.3428654,47.3711634],[29.3140263,47.4483016],[29.2426151,47.4185749],[29.2426151,47.464087],[29.1863102,47.4260082],[29.1849369,47.4464442],[29.1986698,47.4631586],[29.1588444,47.4520162],[29.1519779,47.4668722],[29.1835636,47.4733704],[29.1904301,47.499355],[29.1849369,47.5188351],[29.1464848,47.5058492],[29.1148991,47.5512857],[29.1657108,47.5707465],[29.1904301,47.5707465],[29.1863102,47.5911262],[29.2034715,47.5969504],[29.2003816,47.6034324],[29.2161745,47.6122283],[29.2106813,47.6293527],[29.2196077,47.6272703],[29.2336839,47.642308],[29.2072481,47.6427706],[29.2110246,47.6587289],[29.219951,47.6584976],[29.2196077,47.6802301],[29.2312807,47.6843906],[29.2028008,47.7194487],[29.215847,47.7383851],[29.2515526,47.7522367],[29.2803917,47.8039167],[29.2481194,47.8122176],[29.2316399,47.7979208],[29.2165337,47.798382],[29.1973076,47.818673],[29.2051277,47.8377647],[29.2254601,47.8546238],[29.239193,47.8661413],[29.2784185,47.886026],[29.217907,47.8859453],[29.2234977,47.8901741],[29.2185195,47.8955839],[29.2143997,47.8925913],[29.212683,47.8875265],[29.2099365,47.8854544],[29.2013534,47.8844184],[29.1977485,47.8963896],[29.1846835,47.9660878],[29.1771304,47.9656281],[29.1750704,47.9913683],[29.1249453,47.9941254],[29.1304385,47.9817172],[29.1070925,47.9835557],[29.0878665,47.9780401],[29.0995394,47.9610302],[29.081,47.972524],[29.0871798,47.9467744],[29.0658938,47.9430948],[29.0446078,47.9458545],[29.026755,47.9458545],[29.0116488,47.9545926],[28.9986025,47.9596508],[28.9766299,47.9706852],[28.9622103,47.9784998],[28.9271914,47.9612601],[28.8784396,48.0003284],[28.8880526,48.0058415],[28.8835894,48.0088276],[28.8890826,48.0115838],[28.8938891,48.0088276],[28.9021289,48.0102057],[28.9010989,48.0129618],[28.8870226,48.0141101],[28.8815295,48.0111244],[28.8677966,48.0173253],[28.8695132,48.0196218],[28.8595568,48.0219182],[28.8547503,48.0189329],[28.8564669,48.0278882],[28.8379627,48.0356595],[28.8544422,48.0618237],[28.8420826,48.068248],[28.8516956,48.0728363],[28.8407093,48.0769654],[28.8565022,48.1012744],[28.8448292,48.1251136],[28.8283497,48.1278636],[28.8132435,48.1237386],[28.8050037,48.1333631],[28.7919575,48.1274053],[28.7741047,48.1260303],[28.7548786,48.1374873],[28.7274128,48.1310717],[28.7033802,48.1274053],[28.6889607,48.1241969],[28.678661,48.141153],[28.6841541,48.1480255],[28.6436421,48.1439021],[28.6477619,48.1530648],[28.6264759,48.1571874],[28.6086231,48.1581035],[28.5928303,48.1718431],[28.5756641,48.1663477],[28.5703035,48.1738358],[28.5433918,48.1663477],[28.5351521,48.1571874],[28.5262257,48.154439],[28.5071321,48.153684],[28.5200459,48.1379456],[28.5001331,48.1260303],[28.4997898,48.1209884],[28.4956338,48.1191235],[28.4946789,48.1195604],[28.4945287,48.119367],[28.4918894,48.1188442],[28.4987773,48.1152413],[28.4995311,48.1154671],[28.5091442,48.1216554],[28.5218471,48.1209679],[28.5410732,48.1182175],[28.5640758,48.1101949],[28.5784954,48.1044636],[28.5939449,48.0980439],[28.611111,48.0955216],[28.6255306,48.0925406],[28.632397,48.0881835],[28.6354869,48.0796974],[28.633427,48.0702922],[28.621754,48.0643271],[28.6128276,48.064786],[28.6059612,48.0774036],[28.5990947,48.0760273],[28.5960048,48.0668509],[28.5891384,48.056755],[28.5884517,48.0482637],[28.5750621,48.0425256],[28.5530895,48.0393119],[28.5441631,48.0358685],[28.5427898,48.0271442],[28.5362667,48.021863],[28.5283702,48.0129066],[28.5318035,48.0034893],[28.5390132,47.9984354],[28.5465663,47.9972867],[28.5599559,47.9922321],[28.5750621,47.9984354],[28.578152,48.0078536],[28.5877651,48.0172702],[28.590855,48.0276034],[28.5932582,48.0349503],[28.6087127,48.0370175],[28.6207241,48.0298994],[28.6368602,48.0276034],[28.6509365,48.0257665],[28.6773723,48.0276034],[28.7024349,48.0234704],[28.7048381,48.0129066],[28.7027782,48.0032596],[28.7141078,47.9959082],[28.730244,47.9812024],[28.7460369,47.9761463],[28.7563365,47.9754568],[28.7625163,47.9784446],[28.773846,47.9848792],[28.7882656,47.9864878],[28.7944454,47.9812024],[28.7927288,47.9713195],[28.8013118,47.963274],[28.8157314,47.9506284],[28.8298076,47.9441895],[28.8353008,47.9347596],[28.8284343,47.925558],[28.8201946,47.9117527],[28.8250011,47.9016264],[28.8356441,47.8974832],[28.8528102,47.897253],[28.8730663,47.8947209],[28.8867992,47.890347],[28.9080852,47.8857425],[28.925938,47.8843611],[28.9424175,47.8848216],[28.9503139,47.8811376],[28.9571804,47.8811376],[28.9702266,47.8783744],[28.9815563,47.876302],[28.9901393,47.8737689],[28.9987224,47.8701992],[29.0061038,47.8658233],[29.0191501,47.8559184],[29.0251583,47.8486612],[29.02327,47.841864],[29.0177768,47.8323002],[29.0107387,47.8253855],[29.0078205,47.8160493],[29.0016406,47.8087866],[28.9937442,47.8002545],[28.9884227,47.7905677],[28.9870494,47.782494],[28.9834445,47.7688813],[28.9803546,47.757573],[28.9810413,47.7455698],[28.9734882,47.7303309],[28.967995,47.7199382],[28.9721149,47.7044608],[28.979668,47.6924453],[28.9861911,47.6718738],[28.991341,47.6584634],[28.9958042,47.6503692],[28.9927143,47.6390352],[28.9855045,47.6263105],[28.9831012,47.6133512],[28.9937442,47.6013147],[29.0088504,47.5902017],[29.0270465,47.5723695],[29.0273899,47.5512874],[29.0208667,47.536687],[29.0253299,47.518373],[29.0414661,47.5102571],[29.0606922,47.4995886],[29.0768283,47.4928617],[29.0967411,47.4831177],[29.1080707,47.4712834],[29.1180271,47.4585179],[29.1060108,47.4450527],[29.0909046,47.4369255],[29.0788883,47.4241516],[29.0778583,47.4141626],[29.0915912,47.4048688],[29.1077274,47.3927844],[29.1321033,47.3816271],[29.1492694,47.3695374],[29.1588825,47.3590729],[29.1640323,47.3474433],[29.1605991,47.337905],[29.1468662,47.3306921],[29.13176,47.3288305],[29.1276401,47.3255726],[29.1228336,47.3167287],[29.1245502,47.3102111],[29.1338199,47.3090472],[29.1475528,47.3104439],[29.163689,47.3167287],[29.1726154,47.3207435],[29.1822284,47.325398],[29.1957038,47.3292377],[29.2094367,47.3331353],[29.2205947,47.3256889],[29.2394775,47.3395336],[29.2484039,47.346978],[29.2616218,47.3526769],[29.2707199,47.3629101],[29.2829078,47.3724438],[29.288401,47.37814],[29.2983573,47.3841842],[29.3129486,47.3799998],[29.3227333,47.3695374],[29.3235916,47.360352],[29.2957824,47.3481411],[29.2727798,47.3383703],[29.2532104,47.334764],[29.224028,47.3137028],[29.2075485,47.296708],[29.1946739,47.3039256],[29.1744178,47.2963588],[29.1596549,47.2939139],[29.1455787,47.2930989],[29.1277259,47.2880922],[29.1143363,47.2819205],[29.1272109,47.2733022],[29.1342541,47.2674838],[29.1418072,47.2609602],[29.1467854,47.2540863],[29.1478153,47.2481437],[29.1497036,47.2446478],[29.1567417,47.2394034],[29.1612049,47.2329929],[29.1632648,47.227048],[29.1670414,47.2198199],[29.1706463,47.2152726],[29.179401,47.214573],[29.1861516,47.2155202],[29.187071,47.2160354],[29.18701,47.2131299],[29.1897565,47.2077658],[29.1911298,47.2014681],[29.195593,47.1944698],[29.2007429,47.1895704],[29.2093259,47.1821039],[29.2223722,47.17697],[29.217909,47.1650669],[29.2337018,47.1526941],[29.2405683,47.159231],[29.2409116,47.1711355],[29.2411156,47.1714053],[29.244774,47.1684368]],[[29.1870743,47.2161906],[29.187071,47.2160354],[29.1872206,47.2161193],[29.1870743,47.2161906]],[[29.1872206,47.2161193],[29.1879112,47.2157826],[29.188748,47.2138003],[29.1893918,47.2119346],[29.1899711,47.2100835],[29.1904217,47.2080281],[29.1907436,47.2065413],[29.1937047,47.1991792],[29.1957218,47.196963],[29.1979534,47.1943969],[29.2003137,47.1921806],[29.2044765,47.1880976],[29.2062789,47.1868143],[29.2167503,47.1800766],[29.2222435,47.1785306],[29.2264492,47.1769846],[29.2394525,47.1727546],[29.2411156,47.1714053],[29.2532712,47.1874706],[29.2433149,47.2000685],[29.249838,47.2012348],[29.2601377,47.1954029],[29.2852003,47.2038006],[29.2810804,47.2117306],[29.2954999,47.239476],[29.3126661,47.2397091],[29.3305189,47.2571882],[29.3442518,47.2592853],[29.3610746,47.2849099],[29.3428785,47.2914305],[29.3092329,47.2662751],[29.3020231,47.2674399],[29.2941267,47.2604503],[29.2776472,47.267207],[29.2608243,47.254858],[29.250868,47.2634793],[29.2385084,47.2618483],[29.2312986,47.2529938],[29.2191106,47.2518286],[29.2141325,47.2425062],[29.2155057,47.2372616],[29.197653,47.2307343],[29.2024595,47.2244393],[29.1931039,47.2197759],[29.1895849,47.2174441],[29.1872206,47.2161193]]],[[[38.9330644,48.7482313],[38.9361543,48.7437602],[38.9317769,48.7364584],[38.9446515,48.7354394],[38.9571829,48.7394585],[38.9595003,48.747156],[38.979928,48.743647],[38.9882536,48.7346469],[38.9965867,48.7243805],[38.9977884,48.7197373],[38.9943476,48.715849],[38.9888619,48.715207],[38.9831971,48.7141876],[38.9837904,48.7110352],[38.9955492,48.7124511],[38.9977884,48.7097701],[38.9965868,48.706485],[38.998475,48.7011605],[39.0018149,48.697384],[39.0137454,48.6960244],[39.0154725,48.6894886],[39.0122079,48.6834834],[39.0183832,48.6798745],[39.0199357,48.6766818],[39.0199357,48.6720342],[39.0242272,48.6693135],[39.0273171,48.6627379],[39.0223389,48.6616041],[39.0180474,48.6629646],[39.009633,48.6626256],[39.0123721,48.658336],[39.0190699,48.6568608],[39.0286829,48.6534589],[39.0362359,48.6481287],[39.0451699,48.6474292],[39.0540963,48.6483365],[39.0655901,48.6502835],[39.0714341,48.652646],[39.0793305,48.6515119],[39.0879136,48.6517388],[39.0982133,48.6510583],[39.1047364,48.6517388],[39.1108201,48.6560115],[39.1196634,48.6601491],[39.124649,48.6613206],[39.1378595,48.6604893],[39.1382104,48.6655723],[39.1390687,48.6684633],[39.1425802,48.6734703],[39.1470508,48.6769651],[39.1597464,48.6768709],[39.169281,48.6805922],[39.1772558,48.6849746],[39.1810324,48.6925672],[39.1844731,48.697817],[39.1873913,48.7006494],[39.1898729,48.7020847],[39.1930562,48.7069936],[39.1949369,48.7074658],[38.9665395,48.7751951],[38.9760489,48.9240605],[38.7939462,48.9035271],[38.7425698,48.8383084],[38.7149182,48.8149605],[38.7173214,48.8002634],[38.7113671,48.7783257],[38.6917155,48.7293629],[38.7535137,48.7184915],[38.7670674,48.71432],[38.7862079,48.7136422],[38.8084379,48.7134138],[38.8300673,48.7170382],[38.8360755,48.7232671],[38.8471476,48.7429112],[38.8561599,48.7504951],[38.8728111,48.753268],[38.8920372,48.7508912],[38.9047401,48.7506082],[38.9198464,48.7456279],[38.9330644,48.7482313]]],[[[33.6895524,46.2051962],[33.7407637,46.2084487],[33.7421104,46.2083299],[33.7378406,46.2005747],[33.7278118,46.2009757],[33.7203949,46.1997502],[33.7177182,46.2024641],[33.7129463,46.2016824],[33.71571,46.1979643],[33.7112546,46.193492],[33.7097972,46.1901163],[33.713146,46.1862645],[33.7108304,46.1838399],[33.7160664,46.1757094],[33.7197659,46.1739455],[33.7257348,46.174014],[33.7299192,46.1709572],[33.7292637,46.1690726],[33.7261891,46.1667043],[33.7253384,46.1649261],[33.7262858,46.1616592],[33.7265868,46.1578857],[33.72811,46.1551668],[33.7350502,46.1498824],[33.735601,46.1471215],[33.7475131,46.1378538],[33.7495382,46.1374606],[33.7545527,46.1404385],[33.8239473,46.1869511],[34.0204777,46.1327603],[34.1222402,46.1077589],[34.2198542,46.0752287],[34.4199342,46.0251892],[34.581571,45.9867943],[34.6496961,45.9716357],[34.7008789,45.9590612],[34.8396735,45.8734958],[34.815525,45.8354769],[34.8247422,45.8109669],[34.8670648,45.8289354],[34.8703794,45.8465179],[34.8747888,45.8553043],[34.8852353,45.863042],[34.9000715,45.8578221],[34.9349618,45.8051894],[34.9400235,45.787008],[34.9453002,45.7800712],[34.9551472,45.7671437],[34.9493387,45.7628178],[34.9582138,45.7599193],[34.9685965,45.7625968],[34.9770477,45.7651671],[34.8918409,45.8984474],[34.8521271,46.0088544],[34.8342939,46.1151664],[34.828973,46.2038097],[34.8992236,46.2379262],[35.0366537,46.2665039],[35.3181707,46.3348031],[35.4344756,46.4150752],[35.6143006,46.4994549],[35.7699819,46.6015489],[35.9360684,46.6582322],[36.0830917,46.6581318],[36.1895283,46.6666684],[36.2286868,46.6501439],[36.2691733,46.6053201],[36.3867767,46.7166726],[36.4954556,46.7472464],[36.6152407,46.7730012],[36.6468319,46.7803113],[36.7052081,46.7772605],[36.7460651,46.7652589],[36.780722,46.7485413],[36.8101741,46.7276278],[36.8217547,46.701533],[36.8009817,46.7067814],[36.7903356,46.6744379],[36.7779831,46.6632878],[36.7606545,46.6654469],[36.7419989,46.6369988],[36.7589206,46.6182938],[36.8023949,46.6604397],[36.8376925,46.7053996],[36.8454807,46.7237983],[36.8553278,46.7417216],[36.8681585,46.7653292],[36.8855916,46.789022],[36.9039953,46.8053733],[36.9291714,46.8281987],[36.9585394,46.8472643],[36.9927169,46.8620972],[37.0189882,46.866505],[37.2352809,46.9507065],[37.2968463,46.9269649],[37.3185542,46.8959368],[37.2921844,46.8742922],[37.2882744,46.8702775],[37.3073663,46.8655588],[37.4810991,47.0319678],[37.4890465,47.078197],[37.5258631,47.1036115],[37.5397291,47.1429766],[37.542621,47.181407],[37.569049,47.1862314],[37.6215489,47.1610131],[37.6613532,47.1280983],[37.603045,47.0988387],[37.6066137,47.0877711],[37.6296409,47.0951513],[37.6979797,47.0796056],[37.7677602,47.089906],[37.8148639,47.0894884],[37.8176104,47.1011748],[37.8163369,47.109753],[37.8180535,47.1190987],[37.8256066,47.1333479],[37.8297265,47.1461922],[37.8365929,47.1569323],[37.844146,47.1655695],[37.8499825,47.1742053],[37.8513558,47.198938],[37.8472359,47.2138654],[37.8413995,47.2269234],[37.833503,47.249301],[37.8341897,47.2760952],[37.8338464,47.2854117],[37.8300698,47.2958908],[37.8276665,47.3026429],[37.8348763,47.3082302],[37.8317864,47.3149807],[37.8245766,47.3214977],[37.8273232,47.3284792],[37.8279101,47.3355277],[37.8292834,47.3425074],[37.8444894,47.3419742],[37.856849,47.3436027],[37.8612124,47.3478578],[37.8591525,47.3543707],[37.8486092,47.3501161],[37.8376229,47.3524422],[37.8417428,47.3584893],[37.8515994,47.3655338],[37.841643,47.3690218],[37.8383096,47.3780216],[37.8503258,47.3842983],[37.856849,47.3928985],[37.855819,47.403124],[37.8637154,47.4265885],[37.8784784,47.4416839],[37.8925547,47.4697729],[37.8194267,47.5463034],[37.8084403,47.5618278],[37.7823477,47.5859162],[37.7504186,47.6104564],[37.727416,47.6146225],[37.7009801,47.6442384],[37.6869038,47.6539524],[37.6656178,47.6583462],[37.6433017,47.6599649],[37.6316288,47.6585775],[37.6154926,47.651871],[37.6058795,47.6463201],[37.5896395,47.6410083],[37.5746371,47.6437757],[37.5694872,47.6527961],[37.5736071,47.6632022],[37.5832201,47.6768426],[37.5948931,47.6858572],[37.6088657,47.6997311],[37.611716,47.7096575],[37.611716,47.7246715],[37.6127016,47.7322553],[37.6188812,47.7377968],[37.6252773,47.7423363],[37.6355977,47.7431156],[37.6494334,47.7509552],[37.6525231,47.7578794],[37.643254,47.8083994],[37.6342622,47.838423],[37.6330023,47.8460097],[37.6348905,47.8525768],[37.6348904,47.8558021],[37.6355771,47.860179],[37.6389066,47.8677882],[37.640944,47.8706227],[37.6424889,47.8737318],[37.6440338,47.8809854],[37.5656693,47.7896373],[37.4513802,47.7682383],[37.3889914,47.7478267],[37.3574541,47.749386],[37.3360605,47.7502369],[37.319116,47.7520082],[37.2611794,47.7520673],[37.2198427,47.7600496],[37.1427844,47.766155],[37.0825515,47.7835327],[36.9900001,47.79763],[36.9791819,47.7997342],[36.9674651,47.8017594],[36.9602118,47.7973266],[36.9752309,47.793074],[36.9741129,47.7738803],[36.9654424,47.7610272],[36.9558272,47.7622044],[36.9534419,47.7623173],[36.951057,47.7534292],[36.9411394,47.745346],[36.9382005,47.7212075],[36.9288253,47.7156024],[36.9232286,47.7079179],[36.8445799,47.710891],[36.8390195,47.7295281],[36.8258227,47.7524605],[36.8364857,47.8037809],[36.8200231,47.8054199],[36.8052767,47.8049814],[36.7953521,47.8077924],[36.7921045,47.8076835],[36.7916037,47.8043463],[36.7952364,47.7989402],[36.7877398,47.7961995],[36.7809882,47.7888734],[36.7904857,47.7804498],[36.7991779,47.7712165],[36.7964796,47.7618658],[36.7844286,47.7588058],[36.7809623,47.7506676],[36.8202041,47.6796947],[36.6837635,47.6626204],[36.5548938,47.6726743],[36.539154,47.621191],[36.4341806,47.6049894],[36.3679683,47.631198],[36.120171,47.5480049],[35.8124223,47.55104],[35.7654746,47.5403035],[35.7220434,47.5652067],[35.6805864,47.5600425],[35.5992997,47.551619],[35.4091474,47.5426762],[35.3946627,47.5205651],[35.2942106,47.44745],[35.2645654,47.4541369],[35.2707678,47.471615],[35.265981,47.4729057],[35.2488776,47.4672309],[35.2022915,47.4446113],[35.1483113,47.445294],[35.0771591,47.4529096],[35.0586487,47.4469957],[35.0442631,47.4373645],[35.0161971,47.4111308],[34.9683437,47.3888413],[34.9280574,47.3923437],[34.8805332,47.408514],[34.8615646,47.4204922],[34.8719899,47.4362367],[34.8714315,47.4491942],[34.8595748,47.4508616],[34.8248539,47.4644103],[34.7897248,47.4654981],[34.7468745,47.4927306],[34.7353254,47.4905702],[34.7086344,47.4901894],[34.6860624,47.4925871],[34.6798516,47.5103383],[34.6591351,47.5263506],[34.6437415,47.5416799],[34.6280309,47.5454374],[34.5552786,47.4988788],[34.4097775,47.4996834],[34.3906093,47.5059926],[34.3634542,47.4934979],[34.34867,47.4735765],[34.338344,47.4448677],[34.295758,47.4282951],[34.262812,47.4260343],[34.1264991,47.4151305],[34.0837571,47.4221828],[34.0588661,47.4180747],[34.0395751,47.4021943],[33.9874547,47.226306],[33.9166814,47.1633177],[33.8638587,47.1423051],[33.8404469,47.0981315],[33.8019775,47.0586238],[33.7224099,47.0169906],[33.7083154,46.9996555],[33.7011069,46.9626424],[33.6949441,46.9209355],[33.678107,46.9005327],[33.6573358,46.9032299],[33.6406865,46.8946642],[33.6382903,46.8812899],[33.6482522,46.8735474],[33.6203002,46.8235956],[33.5559307,46.812666],[33.513875,46.818856],[33.475937,46.8156341],[33.3893282,46.7671665],[33.3563041,46.7920139],[33.3474545,46.789736],[33.353533,46.7843966],[33.371453,46.7685154],[33.2863131,46.7485933],[33.2567927,46.7552972],[33.2234983,46.7671449],[33.1984364,46.7686374],[33.1435809,46.7599592],[33.0011696,46.7179043],[32.9210717,46.7117331],[32.844876,46.6850914],[32.7723323,46.6683442],[32.718709,46.6656893],[32.701464,46.6626671],[32.659008,46.6499968],[32.5538255,46.5475863],[32.5158849,46.535963],[32.4179407,46.4853242],[32.3308639,46.4673464],[31.8607262,46.5155751],[31.8076795,46.4833006],[31.9482061,46.4395736],[31.9705696,46.4430965],[32.0084394,46.4557845],[32.0442764,46.424362],[32.0595249,46.3756975],[31.9435968,46.342538],[31.8383148,46.335374],[31.7426898,46.3186399],[31.7796209,46.2622631],[31.8014172,46.2656771],[32.247461,46.124245],[32.534363,46.0650206],[32.7098616,46.1024475],[32.9123093,46.1019529],[33.1772138,46.1201098],[33.2988557,46.0698046],[33.4285253,46.0269836],[33.5144787,46.0268673],[33.4963625,46.0699214],[33.5634111,46.0743766],[33.5244618,46.1153326],[33.5570005,46.1218879],[33.5734077,46.1253447],[33.6895524,46.2051962]]],[[[38.355341,49.0541261],[38.3448782,49.0470349],[38.3403623,49.0426207],[38.3384519,49.0385873],[38.3344555,49.0328516],[38.330918,49.0304024],[38.3281413,49.0293108],[38.3315352,49.024416],[38.3377475,49.0177882],[38.337978,49.0168383],[38.3386376,49.0160011],[38.3397385,49.0158683],[38.3409253,49.0164673],[38.3430414,49.0177215],[38.3433256,49.0190479],[38.3464689,49.0197304],[38.3494412,49.0193153],[38.3530731,49.0192906],[38.3546879,49.0192377],[38.3563811,49.0205853],[38.3605205,49.0189215],[38.3734758,49.0171128],[38.3724764,49.0135383],[38.3852978,49.0113145],[38.3834413,49.0051496],[38.3851418,49.0051109],[38.3913648,49.0030006],[38.3932208,49.0029654],[38.3944761,49.0033243],[38.3958012,49.0063321],[38.3947232,49.0074255],[38.393559,49.0095048],[38.3931391,49.0111648],[38.3926333,49.0120366],[38.3910546,49.0159766],[38.3937843,49.0193259],[38.396343,49.0299923],[38.4068499,49.0361959],[38.355341,49.0541261]]],[[[36.3433079,50.0860841],[36.355204,50.0836584],[36.3764899,50.0723117],[36.397261,50.0676841],[36.4042977,50.0752992],[36.4032677,50.0815784],[36.4055594,50.0899831],[36.4113959,50.0995639],[36.4192923,50.1085923],[36.4223822,50.1176191],[36.4287337,50.1297254],[36.4330252,50.1388582],[36.4318236,50.1483192],[36.4316519,50.1544789],[36.4272647,50.1596073],[36.4155192,50.1625742],[36.3997229,50.1575584],[36.3851317,50.1491992],[36.3746603,50.1436989],[36.3674506,50.1373178],[36.3686522,50.1319262],[36.3672789,50.1258737],[36.3583525,50.1161881],[36.3590392,50.1073813],[36.3475378,50.0997841],[36.3433079,50.0860841]]],[[[37.258105,49.2298041],[37.2505519,49.226441],[37.2340724,49.2180322],[37.235274,49.2019955],[37.2385356,49.1923486],[37.246947,49.1778746],[37.2696063,49.1749569],[37.2694572,49.1716214],[37.263203,49.1706831],[37.2600176,49.1673456],[37.2609093,49.1654114],[37.2658212,49.1655427],[37.2668258,49.1651904],[37.2673425,49.1641024],[37.2665407,49.1629348],[37.2651206,49.161874],[37.263958,49.1606447],[37.2655788,49.15589],[37.2975922,49.1463637],[37.3062666,49.1563857],[37.3048966,49.1584778],[37.3018096,49.1621976],[37.2999335,49.1639989],[37.2997861,49.1656373],[37.30138,49.1661641],[37.3026797,49.1664322],[37.3030478,49.1678104],[37.3039558,49.1694446],[37.3049138,49.1701878],[37.3055425,49.170608],[37.3056578,49.1707131],[37.3057047,49.170927],[37.3056925,49.1711304],[37.3056522,49.1713319],[37.3055891,49.1714853],[37.3055361,49.1717058],[37.305456,49.1718932],[37.3053998,49.1720325],[37.30529,49.172256],[37.3052041,49.1723804],[37.30507,49.1725829],[37.3048527,49.1727929],[37.3047119,49.1728839],[37.3045985,49.172982],[37.3044668,49.1732134],[37.3044492,49.1733642],[37.3044457,49.1736079],[37.3045513,49.1737929],[37.305086,49.1744899],[37.3057994,49.1749336],[37.3066068,49.1753378],[37.3073539,49.176073],[37.3077704,49.1769596],[37.307807,49.1777116],[37.307718,49.1786627],[37.3075448,49.1793627],[37.3080161,49.1799932],[37.3085522,49.1804348],[37.3099789,49.1809641],[37.3109498,49.181327],[37.3121863,49.1824341],[37.3125256,49.183142],[37.3124163,49.1841551],[37.3121139,49.1848456],[37.3116753,49.1856103],[37.3109838,49.1860767],[37.3100586,49.1865063],[37.3089951,49.1867631],[37.307562,49.1873263],[37.306781,49.1878883],[37.3066479,49.1887723],[37.3070319,49.1900698],[37.307374,49.1907467],[37.3077596,49.1923332],[37.3074372,49.192832],[37.3060529,49.1931375],[37.3050603,49.1930658],[37.3043924,49.1931842],[37.3036292,49.1930751],[37.3021533,49.1927962],[37.3011149,49.1923622],[37.3005743,49.1918787],[37.2996817,49.1919454],[37.2986346,49.1915862],[37.2971883,49.1920095],[37.2967543,49.192394],[37.2964276,49.1928206],[37.296448,49.1930856],[37.2964254,49.1933085],[37.2962277,49.1936558],[37.2961534,49.19401],[37.2959074,49.1944098],[37.2946927,49.1952477],[37.2936554,49.1957946],[37.2924894,49.1962994],[37.2914502,49.1966254],[37.2909351,49.1966989],[37.2903342,49.1968461],[37.2888428,49.197498],[37.2883438,49.1977697],[37.2879374,49.1983003],[37.2877396,49.1985727],[37.2876061,49.198845],[37.287755,49.1994037],[37.2880403,49.1998799],[37.288508,49.2007697],[37.2908802,49.2018593],[37.2933967,49.2025443],[37.294934,49.2034476],[37.2960353,49.204467],[37.2966216,49.2050098],[37.2963904,49.2057286],[37.2954486,49.2061932],[37.2947739,49.2065726],[37.2936426,49.2066327],[37.2924761,49.2067889],[37.2896788,49.2065806],[37.2909578,49.2094037],[37.2926704,49.2131842],[37.2985888,49.2132078],[37.3035811,49.213322],[37.3107121,49.2100146],[37.3133332,49.2109118],[37.3189354,49.2092577],[37.328057,49.208949],[37.3333568,49.2104906],[37.3292263,49.2140649],[37.3268175,49.2170295],[37.3286146,49.2197136],[37.3308248,49.2222924],[37.331147,49.2255439],[37.3202465,49.2323822],[37.3085736,49.240004],[37.2950123,49.2384349],[37.2823093,49.2354086],[37.2807645,49.2343999],[37.2787044,49.2337554],[37.2774599,49.2333071],[37.2758291,49.2333351],[37.267203,49.2323823],[37.258105,49.2298041]]],[[[30.1934477,45.2668024],[30.1810881,45.2498856],[30.2058073,45.2392496],[30.223316,45.253026],[30.2109571,45.2672857],[30.1934477,45.2668024]]],[[[37.2230016,49.1191418],[37.2233833,49.1172293],[37.2086205,49.1074535],[37.2148003,49.1033515],[37.2028698,49.094135],[37.2143711,49.0899196],[37.1895311,49.057824],[37.2096155,49.0533242],[37.2298715,49.0859384],[37.2289274,49.0941729],[37.2326181,49.1025465],[37.2262666,49.1043446],[37.2209451,49.107716],[37.230129,49.1157503],[37.229126,49.1197518],[37.2230016,49.1191418]]],[[[38.1687275,49.5546426],[38.1083024,49.4440476],[38.0869468,49.4415461],[37.9176746,49.6473248],[37.8990637,49.6500799],[37.7502003,49.6908653],[37.7038421,49.7286984],[37.6371335,49.7132625],[37.6475101,49.6628114],[37.6513537,49.6452441],[37.6907192,49.6218972],[37.7668364,49.6411137],[37.8023886,49.6369292],[37.8506875,49.6377245],[37.8805521,49.6120487],[38.0106756,49.4251843],[37.9543167,49.4000171],[37.6027927,49.3886081],[37.6234172,49.2926127],[37.578156,49.259292],[37.6289528,49.2563697],[37.6688585,49.3627197],[37.8280929,49.3759315],[37.8339134,49.3265294],[37.7958249,49.2645937],[37.8345743,49.2599169],[37.8745689,49.3202708],[37.8816597,49.3752488],[38.0739496,49.385135],[38.0886314,49.3858772],[38.1440081,49.3886564],[38.1829777,49.3804278],[38.1935119,49.3780902],[38.438949,49.3256894],[38.6623335,49.2905176],[38.6955878,49.2761211],[38.6766542,49.2576893],[38.6165276,49.2166248],[38.6002291,49.1924981],[38.5963005,49.1665755],[38.5875076,49.1423143],[38.5704871,49.1198485],[38.3864533,49.0849574],[38.3564281,49.0567455],[38.2926149,49.0547794],[38.2906247,49.0518198],[38.2870824,49.0422859],[38.2839699,49.0401783],[38.2732836,49.0382133],[38.2659028,49.0364208],[38.2650462,49.0351992],[38.2764722,49.0344462],[38.2782421,49.033046],[38.2888198,49.0323836],[38.2955135,49.0344622],[38.3049973,49.0344183],[38.3054335,49.0350056],[38.3046681,49.0362682],[38.3085804,49.0372213],[38.3122353,49.0365426],[38.3208326,49.0334966],[38.3281413,49.0293108],[38.330918,49.0304024],[38.3344555,49.0328516],[38.3344556,49.0328378],[38.3384519,49.0385873],[38.3403623,49.0426207],[38.3448782,49.0470349],[38.355341,49.0541261],[38.4068499,49.0361959],[38.419964,49.0293865],[38.4376054,49.0295824],[38.4558235,49.02239],[38.4621741,49.0218647],[38.4650601,49.0226205],[38.4777299,49.0217796],[38.4783538,49.026355],[38.4673359,49.0313443],[38.4714212,49.0501193],[38.4662373,49.0631238],[38.4588197,49.0671293],[38.457887,49.081777],[38.4730204,49.0829594],[38.513097,49.0903218],[38.5504758,49.0999554],[38.5674266,49.0968852],[38.5620101,49.0771785],[38.546947,49.060127],[38.5274305,49.0486971],[38.528859,49.0404759],[38.5347495,49.0333799],[38.5481935,49.0279742],[38.5525108,49.0265109],[38.5568379,49.0254998],[38.5619476,49.0247341],[38.5637582,49.0315523],[38.5810198,49.03263],[38.582544,49.0441936],[38.5919716,49.080619],[38.6190964,49.1217418],[38.6930794,49.2230982],[38.8473121,49.2782646],[38.7285237,49.9042486],[38.7413162,49.8973019],[38.7438242,49.897457],[38.7338906,49.9048183],[38.7322969,49.9065962],[38.7301878,49.9129068],[38.7257,49.9216767],[38.7232467,49.9271688],[38.6928998,49.9349292],[38.6925049,49.936334],[38.6915431,49.9368787],[38.6908205,49.9386863],[38.691349,49.9400366],[38.6906883,49.9429033],[38.6896718,49.946902],[38.6878397,49.9505141],[38.6875308,49.953574],[38.6863207,49.9582906],[38.6852993,49.9605072],[38.6854115,49.9622831],[38.6936353,49.9687381],[38.69429,49.9688391],[38.6947842,49.9691515],[38.6996787,49.9727023],[38.7004557,49.9736763],[38.7050076,49.9769232],[38.7073052,49.9786432],[38.7092167,49.9801699],[38.7153145,49.9825472],[38.7167348,49.9829374],[38.7162341,49.9840917],[38.7150467,49.9848184],[38.7150898,49.9855989],[38.7135879,49.9865449],[38.7128158,49.9870573],[38.7131597,49.9874751],[38.7132917,49.9878136],[38.7132575,49.9879037],[38.7131204,49.9880021],[38.7129428,49.9879988],[38.712416,49.9881163],[38.7121992,49.9882962],[38.7120963,49.9886736],[38.7118803,49.9888707],[38.7117368,49.9890832],[38.7115273,49.9892161],[38.7112264,49.9893577],[38.7103295,49.9895994],[38.7101062,49.9896684],[38.7100063,49.9897615],[38.7098473,49.9897874],[38.7096348,49.9898961],[38.7095677,49.9899997],[38.7093048,49.9901103],[38.7092725,49.9902211],[38.7092187,49.9902634],[38.7086711,49.9906238],[38.7086382,49.9908136],[38.7085722,49.9908829],[38.7085369,49.9910352],[38.708402,49.99105],[38.7083359,49.9911072],[38.7078604,49.9911183],[38.7074995,49.9910714],[38.7073571,49.9911846],[38.7071152,49.9913075],[38.7066635,49.9914566],[38.7065433,49.9915964],[38.7065175,49.9916827],[38.7064015,49.9916966],[38.706309,49.991621],[38.7060572,49.9916291],[38.7049419,49.9923281],[38.7031617,49.9928845],[38.702219,49.9930318],[38.7014063,49.993409],[38.7011542,49.9941084],[38.7021089,49.9956728],[38.7020441,49.9962083],[38.7017427,49.9972794],[38.7007105,49.9977113],[38.6996758,49.9990718],[38.6973209,50.0017013],[38.6950517,50.0027309],[38.6921439,50.0030245],[38.6908772,50.0051564],[38.6874851,50.0059999],[38.6864512,50.0072455],[38.6847266,50.0078611],[38.6805362,50.006451],[38.6797794,50.0049306],[38.6787807,50.0033239],[38.677642,50.0009933],[38.676052,49.9923598],[38.6768203,49.9914799],[38.6797305,49.9746573],[38.6769688,49.973133],[38.66694,49.9723199],[38.6461952,49.9561007],[38.6314824,49.9655489],[38.6160771,49.9745534],[38.611701,49.9757794],[38.5815687,49.9775796],[38.5680406,49.9724265],[38.5267143,49.9584342],[38.5103004,49.9627464],[38.5084765,49.9636347],[38.4877047,49.9637656],[38.4828956,49.9702443],[38.4822015,49.9777908],[38.4789245,49.9778689],[38.4775184,49.9834347],[38.4644892,49.9835809],[38.4680383,49.9954103],[38.4340937,50.0011822],[38.4285188,49.9970537],[38.4160062,49.9815016],[38.3971747,49.9911901],[38.349573,50.0066076],[38.3530892,50.0189083],[38.3511988,50.0349042],[38.3400321,50.0485902],[38.3393272,50.051709],[38.3341373,50.0581694],[38.3323397,50.0583051],[38.3325196,50.0673978],[38.3290971,50.0853707],[38.3123223,50.0886703],[38.3003546,50.0871225],[38.2907057,50.0795158],[38.2870662,50.0780774],[38.2757709,50.073644],[38.2514684,50.0729234],[38.1779973,50.0800842],[38.1841283,50.0558549],[38.1832433,50.0469384],[38.187264,50.0408273],[38.1875572,50.0237952],[38.1853864,50.0229161],[38.1847301,50.0223111],[38.1861615,50.021788],[38.1917456,50.0142665],[38.1962984,50.0086751],[38.2003389,50.0049388],[38.1998923,50.0040868],[38.2021152,50.0019507],[38.2043421,50.0011586],[38.2039532,49.9985557],[38.2047887,49.9973647],[38.2043694,49.9969348],[38.2069493,49.9917676],[38.2164373,49.9873451],[38.255245,49.9096982],[38.1769673,49.8424375],[38.1879536,49.7395957],[38.1330218,49.5973864],[38.1687275,49.5546426]]],[[[38.7278112,48.9564349],[38.7005034,48.9487523],[38.5901335,48.9405778],[38.5642082,48.9150297],[38.5868753,48.9051684],[38.6131979,48.9292041],[38.6967474,48.9359542],[38.7429174,48.9253149],[38.778623,48.9447108],[38.7278112,48.9564349]]],[[[39.4070785,48.6594145],[39.4106832,48.6576569],[39.4174832,48.6594142],[39.4372209,48.656472],[39.4460615,48.6575492],[39.4506805,48.6555591],[39.4512972,48.6517092],[39.4481056,48.6475073],[39.4496553,48.6428491],[39.4505565,48.6415163],[39.4542043,48.6397865],[39.4597833,48.6397298],[39.4639142,48.6394599],[39.4656626,48.638085],[39.4627126,48.632937],[39.4631306,48.6290376],[39.4672934,48.6286973],[39.4730871,48.6291511],[39.4785803,48.6291511],[39.4856613,48.6304275],[39.4892234,48.6316187],[39.493987,48.6333772],[39.4997376,48.6341997],[39.502613,48.6349654],[39.5069156,48.6355463],[39.5101772,48.6354896],[39.5128253,48.6345517],[39.5157561,48.6298739],[39.511967,48.625135],[39.5116363,48.6218747],[39.5162584,48.6180996],[39.5233093,48.6150091],[39.527,48.6095614],[39.5236507,48.6061827],[39.5224617,48.6026941],[39.5239941,48.5986906],[39.5313755,48.5971012],[39.5321606,48.5934985],[39.5274273,48.5919922],[39.5251957,48.5885859],[39.5312038,48.5842709],[39.5415035,48.5842709],[39.5459667,48.5873368],[39.5457951,48.5923328],[39.5476833,48.5969877],[39.5545498,48.5995988],[39.5617596,48.5985771],[39.5656346,48.5939526],[39.5653644,48.5889265],[39.5612572,48.5848122],[39.568111,48.5819997],[39.5749043,48.5842444],[39.5822859,48.5889568],[39.5931737,48.5936953],[39.6010701,48.5914245],[39.6050183,48.5867691],[39.6000401,48.58552],[39.594547,48.5810912],[39.5943021,48.5764083],[39.6024434,48.5746176],[39.6094815,48.5750719],[39.614803,48.5799555],[39.6173779,48.5863149],[39.6221846,48.5868826],[39.6304244,48.5809776],[39.6408957,48.5830217],[39.6505087,48.5854064],[39.6693908,48.5892114],[39.677288,48.5875639],[39.6863129,48.5869697],[39.6879846,48.5870714],[39.687254,48.5872359],[39.6867815,48.5879],[39.6866738,48.589694],[39.6861263,48.5899807],[39.6854663,48.5901099],[39.6838917,48.5908841],[39.6833618,48.5915834],[39.6832041,48.5922595],[39.6830179,48.5925549],[39.6799851,48.5924614],[39.679477,48.5921023],[39.6795664,48.5907731],[39.6790532,48.5903498],[39.678625,48.5902659],[39.6777028,48.59038],[39.6767481,48.5909338],[39.6763566,48.591452],[39.6757102,48.5932438],[39.6757087,48.593941],[39.6762015,48.5945593],[39.6768128,48.5951503],[39.6776173,48.5955993],[39.6778935,48.5959356],[39.6781589,48.5960094],[39.6785759,48.5959292],[39.6788595,48.5957471],[39.6792266,48.5956561],[39.6795282,48.5956674],[39.6799473,48.5958788],[39.6802963,48.5961761],[39.6804494,48.5964453],[39.6802791,48.5968567],[39.6800653,48.5971653],[39.6798832,48.5973373],[39.679481,48.5975901],[39.6789419,48.5978796],[39.6785597,48.5980173],[39.6781433,48.5980507],[39.6778664,48.5980699],[39.6766901,48.5979506],[39.6760055,48.597593],[39.6753735,48.5968678],[39.6750253,48.5966755],[39.674465,48.5962884],[39.6736699,48.5958749],[39.6728217,48.5956184],[39.6718075,48.5954405],[39.6708928,48.5954651],[39.6701672,48.5956264],[39.6693879,48.5959651],[39.6688088,48.5964395],[39.6682831,48.5971593],[39.6679344,48.5980017],[39.6679961,48.5990899],[39.6681341,48.5998895],[39.668053,48.6008853],[39.6679254,48.6010279],[39.6679909,48.6013265],[39.6684367,48.6017809],[39.6688396,48.6022637],[39.6698219,48.6026543],[39.6706993,48.6032328],[39.6710522,48.6037491],[39.6707864,48.6040769],[39.6704175,48.6044678],[39.6695893,48.6047768],[39.66851,48.6049738],[39.6676592,48.6050368],[39.6664076,48.6050258],[39.6658275,48.6049422],[39.6653143,48.6048033],[39.6649272,48.6047461],[39.6643259,48.6047365],[39.6638695,48.6047731],[39.6635903,48.6048158],[39.6632897,48.6049223],[39.6627423,48.6052238],[39.6625115,48.6053604],[39.6622271,48.6054687],[39.6615103,48.60569],[39.6612373,48.6058365],[39.6610394,48.6060362],[39.6609019,48.6068248],[39.6608449,48.6069394],[39.6607234,48.6070612],[39.660486,48.607358],[39.6604187,48.6075897],[39.6604023,48.6079255],[39.6605545,48.6082344],[39.6606369,48.6085149],[39.6606099,48.6086518],[39.6605347,48.6088188],[39.660545,48.609057],[39.6605503,48.6091693],[39.6606039,48.6092391],[39.6607807,48.6094992],[39.6609215,48.6097455],[39.661089,48.6100874],[39.6611922,48.6106405],[39.6613741,48.6108759],[39.6616526,48.6110332],[39.6621987,48.6115324],[39.662584,48.6119464],[39.6629351,48.6121501],[39.663297,48.6124673],[39.6635745,48.6128201],[39.6637125,48.6131161],[39.663974,48.613969],[39.664169,48.6147785],[39.6647816,48.6153109],[39.6648143,48.6153926],[39.6648011,48.6156055],[39.6647838,48.6158007],[39.6648503,48.6160489],[39.6650578,48.6162795],[39.6651375,48.6164621],[39.6653003,48.616721],[39.6656244,48.6172966],[39.6660451,48.6178048],[39.6661262,48.6179674],[39.6661,48.6183285],[39.6663743,48.6188953],[39.6664899,48.6194341],[39.6668965,48.6199871],[39.6671695,48.6205367],[39.6678502,48.6214338],[39.6681565,48.6215794],[39.6689564,48.6224483],[39.6715159,48.6244803],[39.6745691,48.6265122],[39.6775968,48.6281861],[39.6799906,48.6295761],[39.6843419,48.6316892],[39.685639,48.6322281],[39.6869361,48.632611],[39.6876646,48.6328804],[39.688436,48.6333484],[39.6901617,48.6352497],[39.6905558,48.6354841],[39.6910787,48.6356192],[39.6927872,48.636123],[39.6934639,48.6365573],[39.693969,48.6370058],[39.6941144,48.6374391],[39.6942956,48.6377778],[39.6943481,48.6382584],[39.6943362,48.6388382],[39.6942551,48.6391778],[39.6942682,48.6397517],[39.694028,48.6406199],[39.6938757,48.6412951],[39.6938531,48.6419092],[39.6937346,48.6429323],[39.6935358,48.643295],[39.693018,48.6436323],[39.692684,48.6437726],[39.69212,48.6442113],[39.6915805,48.6449766],[39.6913092,48.6454795],[39.6911653,48.6458323],[39.6911042,48.6463826],[39.6912984,48.6466393],[39.6915784,48.6468321],[39.6918745,48.6470498],[39.6920065,48.6473021],[39.6920725,48.6475134],[39.6920794,48.6477884],[39.6922442,48.6478767],[39.6924473,48.6480272],[39.6926856,48.648285],[39.6929148,48.6485503],[39.6931849,48.6489417],[39.6933844,48.6491073],[39.6935597,48.6493561],[39.6938674,48.6495501],[39.6942064,48.6496258],[39.6944295,48.649692],[39.6946189,48.6498066],[39.6948316,48.6500074],[39.6949674,48.6500671],[39.6952634,48.6502777],[39.69576,48.6505017],[39.6965126,48.6507802],[39.6967383,48.650872],[39.6969962,48.650939],[39.6972545,48.6510517],[39.6982345,48.6517533],[39.6986123,48.6520031],[39.6989621,48.6522414],[39.6994482,48.6525307],[39.7000882,48.6527037],[39.7006657,48.6528079],[39.7011476,48.6529486],[39.7016621,48.6531642],[39.7018443,48.6532481],[39.7020748,48.6533069],[39.7022028,48.6533483],[39.7022826,48.6533949],[39.7028812,48.6540075],[39.703444,48.6545894],[39.7039345,48.6548875],[39.7042213,48.6551147],[39.7045642,48.6555124],[39.7046203,48.6557254],[39.7047154,48.6559595],[39.7050527,48.6563175],[39.7051408,48.6564575],[39.7052493,48.656609],[39.7054538,48.6567061],[39.7057276,48.656712],[39.7059987,48.6567753],[39.7061772,48.6569309],[39.7063156,48.6569681],[39.7065078,48.6569768],[39.7066838,48.6569148],[39.7068577,48.6568093],[39.707009,48.6566715],[39.7071437,48.656468],[39.7072532,48.6563126],[39.7073438,48.6561995],[39.7076336,48.655906],[39.7080353,48.6555944],[39.7081733,48.6554966],[39.7084561,48.655218],[39.7085888,48.6550751],[39.7087946,48.6548654],[39.7090584,48.6547109],[39.7093379,48.6546284],[39.7094964,48.6546119],[39.7096749,48.6546515],[39.7099599,48.6546731],[39.7101507,48.6547335],[39.7103078,48.6548071],[39.7105231,48.6549857],[39.7106741,48.6551677],[39.7107644,48.6552888],[39.7108659,48.6556789],[39.7109327,48.6561822],[39.7108171,48.6570718],[39.7105176,48.6576098],[39.7099016,48.6586014],[39.7095832,48.6593697],[39.7095179,48.6600817],[39.709509,48.6608042],[39.7096749,48.6620806],[39.7096037,48.662506],[39.7101118,48.6630023],[39.7105771,48.6640442],[39.7107025,48.6644164],[39.7107222,48.6649993],[39.7109574,48.6656663],[39.7110424,48.6665317],[39.7109858,48.6667024],[39.7104532,48.6671562],[39.7103518,48.6672554],[39.7101753,48.6673121],[39.7097256,48.6674964],[39.7091365,48.6675461],[39.7084556,48.6675709],[39.7074984,48.6674097],[39.7071216,48.6671981],[39.7066707,48.6669928],[39.706252,48.6669328],[39.7057999,48.6668532],[39.7054015,48.6667842],[39.7049628,48.6668073],[39.7044127,48.6668258],[39.703999,48.666883],[39.7035641,48.666956],[39.7032742,48.6669864],[39.7021046,48.6681327],[39.7025227,48.6688822],[39.7031337,48.6710544],[39.7117933,48.6752118],[39.7150142,48.6811539],[39.7221412,48.6841489],[39.7162224,48.6904307],[39.7154944,48.6958378],[39.7199164,48.6980723],[39.7027563,48.7067841],[39.7109971,48.7135186],[39.7048187,48.7216124],[39.7226977,48.734259],[39.7389083,48.7485591],[39.7413929,48.7719131],[39.7651844,48.7651576],[39.7842898,48.7974979],[39.7971077,48.840725],[39.8046535,48.8437256],[39.8080254,48.8396294],[39.8074845,48.8387303],[39.827813,48.8316143],[39.8304204,48.8337036],[39.8862366,48.8210949],[39.9383062,48.8000392],[39.9522558,48.7976266],[39.9581999,48.7980025],[39.9761594,48.793854],[40.0788129,48.8700157],[40.0712683,48.8771241],[40.0554768,48.9102473],[40.0484775,48.9103354],[40.0311769,48.9159504],[40.0180448,48.9079403],[39.9837125,48.868209],[39.924661,48.8943991],[39.8711026,48.8943991],[39.8408903,48.9025242],[39.8244108,48.8907875],[39.8189176,48.9079403],[39.7941983,48.9250872],[39.7694791,48.9305008],[39.7887053,48.94764],[39.7378935,48.9882093],[39.7255338,48.9737884],[39.698068,49.0026259],[39.6774686,48.9909127],[39.6609891,49.001725],[39.6702577,49.0032975],[39.6664823,49.0422503],[39.6898282,49.0521515],[39.7681058,49.0404499],[39.7983182,49.0611508],[39.8147977,49.0593511],[39.8752225,49.0656499],[39.9356473,49.0539515],[39.9356474,49.0836421],[39.9974455,49.1474617],[40.2141133,49.2594755],[40.1876998,49.34647],[40.0425589,49.4328857],[40.0375813,49.5200443],[40.1568108,49.571992],[40.1209125,49.6160659],[39.9504881,49.5900219],[39.8076974,49.5637667],[39.6438532,49.6323583],[39.6115113,49.7293259],[39.4457825,49.7577329],[39.2799454,49.7610594],[39.1783817,49.8881503],[39.087252,49.8257464],[38.9469067,49.7951155],[38.8984458,49.8705657],[38.8763944,49.8695721],[38.8751146,49.8686882],[38.8745707,49.8680282],[38.8745418,49.8667874],[38.8693774,49.8646377],[38.8668164,49.8650406],[38.8652993,49.8661784],[38.8626943,49.8660194],[38.8571408,49.8681629],[38.8565908,49.8687985],[38.8558336,49.8690399],[38.8544357,49.8683446],[38.8541536,49.8680089],[38.8541412,49.8675788],[38.853816,49.8672717],[38.852007,49.8666577],[38.8513931,49.8663147],[38.8505944,49.8660159],[38.849083,49.8652524],[38.846704,49.8656339],[38.8461087,49.8658714],[38.8456477,49.8659589],[38.8439105,49.8653317],[38.8432685,49.8652944],[38.8393239,49.865911],[38.8389446,49.8661759],[38.8359972,49.8672864],[38.8363251,49.8675158],[38.8347918,49.8692191],[38.834643,49.8711044],[38.8366625,49.8723027],[38.8356799,49.87398],[38.8349162,49.874486],[38.8344188,49.8747233],[38.8329516,49.8748937],[38.8277416,49.8773082],[38.8270202,49.8779057],[38.8260063,49.8785197],[38.8244074,49.879084],[38.8224109,49.8791336],[38.7949362,49.8834592],[38.7901284,49.8786592],[38.7834663,49.8812624],[38.7776615,49.8854692],[38.7682102,49.8961934],[38.7438251,49.8974564],[38.7413171,49.8973013],[38.7285245,49.904248],[38.847313,49.278264],[38.9633573,48.9521494],[38.7758765,48.9447118],[38.7401709,48.9253159],[38.7960039,48.9035294],[38.8230954,48.9068944],[38.9753624,48.9240616],[38.965853,48.7751962],[39.194248,48.7074681],[39.1958003,48.7066559],[39.1964012,48.7033707],[39.1998344,48.6995187],[39.2053277,48.6994055],[39.2070442,48.7013881],[39.2099624,48.7035972],[39.2132241,48.7056364],[39.2191464,48.7067692],[39.2237812,48.7102242],[39.2276436,48.7121498],[39.2327935,48.7122631],[39.2360475,48.7104132],[39.2390516,48.7105264],[39.2455747,48.713698],[39.2472989,48.7176997],[39.2483288,48.7209841],[39.2486721,48.7243815],[39.253822,48.732421],[39.2514187,48.7366101],[39.2498738,48.7400065],[39.2516687,48.7426858],[39.2651443,48.7431386],[39.266346,48.7455157],[39.2658385,48.7486095],[39.2649802,48.7515522],[39.2683201,48.7545705],[39.2742498,48.7541553],[39.2749364,48.7499677],[39.2806013,48.7503072],[39.2847995,48.7517976],[39.2851427,48.7545139],[39.2859227,48.7585689],[39.2880977,48.7610344],[39.2931325,48.7625296],[39.2982823,48.7653584],[39.3012789,48.7686021],[39.3024022,48.7714681],[39.3042905,48.7737307],[39.3090895,48.7754467],[39.3142468,48.7758802],[39.3193035,48.7769173],[39.3253973,48.775673],[39.3259198,48.77226],[39.3259123,48.7686586],[39.330898,48.7676213],[39.3377645,48.7672819],[39.3435076,48.7693941],[39.3487508,48.7696579],[39.3530348,48.7667918],[39.3497807,48.7633216],[39.3447092,48.7613039],[39.342056,48.7552871],[39.3455675,48.7506092],[39.3463475,48.7472512],[39.3492658,48.7423838],[39.3545873,48.7404593],[39.357498,48.7360065],[39.3561322,48.7321946],[39.3530423,48.728911],[39.353464,48.7262124],[39.3601588,48.7225887],[39.3667677,48.7212297],[39.3713106,48.7199407],[39.3721559,48.7170962],[39.3684844,48.7156235],[39.3629912,48.7159067],[39.357498,48.7146042],[39.3541313,48.713132],[39.3486382,48.7133585],[39.3453959,48.7119424],[39.3502882,48.7059387],[39.3525198,48.7008407],[39.3585945,48.6963656],[39.367006,48.6914933],[39.3792928,48.6863078],[39.3889979,48.6844103],[39.3879679,48.6807269],[39.3903519,48.6781202],[39.3936134,48.67642],[39.4010142,48.6751162],[39.4058207,48.6736993],[39.4111232,48.6698451],[39.4123248,48.6668976],[39.4080333,48.6625326],[39.4070785,48.6594145]]],[[[33.3967657,47.4749894],[33.3967056,47.4680827],[33.4298362,47.4693591],[33.4713783,47.4750448],[33.4775581,47.4608875],[33.4972992,47.4610036],[33.4938659,47.4806139],[33.5156669,47.4829341],[33.5199585,47.4744647],[33.5652771,47.4867623],[33.5544203,47.5050804],[33.5460514,47.5180609],[33.4989476,47.5120287],[33.5124054,47.4917502],[33.4645118,47.4847902],[33.4294929,47.4775974],[33.3967657,47.4749894]]],[[[37.8562077,48.1928465],[37.8833302,48.1997121],[37.8965706,48.2154292],[37.89157,48.2550609],[37.8650718,48.265702],[37.8544288,48.2563309],[37.8455024,48.2405561],[37.8194098,48.2414707],[37.8125434,48.2380409],[37.8228431,48.230723],[37.8290229,48.2041871],[37.8562077,48.1928465]]],[[[37.299243,49.1314433],[37.2820136,49.1313473],[37.2786208,49.1218186],[37.3011084,49.1101334],[37.3179312,49.0798965],[37.3529502,49.0531287],[37.3615332,49.0562786],[37.336299,49.0763545],[37.3550946,49.0870069],[37.3527785,49.0937808],[37.3671981,49.104627],[37.3919173,49.0979959],[37.3932906,49.1044022],[37.3927764,49.1061728],[37.3805886,49.1080553],[37.3679712,49.1126343],[37.3641081,49.1113695],[37.3548358,49.1004688],[37.3359557,49.0929377],[37.3400756,49.0872045],[37.3290892,49.0838317],[37.3151847,49.1187852],[37.299243,49.1314433]]],[[[38.4024861,48.5572586],[38.4019504,48.5615018],[38.4019712,48.5747527],[38.402637,48.5810386],[38.402637,48.5919397],[38.4060702,48.6019302],[38.4048036,48.6090985],[38.4046894,48.6169314],[38.3739903,48.6047285],[38.3719304,48.5749798],[38.4024861,48.5572586]]],[[[36.442791,50.1948843],[36.4756871,50.2224278],[36.5349597,50.2310514],[36.5688825,50.2451174],[36.5618506,50.2519065],[36.5758428,50.2577166],[36.5746013,50.2746673],[36.5934304,50.2766557],[36.5834216,50.2874198],[36.5658037,50.2854739],[36.5551665,50.2819459],[36.524952,50.2862955],[36.526173,50.2917974],[36.4940742,50.3030019],[36.4888789,50.3124647],[36.4723521,50.3129375],[36.4406691,50.3108091],[36.437196,50.3180914],[36.4337192,50.3307479],[36.4240611,50.3285],[36.4205385,50.3226879],[36.400448,50.3073336],[36.3753767,50.3011746],[36.373987,50.2989435],[36.3763675,50.2957118],[36.3783951,50.2937102],[36.3765068,50.2936005],[36.3668763,50.287477],[36.3550095,50.2879248],[36.2964342,50.2919211],[36.3002758,50.2992945],[36.2845474,50.3000884],[36.284119,50.3050194],[36.2808571,50.3100582],[36.2774212,50.3124621],[36.2750103,50.3170522],[36.2767126,50.31856],[36.2787438,50.3228931],[36.2725031,50.3238871],[36.2744416,50.3265342],[36.2772896,50.3309544],[36.2826447,50.3354141],[36.278591,50.3385283],[36.26998,50.3340503],[36.2658352,50.3198193],[36.2587212,50.3175515],[36.2433677,50.3196669],[36.1796015,50.3472138],[36.1715681,50.3269263],[36.1515241,50.2348658],[36.1775292,50.2310594],[36.2070518,50.2196193],[36.2017097,50.2078668],[36.1983475,50.2029996],[36.2488838,50.2026887],[36.2574018,50.1660139],[36.2531122,50.1534316],[36.2519988,50.152838],[36.249086,50.1527507],[36.2463507,50.152356],[36.244829,50.1501372],[36.2429878,50.1477896],[36.2415376,50.1463948],[36.2412125,50.1443757],[36.243896,50.1433141],[36.2486395,50.1434626],[36.2531482,50.1438693],[36.2551269,50.1396221],[36.2544492,50.1384988],[36.2524074,50.1377926],[36.2502119,50.1364905],[36.2516571,50.1333362],[36.2551875,50.1325823],[36.2621509,50.1319381],[36.2668506,50.1305374],[36.2681669,50.1324775],[36.2765507,50.1318752],[36.284048,50.1302299],[36.2940477,50.1318481],[36.2974382,50.133466],[36.3031896,50.1352707],[36.3037978,50.1421384],[36.3026619,50.1450115],[36.29938,50.1487094],[36.2940924,50.1482208],[36.2833801,50.1491862],[36.2822035,50.1510774],[36.2801685,50.1521986],[36.2776058,50.1514944],[36.2753865,50.1502401],[36.2703574,50.147816],[36.267646,50.1473167],[36.2647983,50.1469782],[36.2598376,50.1486392],[36.2617432,50.1528302],[36.2640092,50.1656115],[36.2740368,50.1685188],[36.2639742,50.1868065],[36.2611164,50.2057533],[36.2786264,50.224096],[36.3112493,50.2182684],[36.353072,50.2298834],[36.3800226,50.2257959],[36.3982192,50.2200969],[36.3970194,50.2187172],[36.395132,50.218302],[36.3936737,50.2171728],[36.3920038,50.2171321],[36.3930807,50.2110498],[36.396092,50.204982],[36.4085832,50.2005193],[36.4172319,50.2037812],[36.4205597,50.2068231],[36.4281664,50.1989237],[36.4299893,50.1943325],[36.4280998,50.1834191],[36.4236341,50.1864323],[36.4147017,50.1885009],[36.4134242,50.1839773],[36.4183263,50.177475],[36.4097637,50.1761223],[36.4146111,50.1648416],[36.4155192,50.1625742],[36.4272647,50.1596073],[36.442791,50.1948843]]],[[[37.2820136,49.1313473],[37.299243,49.1314433],[37.2975922,49.1463637],[37.2655788,49.15589],[37.263958,49.1606447],[37.2651206,49.161874],[37.2665407,49.1629348],[37.2673425,49.1641024],[37.2672725,49.1647819],[37.2668258,49.1651904],[37.2658212,49.1655427],[37.2638978,49.1655457],[37.2609093,49.1654114],[37.2600176,49.1673456],[37.263203,49.1706831],[37.2694572,49.1716214],[37.2696063,49.1749569],[37.246947,49.1778746],[37.2464459,49.1589732],[37.2376134,49.1503645],[37.2353061,49.1409696],[37.2209513,49.1391157],[37.2205017,49.1368121],[37.2242381,49.133834],[37.2160909,49.1312467],[37.2193322,49.1258966],[37.2230016,49.1191418],[37.229126,49.1197518],[37.2241786,49.1276636],[37.2576879,49.1354613],[37.2820136,49.1313473]]],[[[37.6378547,49.7131521],[37.7045602,49.7286012],[37.7291091,49.7689049],[37.7759385,49.84212],[37.8192395,49.9025627],[37.8721418,49.9202955],[37.8701481,49.940127],[37.874681,49.9410425],[37.8789152,49.945806],[37.8937374,49.9470829],[37.938783,49.9629324],[37.9231299,49.9817117],[37.9415719,49.9886746],[37.951521,49.9980089],[37.947525,50.0030582],[37.90551,49.9873025],[37.9004551,49.9699128],[37.872502,49.9678022],[37.8399358,49.9821123],[37.7871574,49.9903847],[37.7187864,49.9987024],[37.6998286,50.0184791],[37.6687958,50.0377402],[37.6425726,50.0596502],[37.5772797,50.0675247],[37.4903859,50.0300345],[37.4460907,50.0440841],[37.4445125,50.0776918],[37.441027,50.1107911],[37.4043151,50.1290966],[37.3976653,50.1453109],[37.4664683,50.1556176],[37.5001039,50.1727254],[37.5506828,50.1738766],[37.5945024,50.1700226],[37.6534642,50.1676448],[37.6538249,50.168992],[37.6521256,50.170999],[37.6454594,50.1745598],[37.6396556,50.1763743],[37.6383146,50.1798933],[37.6390335,50.1851711],[37.6421886,50.1913299],[37.6246285,50.206065],[37.6082806,50.1946301],[37.5503762,50.1908778],[37.5071403,50.1957191],[37.4704229,50.1834159],[37.4513754,50.1864961],[37.4141913,50.1811545],[37.3577977,50.1749461],[37.3526302,50.1652082],[37.3472247,50.1687712],[37.2992005,50.1865434],[37.2527518,50.181743],[37.1903319,50.1845092],[37.1812921,50.1937969],[37.1499891,50.2012972],[37.1296599,50.2167028],[37.1286339,50.2166203],[37.133062,50.2350265],[37.1309429,50.2641289],[37.1251679,50.2921578],[37.1399958,50.3043929],[37.1737261,50.3087018],[37.197851,50.3165118],[37.2098418,50.3272165],[37.2273282,50.3295897],[37.2657081,50.340498],[37.2996302,50.3467984],[37.3127128,50.3446477],[37.3422879,50.3565757],[37.3561081,50.3646644],[37.3725519,50.3718442],[37.4144015,50.3785853],[37.4641113,50.3852789],[37.4657555,50.3952556],[37.4653401,50.4052323],[37.4641842,50.4226714],[37.4674724,50.4314666],[37.4814765,50.4310531],[37.4865542,50.4417921],[37.4910732,50.4580667],[37.4764437,50.4598836],[37.4734876,50.4551426],[37.4318705,50.4436889],[37.4241712,50.4365194],[37.3971068,50.4309195],[37.3520339,50.4367122],[37.3330496,50.4368105],[37.3191165,50.4321915],[37.3097985,50.4225118],[37.3001019,50.4061836],[37.2910179,50.401087],[37.2737209,50.3964523],[37.26465,50.3941135],[37.2613641,50.3925524],[37.2574776,50.390991],[37.2558842,50.3924646],[37.2547307,50.3922069],[37.2223932,50.3794522],[37.2231225,50.3780223],[37.2146263,50.3745018],[37.205188,50.3722736],[37.1874938,50.3657997],[37.176311,50.3620474],[37.1599291,50.3585678],[37.1492607,50.3559086],[37.1372662,50.360992],[37.1041536,50.3572209],[37.1059114,50.3518676],[37.0826455,50.3481603],[37.0684957,50.346708],[37.0587336,50.3473086],[37.0440136,50.3454405],[37.0375019,50.3484683],[36.99185,50.348542],[36.9358952,50.3503614],[36.9215108,50.3484492],[36.8920617,50.3402348],[36.8696171,50.3357955],[36.8540428,50.3300383],[36.828234,50.3117042],[36.8119651,50.3122047],[36.802564,50.3065647],[36.7714079,50.2996641],[36.7590576,50.2893822],[36.748421,50.2881893],[36.7494582,50.280854],[36.7409034,50.2820072],[36.704321,50.2667588],[36.6908578,50.267974],[36.6849504,50.2538256],[36.6782878,50.2343063],[36.6652485,50.2226897],[36.6446654,50.2165545],[36.6172208,50.2262297],[36.5964897,50.2299661],[36.5688825,50.2451174],[36.5349597,50.2310514],[36.4756871,50.2224278],[36.442791,50.1948843],[36.4967617,50.1797094],[36.5184371,50.1658413],[36.5906822,50.1497005],[36.621185,50.1565483],[36.6197217,50.1508219],[36.6231093,50.1393789],[36.6498306,50.1116493],[36.6272659,50.095392],[36.6034557,50.0848939],[36.5980431,50.0751556],[36.5855944,50.0741197],[36.5773052,50.0710513],[36.444564,50.0581742],[36.4575324,50.0350982],[36.5752134,50.0611857],[36.5827041,50.0625472],[36.5857326,50.0697488],[36.5956461,50.0700551],[36.605667,50.0682798],[36.6069865,50.0666483],[36.6071043,50.0650168],[36.6089049,50.0598428],[36.6192004,50.0598523],[36.6298388,50.0632216],[36.6363579,50.0622926],[36.6820044,50.0663875],[36.7189789,50.0701346],[36.7407511,50.068783],[36.7650735,50.066042],[36.8234141,50.077218],[36.8304818,50.0675691],[36.8368452,50.05245],[36.8537987,50.0347849],[36.8793819,50.0185998],[36.8877034,50.0131984],[36.9049497,50.0190487],[36.9092275,50.0025088],[36.9263217,49.9950748],[36.9348305,49.9849885],[36.9469779,49.9698365],[36.9559914,49.9625585],[36.9538623,49.9568157],[36.9563851,49.9466005],[36.9550892,49.9438671],[36.9506652,49.939186],[36.9544825,49.9349453],[36.9591201,49.9300836],[36.9715658,49.9278734],[36.9887745,49.926989],[37.0004682,49.9234525],[37.0310292,49.9285372],[37.0351547,49.923453],[37.0126709,49.9188141],[37.008386,49.9165998],[37.007868,49.9085293],[37.0043694,49.9059586],[37.0029313,49.9013975],[36.997116,49.8956196],[36.9970743,49.8898134],[36.996839,49.8874636],[36.9895027,49.8834277],[36.992829,49.8775612],[37.0070079,49.8704974],[37.0010521,49.8576764],[37.0028923,49.8424104],[36.9856275,49.8334502],[36.977347,49.8358304],[36.9498599,49.825502],[36.9090014,49.8092546],[36.9038084,49.8075174],[36.8927814,49.7995755],[36.8941348,49.7811977],[36.8832046,49.7550598],[36.8780246,49.7507496],[36.8711889,49.7465176],[36.8777803,49.7427222],[36.8616592,49.7338447],[36.8290634,49.7329503],[36.8055712,49.7231769],[36.7971894,49.7137903],[36.819489,49.7116698],[36.8224967,49.7215154],[36.8268552,49.7232829],[36.838593,49.7090682],[36.871037,49.6794317],[36.9007836,49.652597],[36.904477,49.6472477],[36.8757326,49.6281136],[36.8602365,49.6133745],[36.8320473,49.6061944],[36.7961687,49.6140235],[36.7844922,49.6106134],[36.7851127,49.6032407],[36.8078234,49.6023068],[36.8281281,49.59703],[36.8656359,49.6088357],[36.8859923,49.621969],[36.9205173,49.6331479],[36.9301526,49.6247528],[36.9709804,49.6025791],[36.9612629,49.563682],[36.9045636,49.5153786],[36.8645063,49.4834133],[36.8517722,49.4834445],[36.846398,49.4925422],[36.8218653,49.4971359],[36.8003351,49.498551],[36.7856808,49.4780348],[36.7839718,49.476937],[36.7859618,49.474797],[36.7874529,49.4717438],[36.7894052,49.4698205],[36.7927092,49.4665315],[36.794468,49.4646091],[36.7940599,49.4633411],[36.7945102,49.4618499],[36.7947234,49.4595253],[36.7930913,49.4578422],[36.8013681,49.4573582],[36.806162,49.4570596],[36.8126582,49.456016],[36.8163805,49.4557138],[36.8176446,49.4533243],[36.8177689,49.4514469],[36.8190467,49.4494778],[36.8188546,49.4450939],[36.8236186,49.4425762],[36.8297114,49.4420047],[36.8308227,49.4387504],[36.831378,49.4353368],[36.8314833,49.4317317],[36.8312641,49.4277591],[36.8349312,49.4237632],[36.8353913,49.4200904],[36.8296133,49.417584],[36.8276124,49.4135141],[36.828166,49.4109384],[36.833011,49.4078042],[36.8393288,49.4053867],[36.8401658,49.4059559],[36.8476007,49.4131347],[36.8487441,49.4187349],[36.8376427,49.4282348],[36.8410176,49.4344362],[36.844393,49.4368417],[36.8560159,49.4513754],[36.8607993,49.4535078],[36.8626335,49.4513934],[36.8639367,49.4501408],[36.8649317,49.4498772],[36.8696349,49.4513077],[36.8792801,49.4552332],[36.8851774,49.453429],[36.8974571,49.4528513],[36.9227791,49.4428962],[36.9612357,49.4311724],[37.0122001,49.4250074],[37.0324222,49.4152629],[37.0529736,49.391889],[37.0741814,49.3934696],[37.0878746,49.3993941],[37.1060526,49.3998953],[37.1302463,49.399361],[37.1510955,49.3975272],[37.1640929,49.3954919],[37.1729935,49.3891109],[37.1753701,49.3812774],[37.1957779,49.3775503],[37.2058144,49.381729],[37.214472,49.3483498],[37.2085117,49.3291694],[37.2075902,49.3164548],[37.2052979,49.3062268],[37.2043798,49.2959989],[37.2127269,49.2696497],[37.2505519,49.2263288],[37.258105,49.2296919],[37.2235136,49.2675544],[37.2161561,49.2903214],[37.2182393,49.2978598],[37.2226182,49.3215253],[37.2289705,49.3478324],[37.2276378,49.3715004],[37.2228676,49.3835423],[37.2583535,49.3885106],[37.2725591,49.3939191],[37.3092128,49.3926571],[37.331029,49.3977213],[37.3410094,49.3917554],[37.3836377,49.3848569],[37.4427017,49.3813983],[37.4598583,49.3394116],[37.4797441,49.3349965],[37.5388179,49.337035],[37.5290668,49.3492414],[37.5021438,49.3497513],[37.4801735,49.352738],[37.4526851,49.3995432],[37.4391334,49.3953713],[37.4319185,49.3903325],[37.3891734,49.3933983],[37.3587807,49.4000278],[37.3488041,49.4035506],[37.3405202,49.4070184],[37.2360546,49.4045042],[37.206925,49.4014473],[37.1903222,49.4010703],[37.1628757,49.4031638],[37.136112,49.4072617],[37.0813829,49.4076189],[37.0653034,49.4121228],[37.0447964,49.4251392],[36.9645098,49.4390009],[36.9518138,49.4396621],[36.8924111,49.4583936],[36.8935027,49.4604483],[36.8922461,49.4639302],[36.894408,49.4696595],[36.8963906,49.4729977],[36.897983,49.4750569],[36.8969768,49.4761978],[36.8992188,49.4782464],[36.9002542,49.4822264],[36.9016306,49.4875618],[36.98609,49.5026048],[36.9310743,49.5244444],[36.9708137,49.5603087],[36.987457,49.5879294],[37.0020513,49.5937336],[37.0013504,49.6014696],[37.0143855,49.6154354],[37.0270785,49.6384689],[37.0415785,49.6482848],[37.0524262,49.6514362],[37.0753637,49.6527875],[37.1033186,49.6504597],[37.1236527,49.643958],[37.1400052,49.6410383],[37.1469244,49.6454804],[37.1486938,49.6534789],[37.1711245,49.6741408],[37.203675,49.6626597],[37.2400009,49.6747195],[37.2419552,49.6702113],[37.2905908,49.6528094],[37.3277058,49.6542835],[37.3418019,49.6570145],[37.3909209,49.6597368],[37.4167108,49.6538439],[37.4404366,49.651502],[37.4908324,49.6648858],[37.5082898,49.6818151],[37.5380492,49.6955549],[37.5461477,49.6958623],[37.5548317,49.6940723],[37.5635144,49.6902829],[37.5767553,49.6870315],[37.5813128,49.6900684],[37.5856521,49.6929184],[37.5907402,49.6900114],[37.5939694,49.6863365],[37.5983294,49.6853875],[37.6015383,49.6871339],[37.6048598,49.6883397],[37.6078936,49.6897196],[37.6109552,49.6912975],[37.6143744,49.6905313],[37.61471,49.6974769],[37.6189989,49.699505],[37.6171946,49.7051813],[37.6183535,49.7096834],[37.627345,49.7093801],[37.626517,49.7027892],[37.633999,49.7013823],[37.6305286,49.6972368],[37.634802,49.6902787],[37.6338477,49.6831351],[37.6364602,49.6753426],[37.6365642,49.6704465],[37.6338692,49.6682207],[37.6309768,49.6673301],[37.6375988,49.6654405],[37.6361031,49.6619398],[37.6343251,49.6584115],[37.6344658,49.6563138],[37.6379693,49.6539312],[37.6410945,49.6507391],[37.6411122,49.6488093],[37.644726,49.6455101],[37.648593,49.644527],[37.652072,49.6451469],[37.6502069,49.6532371],[37.6392423,49.7068647],[37.6378547,49.7131521]],[[37.345543,50.1540296],[37.3468704,50.1538129],[37.346535,50.154772],[37.345543,50.1540296]],[[37.1285977,50.2164698],[37.1289687,50.2164086],[37.1286339,50.2166203],[37.1285977,50.2164698]],[[37.6378518,49.7131653],[37.6378521,49.7131515],[37.6378547,49.7131521],[37.6378518,49.7131653]],[[36.9902726,50.0782094],[36.9904378,50.0782444],[36.9788036,50.0762851],[36.9902726,50.0782094]],[[36.9775191,50.0802187],[36.9781095,50.0782486],[36.9788036,50.0762851],[36.9775191,50.0802187]],[[37.1695861,49.6819699],[37.1694253,49.6820526],[37.169318,49.6819953],[37.1695861,49.6819699]],[[37.3518288,50.1648259],[37.3518609,50.1649839],[37.3515025,50.1648278],[37.3519038,50.1646884],[37.3518288,50.1648259]],[[37.1286842,50.2157058],[37.1286898,50.2155024],[37.1301439,50.2154482],[37.1302082,50.2157632],[37.1296599,50.2167028],[37.1286842,50.2157058]],[[37.0737191,50.2061337],[37.02917,50.2248552],[36.9943736,50.2310649],[36.9430579,50.2688789],[36.9175845,50.2482127],[36.9131039,50.2137357],[36.9039886,50.17409],[36.8966742,50.1591158],[36.8777353,50.1462478],[36.8850866,50.1389398],[36.881543,50.1292349],[36.9091203,50.1236133],[36.9283969,50.1220077],[36.971695,50.113674],[36.9888902,50.0958996],[36.9896006,50.085172],[37.064514,50.1012676],[37.077273,50.1710256],[37.0859343,50.2003131],[37.0737191,50.2061337]],[[36.6457165,50.0771592],[36.6453919,50.0702197],[36.6735651,50.0734649],[36.7025893,50.0796176],[36.7345714,50.0821836],[36.7518291,50.0758293],[36.7781011,50.0718882],[36.7936035,50.0789658],[36.8259958,50.0817231],[36.8187823,50.0987857],[36.819037,50.1185485],[36.8220002,50.1384976],[36.8245425,50.1457937],[36.8312057,50.1517696],[36.847655,50.1551051],[36.8477357,50.1654483],[36.8436957,50.1757915],[36.825201,50.1553944],[36.7263769,50.1692769],[36.7133016,50.1568866],[36.7038568,50.133756],[36.6950255,50.119772],[36.6615687,50.1065897],[36.638431,50.0867945],[36.6457165,50.0771592]],[[36.9938226,50.0747832],[36.9908126,50.0703022],[36.9748036,50.0665192],[36.9680004,50.0709075],[36.9684063,50.0752958],[36.9442457,50.0727156],[36.8654977,50.0745195],[36.8371678,50.0783323],[36.8417989,50.0653978],[36.8618103,50.0557225],[36.8714736,50.0405918],[36.8896903,50.0272906],[36.9147703,50.0338335],[36.9254227,50.009646],[36.984767,49.9624954],[36.984825,49.942557],[37.0068882,49.9344967],[37.03999,49.9378132],[37.0591238,49.9619186],[37.1141333,49.986436],[37.168369,49.989544],[37.1918723,50.0260921],[37.2277759,50.0889467],[37.1788783,50.0916162],[37.1683303,50.0965244],[37.158469,50.0904191],[37.1392912,50.0983793],[37.1201111,50.0953242],[37.1057797,50.1019853],[37.0616176,50.0902028],[36.9904378,50.0782444],[36.9938226,50.0747832]]],[[[38.1606314,49.1192721],[38.1731192,49.1232467],[38.1819174,49.1242152],[38.1832907,49.1619467],[38.1839773,49.2023414],[38.225176,49.215799],[38.2299826,49.2722808],[38.2341024,49.3694037],[38.1447254,49.3885592],[38.0267355,49.3823688],[38.0569479,49.3519626],[38.0699942,49.221181],[37.9841635,49.23284],[37.9525778,49.1309551],[37.9635641,49.1291579],[37.9470846,49.0887034],[37.9759237,49.0855556],[37.9992697,49.1394909],[38.0157492,49.2068277],[38.0871603,49.1956113],[38.1606314,49.1192721]]],[[[32.4430299,46.5749688],[32.4262069,46.5750869],[32.42655,46.5744986],[32.4430299,46.5749688]]],[[[33.3032363,47.3393172],[33.2206386,47.3595268],[33.22799,47.3929685],[33.2427405,47.4043975],[33.2403274,47.4135025],[33.2391164,47.424931],[33.2361145,47.4461377],[33.22221,47.4447446],[33.2230154,47.4245432],[33.2236576,47.4144708],[33.2217249,47.4073002],[33.2187646,47.3978055],[33.1886607,47.3535221],[33.1764407,47.3087705],[33.1710428,47.2480742],[33.0960352,47.2355342],[33.093828,47.2262448],[33.0981391,47.2188305],[33.1580654,47.2212006],[33.1583154,47.1906943],[33.1750498,47.156456],[33.1860819,47.1066607],[33.0680786,47.0252093],[32.9767211,46.911028],[32.8723685,46.776727],[32.8311517,46.8096129],[32.7894411,46.809852],[32.7738167,46.8237097],[32.7702013,46.8525816],[32.7940729,46.9035225],[32.7926998,46.9860271],[32.8905478,47.0602197],[33.0053484,47.1125797],[32.9959248,47.1195775],[32.9819119,47.1200544],[32.9167598,47.0983215],[32.8781384,47.0910572],[32.8415281,47.0936921],[32.8176661,47.0943364],[32.7950079,47.0936921],[32.7596456,47.0671567],[32.7597408,47.0422074],[32.7350213,46.9157187],[32.6883291,46.7936319],[32.5466708,46.7654683],[32.442987,46.7339463],[32.4318885,46.7397777],[32.4202498,46.7465364],[32.4242486,46.7536061],[32.4225575,46.7596695],[32.4174325,46.7640864],[32.4088738,46.7667392],[32.3999715,46.7668044],[32.3951037,46.764694],[32.3916096,46.7616428],[32.3822181,46.7651562],[32.3630816,46.7742961],[32.3387607,46.7784184],[32.3071007,46.8007473],[32.2435333,46.7860309],[32.2203169,46.7650752],[32.1700004,46.7544272],[32.198362,46.728113],[32.202774,46.7116911],[32.2270996,46.706682],[32.2360033,46.7007887],[32.275215,46.7044421],[32.4045544,46.6381073],[32.4282768,46.6067228],[32.4262069,46.5750869],[32.4430299,46.5749688],[32.5415638,46.5991537],[32.5896292,46.602456],[32.6239617,46.62934],[32.6500544,46.6543254],[32.71932,46.6747058],[32.718709,46.6656893],[32.7218781,46.665834],[32.7212311,46.6749468],[32.7552621,46.6732205],[32.7789515,46.6762829],[32.8089145,46.6850398],[32.8521734,46.7019947],[32.9421241,46.7396534],[33.0135357,46.7420061],[33.0458081,46.7467114],[33.0948244,46.7689457],[33.1559362,46.7884602],[33.2297509,46.7865795],[33.3056254,46.780232],[33.329229,46.7799381],[33.353533,46.7843966],[33.3474545,46.789736],[33.3563041,46.7920139],[33.3804702,46.8051475],[33.4121117,46.8296559],[33.441765,46.8417295],[33.4697108,46.8467504],[33.5085065,46.8580735],[33.5904017,46.853766],[33.5951998,46.9345465],[33.6619044,46.9998457],[33.6558935,47.0557705],[33.7471245,47.0938856],[33.7818218,47.1306919],[33.7884076,47.1861888],[33.8198671,47.198086],[33.8547659,47.2071728],[33.9003297,47.2309593],[33.912273,47.2617347],[33.9194258,47.284942],[33.953905,47.3002724],[33.9643572,47.3286375],[33.9690629,47.380581],[33.8856385,47.4183734],[33.8441039,47.4091809],[33.8355409,47.4341268],[33.7754874,47.4239825],[33.7231182,47.4201487],[33.7026823,47.3921812],[33.8185326,47.373332],[33.8262722,47.353641],[33.8008761,47.3508026],[33.8034632,47.3384265],[33.7615081,47.3330276],[33.7477074,47.3362308],[33.6945747,47.332284],[33.6744624,47.3362496],[33.6207931,47.328179],[33.6015819,47.3492496],[33.5746293,47.3462905],[33.5390865,47.3612335],[33.5859507,47.4068902],[33.5695506,47.4079811],[33.5679582,47.4190977],[33.5887922,47.4211716],[33.5878264,47.4253352],[33.5605588,47.4233079],[33.5618597,47.4093489],[33.5130311,47.3705769],[33.4545049,47.3938806],[33.4249118,47.432106],[33.4100617,47.4408278],[33.3975377,47.4566272],[33.3967056,47.4680827],[33.3967657,47.4749894],[33.3952984,47.4891605],[33.4007012,47.4976547],[33.3947744,47.505917],[33.3856642,47.5050427],[33.3810185,47.4962822],[33.377885,47.4706177],[33.368747,47.4691987],[33.3899279,47.4508482],[33.3932517,47.4434056],[33.3961733,47.4301428],[33.4020981,47.4216542],[33.3942911,47.4164174],[33.3763899,47.3971768],[33.366053,47.3746807],[33.3233588,47.35895],[33.3032363,47.3393172]],[[33.2903063,47.3266923],[33.3035269,47.339246],[33.3032363,47.3393172],[33.2903063,47.3266923]],[[33.2515299,47.3350367],[33.2424529,47.3238332],[33.2352917,47.3103786],[33.2075118,47.3112127],[33.1989951,47.2749419],[33.1967043,47.2442963],[33.239027,47.2624972],[33.2600885,47.2858152],[33.274962,47.3021367],[33.2719843,47.3065836],[33.2903063,47.3266923],[33.2515299,47.3350367]],[[33.8179136,47.3321419],[33.7562962,47.3248139],[33.7475476,47.3290554],[33.729529,47.3260815],[33.7198583,47.3184122],[33.6858151,47.3174883],[33.6762045,47.3251445],[33.6044554,47.3137018],[33.5900435,47.3229318],[33.5247914,47.3536111],[33.4766384,47.3690606],[33.4406827,47.3881473],[33.4095054,47.413035],[33.3972282,47.3958961],[33.393364,47.3914207],[33.3904409,47.3875839],[33.3789346,47.3744476],[33.3815069,47.363403],[33.3483677,47.3430499],[33.3108951,47.3123567],[33.2878449,47.2858459],[33.2362636,47.2415891],[33.2038184,47.2036788],[33.230516,47.1844883],[33.2462191,47.1606323],[33.2728507,47.1119265],[33.3049059,47.06694],[33.4206635,47.0535611],[33.5266062,46.9924992],[33.6298711,47.0885948],[33.7130757,47.1863963],[33.8103703,47.2766271],[33.8577909,47.346006],[33.8477559,47.3519631],[33.814034,47.3457759],[33.8179136,47.3321419]]]]}}]}
