{
  "type": "FeatureCollection",
  "features": [
    {
      "type": "Feature",
      "geometry": {
        "type": "Polygon",
        "coordinates": [
          [
            [
              36.274109,
              50.280564
            ],
            [
              36.326294,
              50.271788
            ],
            [
              36.381226,
              50.30513
            ],
            [
              36.46637,
              50.284074
            ],
            [
              36.532288,
              50.268277
            ],
            [
              36.535034,
              50.222609
            ],
            [
              36.622925,
              50.201517
            ],
            [
              36.653137,
              50.245448
            ],
            [
              36.809692,
              50.308638
            ],
            [
              37.048645,
              50.210307
            ],
            [
              37.400208,
              50.157546
            ],
            [
              37.652893,
              50.016564
            ],
            [
              37.795715,
              49.935312
            ],
            [
              37.614441,
              49.775943
            ],
            [
              37.570496,
              49.694285
            ],
            [
              37.460632,
              49.64807
            ],
            [
              37.339783,
              49.67296
            ],
            [
              37.120056,
              49.704944
            ],
            [
              36.949768,
              49.722704
            ],
            [
              36.735535,
              49.818493
            ],
            [
              36.687469,
              49.936196
            ],
            [
              36.557007,
              50.014799
            ],
            [
              36.346893,
              50.019211
            ],
            [
              36.309128,
              50.070803
            ],
            [
              36.219177,
              50.097679
            ],
            [
              36.146393,
              50.047439
            ],
            [
              36.022797,
              50.059784
            ],
            [
              35.503693,
              50.144346
            ],
            [
              35.017548,
              50.291971
            ],
            [
              34.902878,
              50.288023
            ],
            [
              34.853439,
              50.336258
            ],
            [
              34.886398,
              50.366051
            ],
            [
              34.885712,
              50.430393
            ],
            [
              34.867172,
              50.457067
            ],
            [
              34.871292,
              50.4929
            ],
            [
              34.920731,
              50.513863
            ],
            [
              34.902191,
              50.674706
            ],
            [
              34.924164,
              50.838034
            ],
            [
              34.910431,
              50.895238
            ],
            [
              34.84726,
              50.904765
            ],
            [
              34.774475,
              50.932902
            ],
            [
              34.656372,
              50.929007
            ],
            [
              34.654999,
              50.988692
            ],
            [
              34.608307,
              51.041394
            ],
            [
              34.477844,
              51.056071
            ],
            [
              34.383087,
              51.113006
            ],
            [
              34.314423,
              51.11042
            ],
            [
              34.240265,
              51.133693
            ],
            [
              34.107056,
              51.117317
            ],
            [
              34.057617,
              51.158677
            ],
            [
              33.9505,
              51.122489
            ],
            [
              33.802185,
              51.098348
            ],
            [
              33.652496,
              51.09576
            ],
            [
              32.55661,
              51.240426
            ],
            [
              32.177582,
              51.501049
            ],
            [
              31.537628,
              51.635919
            ],
            [
              31.433258,
              51.637624
            ],
            [
              31.3797,
              51.589869
            ],
            [
              31.164093,
              51.554021
            ],
            [
              31.065216,
              51.542065
            ],
            [
              31.015778,
              51.511307
            ],
            [
              30.829697,
              51.512589
            ],
            [
              30.744553,
              51.546762
            ],
            [
              30.7267,
              51.545054
            ],
            [
              30.570145,
              51.511734
            ],
            [
              30.566711,
              51.548897
            ],
            [
              30.524139,
              51.561705
            ],
            [
              30.510406,
              51.609489
            ],
            [
              30.558472,
              51.646998
            ],
            [
              30.572205,
              51.701502
            ],
            [
              30.61615,
              51.709161
            ],
            [
              30.618896,
              51.76699
            ],
            [
              30.665588,
              51.802671
            ],
            [
              30.709534,
              51.86886
            ],
            [
              30.768585,
              51.895986
            ],
            [
              30.811157,
              51.926484
            ],
            [
              30.823517,
              51.946804
            ],
            [
              30.894928,
              51.996719
            ],
            [
              30.916901,
              52.028838
            ],
            [
              30.94162,
              52.066845
            ],
            [
              31.131134,
              52.081194
            ],
            [
              31.213531,
              52.048268
            ],
            [
              31.25885,
              52.049112
            ],
            [
              31.320648,
              52.102288
            ],
            [
              31.387939,
              52.122528
            ],
            [
              31.441498,
              52.120842
            ],
            [
              31.632385,
              52.095539
            ],
            [
              31.81778,
              52.103131
            ],
            [
              31.879578,
              52.088789
            ],
            [
              31.900177,
              52.035597
            ],
            [
              31.950989,
              52.033908
            ],
            [
              32.003174,
              52.051646
            ],
            [
              32.093811,
              52.041511
            ],
            [
              32.261353,
              52.103131
            ],
            [
              32.305298,
              52.136017
            ],
            [
              32.321777,
              52.21518
            ],
            [
              32.367096,
              52.247983
            ],
            [
              32.338257,
              52.283282
            ],
            [
              32.341003,
              52.321911
            ],
            [
              32.379456,
              52.337017
            ],
            [
              32.468719,
              52.306799
            ],
            [
              32.540131,
              52.310997
            ],
            [
              32.724152,
              52.251346
            ],
            [
              32.835388,
              52.263955
            ],
            [
              32.950745,
              52.253868
            ],
            [
              33.041382,
              52.310997
            ],
            [
              33.074341,
              52.309318
            ],
            [
              33.080121,
              52.301148
            ],
            [
              33.093567,
              52.313516
            ],
            [
              33.172531,
              52.372665
            ],
            [
              33.265915,
              52.357571
            ],
            [
              33.372345,
              52.359667
            ],
            [
              33.427963,
              52.339115
            ],
            [
              33.473282,
              52.359248
            ],
            [
              33.495255,
              52.344988
            ],
            [
              33.500748,
              52.30386
            ],
            [
              33.53508,
              52.290423
            ],
            [
              33.622971,
              52.344988
            ],
            [
              33.734207,
              52.360925
            ],
            [
              33.798065,
              52.361345
            ],
            [
              33.833771,
              52.314356
            ],
            [
              33.907928,
              52.284122
            ],
            [
              33.955307,
              52.225696
            ],
            [
              34.028091,
              52.195402
            ],
            [
              34.086456,
              52.14276
            ],
            [
              34.05899,
              52.076974
            ],
            [
              34.072037,
              52.025036
            ],
            [
              34.102249,
              51.994605
            ],
            [
              34.109116,
              51.963308
            ],
            [
              34.185333,
              51.933259
            ],
            [
              34.232712,
              51.897258
            ],
            [
              34.234085,
              51.876915
            ],
            [
              34.282837,
              51.879882
            ],
            [
              34.40918,
              51.801822
            ],
            [
              34.417419,
              51.730431
            ],
            [
              34.389954,
              51.703204
            ],
            [
              34.28833,
              51.721924
            ],
            [
              34.230652,
              51.689585
            ],
            [
              34.129028,
              51.682348
            ],
            [
              34.094009,
              51.667019
            ],
            [
              34.080276,
              51.640607
            ],
            [
              34.093323,
              51.633788
            ],
            [
              34.136581,
              51.624411
            ],
            [
              34.155121,
              51.57963
            ],
            [
              34.202499,
              51.545908
            ],
            [
              34.225845,
              51.50746
            ],
            [
              34.219666,
              51.471547
            ],
            [
              34.212112,
              51.447588
            ],
            [
              34.218979,
              51.42533
            ],
            [
              34.209366,
              51.411199
            ],
            [
              34.183273,
              51.407344
            ],
            [
              34.185333,
              51.394922
            ],
            [
              34.218979,
              51.371352
            ],
            [
              34.245758,
              51.364064
            ],
            [
              34.271164,
              51.360634
            ],
            [
              34.295883,
              51.367494
            ],
            [
              34.306183,
              51.334044
            ],
            [
              34.28215,
              51.301857
            ],
            [
              34.245071,
              51.275662
            ],
            [
              34.191513,
              51.248593
            ],
            [
              34.27597,
              51.227098
            ],
            [
              34.334335,
              51.248163
            ],
            [
              34.39064,
              51.255899
            ],
            [
              34.51355,
              51.227098
            ],
            [
              34.571228,
              51.236987
            ],
            [
              34.610367,
              51.232258
            ],
            [
              34.62616,
              51.221077
            ],
            [
              34.646072,
              51.178052
            ],
            [
              34.673538,
              51.167719
            ],
            [
              34.745636,
              51.163414
            ],
            [
              34.817734,
              51.174177
            ],
            [
              34.906998,
              51.196558
            ],
            [
              34.948883,
              51.215056
            ],
            [
              34.974976,
              51.215056
            ],
            [
              35.001068,
              51.20043
            ],
            [
              35.066986,
              51.210755
            ],
            [
              35.096512,
              51.196558
            ],
            [
              35.115738,
              51.119903
            ],
            [
              35.140457,
              51.062544
            ],
            [
              35.17067,
              51.040962
            ],
            [
              35.16945,
              51.040537
            ],
            [
              35.172043,
              51.040099
            ],
            [
              35.214615,
              51.037508
            ],
            [
              35.27916,
              51.053049
            ],
            [
              35.343704,
              51.042689
            ],
            [
              35.356064,
              51.025417
            ],
            [
              35.338211,
              51.002954
            ],
            [
              35.27916,
              50.990853
            ],
            [
              35.287399,
              50.942421
            ],
            [
              35.318985,
              50.932902
            ],
            [
              35.342331,
              50.914723
            ],
            [
              35.342331,
              50.877477
            ],
            [
              35.37941,
              50.836733
            ],
            [
              35.378338,
              50.795068
            ],
            [
              35.417862,
              50.778589
            ],
            [
              35.446701,
              50.756007
            ],
            [
              35.445328,
              50.680362
            ],
            [
              35.4673,
              50.671659
            ],
            [
              35.386276,
              50.6438
            ],
            [
              35.373917,
              50.622895
            ],
            [
              35.439835,
              50.483289
            ],
            [
              35.478287,
              50.466683
            ],
            [
              35.519485,
              50.45969
            ],
            [
              35.555191,
              50.436079
            ],
            [
              35.559311,
              50.393199
            ],
            [
              35.57991,
              50.365175
            ],
            [
              35.643082,
              50.343269
            ],
            [
              35.69664,
              50.345899
            ],
            [
              35.736465,
              50.381816
            ],
            [
              35.774918,
              50.383567
            ],
            [
              35.828476,
              50.422956
            ],
            [
              35.958252,
              50.427768
            ],
            [
              36.123047,
              50.429518
            ],
            [
              36.147766,
              50.392761
            ],
            [
              36.186218,
              50.371744
            ],
            [
              36.274109,
              50.280564
            ]
          ]
        ]
      },
      "properties": {
        "name": "",
        "description": "",
        "zone": "1",
        "fill": "#a52714"
      }
    },
    {
      "type": "Feature",
      "geometry": {
        "type": "Polygon",
        "coordinates": [
          [
            [
              31.776581,
              47.330446
            ],
            [
              31.353607,
              47.603385
            ],
            [
              31.273956,
              47.581158
            ],
            [
              31.425018,
              47.43459
            ],
            [
              31.518402,
              47.404856
            ],
            [
              31.611786,
              47.319276
            ],
            [
              31.713409,
              47.283887
            ],
            [
              31.776581,
              47.330446
            ]
          ]
        ]
      },
      "properties": {
        "name": "",
        "description": "",
        "zone": "2",
        "fill": "#a52714"
      }
    },
    {
      "type": "Feature",
      "geometry": {
        "type": "Point",
        "coordinates": [
          32.527771,
          49.712049
        ]
      },
      "properties": {
        "name": "",
        "description": "",
        "zone": "",
        "fill": "#a52714"
      }
    },
    {
      "type": "Feature",
      "geometry": {
        "type": "Polygon",
        "coordinates": [
          [
            [
              36.727982,
              49.88269
            ],
            [
              36.653824,
              49.862333
            ],
            [
              36.65657,
              49.82691
            ],
            [
              36.716995,
              49.799439
            ],
            [
              36.774673,
              49.820708
            ],
            [
              36.727982,
              49.88269
            ]
          ]
        ]
      },
      "properties": {
        "name": "",
        "description": "",
        "zone": "4",
        "fill": "#a52714"
      }
    },
    {
      "type": "Feature",
      "geometry": {
        "type": "Polygon",
        "coordinates": [
          [
            [
              36.739655,
              49.81229
            ],
            [
              36.874237,
              49.54036
            ],
            [
              36.778107,
              49.486862
            ],
            [
              36.846771,
              49.429733
            ],
            [
              37.00882,
              49.377902
            ],
            [
              37.290344,
              49.208626
            ],
            [
              37.503204,
              49.351072
            ],
            [
              37.555389,
              49.417227
            ],
            [
              37.621307,
              49.456521
            ],
            [
              37.695465,
              49.538578
            ],
            [
              37.585602,
              49.705832
            ],
            [
              37.470245,
              49.650737
            ],
            [
              36.951141,
              49.718264
            ],
            [
              36.739655,
              49.81229
            ]
          ]
        ]
      },
      "properties": {
        "name": "",
        "description": "",
        "zone": "2",
        "fill": "#a52714"
      }
    },
    {
      "type": "Feature",
      "geometry": {
        "type": "Polygon",
        "coordinates": [
          [
            [
              32.56485,
              51.240426
            ],
            [
              31.663971,
              51.147479
            ],
            [
              31.161346,
              51.090585
            ],
            [
              30.897675,
              50.964481
            ],
            [
              30.947113,
              50.938527
            ],
            [
              31.131134,
              51.023258
            ],
            [
              31.078949,
              50.955832
            ],
            [
              31.172333,
              50.94545
            ],
            [
              31.202545,
              51.04053
            ],
            [
              31.457977,
              51.083685
            ],
            [
              31.381073,
              50.97313
            ],
            [
              31.400299,
              50.770339
            ],
            [
              31.606293,
              50.620717
            ],
            [
              31.257477,
              50.601545
            ],
            [
              31.107101,
              50.555761
            ],
            [
              30.93956,
              50.572336
            ],
            [
              30.93544,
              50.640317
            ],
            [
              30.732193,
              50.595879
            ],
            [
              30.708847,
              50.56623
            ],
            [
              30.759659,
              50.577568
            ],
            [
              30.869522,
              50.523468
            ],
            [
              31.04805,
              50.484163
            ],
            [
              31.313095,
              50.47455
            ],
            [
              31.431198,
              50.335381
            ],
            [
              31.514969,
              50.320477
            ],
            [
              31.501236,
              50.444825
            ],
            [
              31.636505,
              50.50906
            ],
            [
              32.485199,
              50.58934
            ],
            [
              33.149872,
              50.707765
            ],
            [
              33.490448,
              50.752097
            ],
            [
              33.64151,
              50.715591
            ],
            [
              33.663483,
              50.748622
            ],
            [
              33.572845,
              50.800727
            ],
            [
              33.506927,
              50.948045
            ],
            [
              33.666229,
              51.094036
            ],
            [
              32.56485,
              51.240426
            ]
          ]
        ]
      },
      "properties": {
        "name": "",
        "description": "",
        "zone": "2",
        "fill": "#a52714"
      }
    },
    {
      "type": "Feature",
      "geometry": {
        "type": "Point",
        "coordinates": [
          34.593201,
          49.651626
        ]
      },
      "properties": {
        "name": "",
        "description": "",
        "zone": "",
        "fill": "#a52714"
      }
    },
    {
      "type": "Feature",
      "geometry": {
        "type": "Point",
        "coordinates": [
          36.44989,
          49.988318
        ]
      },
      "properties": {
        "name": "",
        "description": "",
        "zone": "",
        "fill": "#a52714"
      }
    },
    {
      "type": "Feature",
      "geometry": {
        "type": "Polygon",
        "coordinates": [
          [
            [
              34.740143,
              50.496831
            ],
            [
              34.567108,
              50.594571
            ],
            [
              34.490204,
              50.612003
            ],
            [
              34.479218,
              50.582365
            ],
            [
              34.704437,
              50.46712
            ],
            [
              34.858246,
              50.442638
            ],
            [
              34.874725,
              50.486347
            ],
            [
              34.740143,
              50.496831
            ]
          ]
        ]
      },
      "properties": {
        "name": "",
        "description": "",
        "zone": "2",
        "fill": "#a52714"
      }
    },
    {
      "type": "Feature",
      "geometry": {
        "type": "Polygon",
        "coordinates": [
          [
            [
              34.850006,
              50.335819
            ],
            [
              34.679718,
              50.346337
            ],
            [
              34.542389,
              50.306007
            ],
            [
              34.257431,
              50.383567
            ],
            [
              34.012985,
              50.35729
            ],
            [
              34.331589,
              50.334504
            ],
            [
              34.339828,
              50.267838
            ],
            [
              34.401627,
              50.190528
            ],
            [
              34.880905,
              50.302937
            ],
            [
              34.850006,
              50.335819
            ]
          ]
        ]
      },
      "properties": {
        "name": "",
        "description": "",
        "zone": "2",
        "fill": "#a52714"
      }
    },
    {
      "type": "Feature",
      "geometry": {
        "type": "Polygon",
        "coordinates": [
          [
            [
              36.13472,
              50.032004
            ],
            [
              35.721359,
              50.361671
            ],
            [
              35.737152,
              50.391886
            ],
            [
              35.786591,
              50.388383
            ],
            [
              35.827789,
              50.435641
            ],
            [
              35.866241,
              50.432142
            ],
            [
              36.199265,
              50.027593
            ],
            [
              36.13472,
              50.032004
            ]
          ]
        ]
      },
      "properties": {
        "zone": "4",
        "name": "",
        "description": "",
        "fill": "#a52714"
      }
    },
    {
      "type": "Feature",
      "geometry": {
        "type": "Point",
        "coordinates": [
          34.917297,
          50.793783
        ]
      },
      "properties": {
        "name": "",
        "description": "",
        "zone": "",
        "fill": "#a52714"
      }
    },
    {
      "type": "Feature",
      "geometry": {
        "type": "Point",
        "coordinates": [
          35.351257,
          47.803931
        ]
      },
      "properties": {
        "name": "",
        "description": "",
        "zone": "",
        "fill": "#a52714"
      }
    },
    {
      "type": "Feature",
      "geometry": {
        "type": "Point",
        "coordinates": [
          37.710571,
          47.890564
        ]
      },
      "properties": {
        "name": "",
        "description": "",
        "zone": "",
        "fill": "#a52714"
      }
    },
    {
      "type": "Feature",
      "geometry": {
        "type": "Polygon",
        "coordinates": [
          [
            [
              37.827301,
              48.163337
            ],
            [
              37.744904,
              48.26217
            ],
            [
              37.552643,
              48.295072
            ],
            [
              37.591095,
              48.231077
            ],
            [
              37.725677,
              48.198134
            ],
            [
              37.777863,
              48.130351
            ],
            [
              37.827301,
              48.163337
            ]
          ]
        ]
      },
      "properties": {
        "name": "",
        "description": "",
        "zone": "2",
        "fill": "#a52714"
      }
    },
    {
      "type": "Feature",
      "geometry": {
        "type": "Polygon",
        "coordinates": [
          [
            [
              38.544159,
              49.09815
            ],
            [
              38.409576,
              49.096351
            ],
            [
              38.222809,
              49.231051
            ],
            [
              38.003082,
              49.236431
            ],
            [
              37.961884,
              49.144885
            ],
            [
              38.178864,
              49.148479
            ],
            [
              38.242035,
              49.04777
            ],
            [
              38.445282,
              48.99013
            ],
            [
              38.464508,
              49.038768
            ],
            [
              38.544159,
              49.09815
            ]
          ]
        ]
      },
      "properties": {
        "name": "",
        "description": "",
        "zone": "3",
        "fill": "#a52714"
      }
    },
    {
      "type": "Feature",
      "geometry": {
        "type": "Point",
        "coordinates": [
          38.512573,
          48.91167
        ]
      },
      "properties": {
        "name": "",
        "description": "",
        "zone": "",
        "fill": "#a52714"
      }
    },
    {
      "type": "Feature",
      "geometry": {
        "type": "Point",
        "coordinates": [
          34.972229,
          48.507507
        ]
      },
      "properties": {
        "name": "",
        "description": "",
        "zone": "",
        "fill": "#a52714"
      }
    },
    {
      "type": "Feature",
      "geometry": {
        "type": "Polygon",
        "coordinates": [
          [
            [
              39.664764,
              49.60982
            ],
            [
              39.60434,
              49.640067
            ],
            [
              39.585114,
              49.723591
            ],
            [
              39.467011,
              49.736019
            ],
            [
              39.335175,
              49.730693
            ],
            [
              39.37088,
              49.641845
            ],
            [
              39.461517,
              49.615159
            ],
            [
              39.434052,
              49.551053
            ],
            [
              39.502716,
              49.547489
            ],
            [
              39.598846,
              49.579555
            ],
            [
              39.664764,
              49.60982
            ]
          ]
        ]
      },
      "properties": {
        "name": "",
        "description": "",
        "zone": "2",
        "fill": "#a52714"
      }
    },
    {
      "type": "Feature",
      "geometry": {
        "type": "Point",
        "coordinates": [
          33.961487,
          46.824496
        ]
      },
      "properties": {
        "name": "",
        "description": "",
        "zone": "",
        "fill": "#a52714"
      }
    },
    {
      "type": "Feature",
      "geometry": {
        "type": "Polygon",
        "coordinates": [
          [
            [
              33.059235,
              46.037969
            ],
            [
              33.034515,
              46.007455
            ],
            [
              32.644501,
              46.049408
            ],
            [
              32.880707,
              46.055126
            ],
            [
              32.971344,
              46.060844
            ],
            [
              33.059235,
              46.037969
            ]
          ]
        ]
      },
      "properties": {
        "name": "",
        "description": "",
        "zone": "1",
        "fill": "#a52714"
      }
    },
    {
      "type": "Feature",
      "geometry": {
        "type": "Point",
        "coordinates": [
          32.704926,
          46.364936
        ]
      },
      "properties": {
        "name": "",
        "description": "",
        "zone": "",
        "fill": "#a52714"
      }
    },
    {
      "type": "Feature",
      "geometry": {
        "type": "Polygon",
        "coordinates": [
          [
            [
              32.644501,
              46.049408
            ],
            [
              33.034515,
              46.007455
            ],
            [
              33.059235,
              46.037969
            ],
            [
              32.971344,
              46.060844
            ],
            [
              32.880707,
              46.055126
            ],
            [
              32.644501,
              46.049408
            ]
          ]
        ]
      },
      "properties": {
        "name": "",
        "description": "",
        "zone": "1",
        "fill": "#a52714"
      }
    },
    {
      "type": "Feature",
      "geometry": {
        "type": "Polygon",
        "coordinates": [
          [
            [
              37.437973,
              47.604774
            ],
            [
              37.429733,
              47.578842
            ],
            [
              37.251205,
              47.510244
            ],
            [
              37.284164,
              47.522765
            ],
            [
              37.216873,
              47.532038
            ],
            [
              37.216873,
              47.562627
            ],
            [
              36.89003,
              47.680183
            ],
            [
              36.977921,
              47.722697
            ],
            [
              37.056198,
              47.705141
            ],
            [
              37.086411,
              47.74117
            ],
            [
              36.960068,
              47.779021
            ],
            [
              36.809006,
              47.760561
            ],
            [
              36.806259,
              47.67371
            ],
            [
              36.844711,
              47.63856
            ],
            [
              37.245712,
              47.461058
            ],
            [
              37.295151,
              47.481017
            ],
            [
              37.414627,
              47.201843
            ],
            [
              37.632294,
              47.245678
            ],
            [
              37.621307,
              47.41322
            ],
            [
              37.799149,
              47.432732
            ],
            [
              37.799149,
              47.519983
            ],
            [
              37.75383,
              47.540383
            ],
            [
              37.829361,
              47.614496
            ],
            [
              37.730484,
              47.610792
            ],
            [
              37.656326,
              47.632082
            ],
            [
              37.469559,
              47.586252
            ],
            [
              37.437973,
              47.604774
            ]
          ]
        ]
      },
      "properties": {
        "name": "",
        "description": "",
        "zone": "3",
        "fill": "#a52714"
      }
    },
    {
      "type": "Feature",
      "geometry": {
        "type": "Polygon",
        "coordinates": [
          [
            [
              35.591583,
              47.402067
            ],
            [
              35.814743,
              47.496792
            ],
            [
              35.758438,
              47.58301
            ],
            [
              35.820236,
              47.597829
            ],
            [
              36.031723,
              47.588568
            ],
            [
              36.241837,
              47.610792
            ],
            [
              36.252823,
              47.707913
            ],
            [
              36.364059,
              47.676484
            ],
            [
              36.286469,
              47.591346
            ],
            [
              36.286469,
              47.433661
            ],
            [
              36.217804,
              47.23076
            ],
            [
              36.025543,
              47.260592
            ],
            [
              35.879974,
              47.268048
            ],
            [
              35.715179,
              47.307172
            ],
            [
              35.654755,
              47.359293
            ],
            [
              35.591583,
              47.402067
            ]
          ]
        ]
      },
      "properties": {
        "name": "",
        "description": "",
        "zone": "3",
        "fill": "#a52714"
      }
    },
    {
      "type": "Feature",
      "geometry": {
        "type": "Point",
        "coordinates": [
          34.665897,
          47.606624
        ]
      },
      "properties": {
        "name": "",
        "description": "",
        "zone": "",
        "fill": "#a52714"
      }
    },
    {
      "type": "Feature",
      "geometry": {
        "type": "Point",
        "coordinates": [
          37.493591,
          47.240084
        ]
      },
      "properties": {
        "name": "",
        "description": "",
        "zone": "",
        "fill": "#a52714"
      }
    },
    {
      "type": "Feature",
      "geometry": {
        "type": "Point",
        "coordinates": [
          30.701294,
          50.461001
        ]
      },
      "properties": {
        "name": "",
        "description": "",
        "zone": "",
        "fill": "#a52714"
      }
    },
    {
      "type": "Feature",
      "geometry": {
        "type": "Polygon",
        "coordinates": [
          [
            [
              29.809341,
              50.480667
            ],
            [
              29.919205,
              50.463187
            ],
            [
              30.045547,
              50.51037
            ],
            [
              30.094986,
              50.51037
            ],
            [
              30.235062,
              50.526087
            ],
            [
              30.303726,
              50.554889
            ],
            [
              30.306473,
              50.588904
            ],
            [
              30.174637,
              50.615053
            ],
            [
              30.196609,
              50.648154
            ],
            [
              30.268021,
              50.641188
            ],
            [
              30.251541,
              50.721243
            ],
            [
              30.360031,
              50.735151
            ],
            [
              30.377884,
              50.810708
            ],
            [
              30.122452,
              50.823722
            ],
            [
              29.809341,
              50.480667
            ]
          ]
        ]
      },
      "properties": {
        "name": "",
        "description": "",
        "zone": "2",
        "fill": "#a52714"
      }
    },
    {
      "type": "Feature",
      "geometry": {
        "type": "Polygon",
        "coordinates": [
          [
            [
              29.329376,
              51.370066
            ],
            [
              29.376068,
              51.395778
            ],
            [
              29.457092,
              51.385495
            ],
            [
              29.509277,
              51.436032
            ],
            [
              29.572449,
              51.453151
            ],
            [
              29.609528,
              51.485659
            ],
            [
              29.690552,
              51.491645
            ],
            [
              29.733124,
              51.443737
            ],
            [
              29.838867,
              51.430896
            ],
            [
              29.885559,
              51.459997
            ],
            [
              29.921265,
              51.458285
            ],
            [
              29.970703,
              51.471119
            ],
            [
              30.035248,
              51.485659
            ],
            [
              30.180817,
              51.483949
            ],
            [
              30.249481,
              51.422333
            ],
            [
              30.331879,
              51.405203
            ],
            [
              30.312653,
              51.340049
            ],
            [
              30.38681,
              51.286829
            ],
            [
              30.433502,
              51.291982
            ],
            [
              30.471954,
              51.255899
            ],
            [
              30.531693,
              51.240856
            ],
            [
              30.526199,
              51.171164
            ],
            [
              30.436935,
              50.882676
            ],
            [
              30.377884,
              50.80984
            ],
            [
              30.121078,
              50.825457
            ],
            [
              29.802475,
              50.476298
            ],
            [
              29.614334,
              50.525214
            ],
            [
              29.999542,
              50.91429
            ],
            [
              29.667206,
              50.961022
            ],
            [
              29.580002,
              51.030599
            ],
            [
              29.522324,
              51.129815
            ],
            [
              29.419327,
              51.293271
            ],
            [
              29.387054,
              51.350343
            ],
            [
              29.329376,
              51.370066
            ]
          ]
        ]
      },
      "properties": {
        "name": "",
        "description": "",
        "zone": "1",
        "fill": "#a52714"
      }
    },
    {
      "type": "Feature",
      "geometry": {
        "type": "Polygon",
        "coordinates": [
          [
            [
              29.401474,
              51.264063
            ],
            [
              29.53743,
              51.025417
            ],
            [
              29.562836,
              50.818951
            ],
            [
              29.617767,
              50.808538
            ],
            [
              29.650726,
              50.964481
            ],
            [
              29.577255,
              51.031463
            ],
            [
              29.431686,
              51.270078
            ],
            [
              29.401474,
              51.264063
            ]
          ]
        ]
      },
      "properties": {
        "name": "",
        "description": "",
        "zone": "2",
        "fill": "#a52714"
      }
    },
    {
      "type": "Feature",
      "geometry": {
        "type": "Point",
        "coordinates": [
          30.184937,
          50.614617
        ]
      },
      "properties": {
        "name": "",
        "description": "",
        "zone": "",
        "fill": "#a52714"
      }
    },
    {
      "type": "Feature",
      "geometry": {
        "type": "Polygon",
        "coordinates": [
          [
            [
              28.799286,
              51.286829
            ],
            [
              29.230499,
              51.471974
            ],
            [
              29.230499,
              51.540356
            ],
            [
              29.178314,
              51.576216
            ],
            [
              29.159088,
              51.613753
            ],
            [
              29.062958,
              51.637624
            ],
            [
              28.972321,
              51.564266
            ],
            [
              28.856964,
              51.559144
            ],
            [
              28.749847,
              51.49421
            ],
            [
              28.738861,
              51.417195
            ],
            [
              28.661957,
              51.439457
            ],
            [
              28.615265,
              51.548897
            ],
            [
              28.455963,
              51.574509
            ],
            [
              28.326874,
              51.524979
            ],
            [
              28.222504,
              51.370923
            ],
            [
              28.799286,
              51.286829
            ]
          ]
        ]
      },
      "properties": {
        "name": "",
        "description": "",
        "zone": "2",
        "fill": "#a52714"
      }
    },
    {
      "type": "Feature",
      "geometry": {
        "type": "Point",
        "coordinates": [
          30.613403,
          50.691238
        ]
      },
      "properties": {
        "name": "",
        "description": "",
        "zone": "",
        "fill": "#a52714"
      }
    },
    {
      "type": "Feature",
      "geometry": {
        "type": "Point",
        "coordinates": [
          31.305542,
          51.402633
        ]
      },
      "properties": {
        "name": "",
        "description": "",
        "zone": "",
        "fill": "#a52714"
      }
    },
    {
      "type": "Feature",
      "geometry": {
        "type": "Point",
        "coordinates": [
          28.855591,
          50.257742
        ]
      },
      "properties": {
        "name": "",
        "description": "",
        "zone": "",
        "fill": "#a52714"
      }
    },
    {
      "type": "Feature",
      "geometry": {
        "type": "Polygon",
        "coordinates": [
          [
            [
              29.617081,
              50.525214
            ],
            [
              29.556656,
              50.47455
            ],
            [
              29.861526,
              50.277493
            ],
            [
              29.931564,
              50.279248
            ],
            [
              29.931564,
              50.359918
            ],
            [
              30.136185,
              50.401953
            ],
            [
              30.16777,
              50.440452
            ],
            [
              29.787369,
              50.415081
            ],
            [
              29.803848,
              50.477172
            ],
            [
              29.617081,
              50.525214
            ]
          ]
        ]
      },
      "properties": {
        "name": "",
        "description": "",
        "zone": "2",
        "fill": "#a52714"
      }
    },
    {
      "type": "Feature",
      "geometry": {
        "type": "Point",
        "coordinates": [
          30.042114,
          49.42884
        ]
      },
      "properties": {
        "name": "",
        "description": "",
        "zone": "",
        "fill": "#a52714"
      }
    },
    {
      "type": "Feature",
      "geometry": {
        "type": "Point",
        "coordinates": [
          30.209656,
          50.108249
        ]
      },
      "properties": {
        "name": "",
        "description": "",
        "zone": "",
        "fill": "#a52714"
      }
    },
    {
      "type": "Feature",
      "geometry": {
        "type": "Polygon",
        "coordinates": [
          [
            [
              33.618851,
              46.138928
            ],
            [
              33.640823,
              46.142734
            ],
            [
              33.614731,
              46.228303
            ],
            [
              33.64769,
              46.225453
            ],
            [
              33.687515,
              46.200745
            ],
            [
              33.730087,
              46.185535
            ],
            [
              33.787766,
              46.204547
            ],
            [
              33.859177,
              46.198844
            ],
            [
              33.914108,
              46.163663
            ],
            [
              34.045944,
              46.107517
            ],
            [
              34.07341,
              46.115134
            ],
            [
              34.140701,
              46.0999
            ],
            [
              34.150314,
              46.082757
            ],
            [
              34.197006,
              46.059891
            ],
            [
              34.250565,
              46.050361
            ],
            [
              34.319229,
              46.058938
            ],
            [
              34.360428,
              46.044642
            ],
            [
              34.408493,
              45.991237
            ],
            [
              34.420853,
              45.968334
            ],
            [
              34.466171,
              45.943511
            ],
            [
              34.500504,
              45.940646
            ],
            [
              34.527969,
              45.954969
            ],
            [
              34.545822,
              45.981695
            ],
            [
              34.576035,
              45.994099
            ],
            [
              34.633713,
              45.979787
            ],
            [
              34.744949,
              45.9053
            ],
            [
              34.793015,
              45.900522
            ],
            [
              34.806747,
              45.871844
            ],
            [
              34.793015,
              45.850804
            ],
            [
              34.794388,
              45.812529
            ],
            [
              34.868546,
              45.789552
            ],
            [
              34.959183,
              45.753152
            ],
            [
              34.978409,
              45.762733
            ],
            [
              35.086212,
              45.622682
            ],
            [
              35.294952,
              45.395557
            ],
            [
              35.484467,
              45.291313
            ],
            [
              35.693207,
              45.328013
            ],
            [
              35.783844,
              45.409056
            ],
            [
              35.81955,
              45.466873
            ],
            [
              35.874481,
              45.470725
            ],
            [
              35.858002,
              45.416768
            ],
            [
              35.987091,
              45.3589
            ],
            [
              36.033783,
              45.376267
            ],
            [
              36.074982,
              45.426407
            ],
            [
              36.1409,
              45.461094
            ],
            [
              36.24527,
              45.464947
            ],
            [
              36.297455,
              45.474577
            ],
            [
              36.319427,
              45.439899
            ],
            [
              36.35788,
              45.455314
            ],
            [
              36.412811,
              45.434117
            ],
            [
              36.484222,
              45.441826
            ],
            [
              36.533661,
              45.412912
            ],
            [
              36.580353,
              45.426407
            ],
            [
              36.613312,
              45.395557
            ],
            [
              36.643524,
              45.35118
            ],
            [
              36.585846,
              45.329944
            ],
            [
              36.528168,
              45.343459
            ],
            [
              36.484222,
              45.333806
            ],
            [
              36.497269,
              45.308217
            ],
            [
              36.490402,
              45.287931
            ],
            [
              36.442337,
              45.27537
            ],
            [
              36.418991,
              45.217357
            ],
            [
              36.416245,
              45.133133
            ],
            [
              36.45607,
              45.098246
            ],
            [
              36.44371,
              45.066247
            ],
            [
              36.365433,
              45.051696
            ],
            [
              36.272049,
              45.045874
            ],
            [
              36.248703,
              45.012875
            ],
            [
              36.204758,
              45.00802
            ],
            [
              36.13884,
              45.01967
            ],
            [
              36.066055,
              45.048785
            ],
            [
              36.031723,
              45.041023
            ],
            [
              35.998764,
              44.994426
            ],
            [
              35.919113,
              45.000253
            ],
            [
              35.838089,
              44.995397
            ],
            [
              35.820236,
              45.00705
            ],
            [
              35.818863,
              45.030347
            ],
            [
              35.768051,
              45.070126
            ],
            [
              35.680161,
              45.107939
            ],
            [
              35.556564,
              45.122475
            ],
            [
              35.468674,
              45.103092
            ],
            [
              35.402756,
              45.066247
            ],
            [
              35.401382,
              45.027436
            ],
            [
              35.431595,
              45.020641
            ],
            [
              35.431595,
              45.003166
            ],
            [
              35.38353,
              45.000253
            ],
            [
              35.368423,
              44.985685
            ],
            [
              35.37117,
              44.946819
            ],
            [
              35.318985,
              44.962369
            ],
            [
              35.27092,
              44.965284
            ],
            [
              35.251694,
              44.940987
            ],
            [
              35.221481,
              44.916681
            ],
            [
              35.16243,
              44.901119
            ],
            [
              35.128098,
              44.871929
            ],
            [
              35.111618,
              44.822273
            ],
            [
              35.077286,
              44.792069
            ],
            [
              35.036087,
              44.796942
            ],
            [
              35.011368,
              44.832013
            ],
            [
              34.94133,
              44.840778
            ],
            [
              34.898758,
              44.820325
            ],
            [
              34.864426,
              44.824221
            ],
            [
              34.83696,
              44.815454
            ],
            [
              34.771042,
              44.822273
            ],
            [
              34.722977,
              44.812532
            ],
            [
              34.674911,
              44.785247
            ],
            [
              34.61174,
              44.760874
            ],
            [
              34.538956,
              44.755023
            ],
            [
              34.464798,
              44.724784
            ],
            [
              34.376907,
              44.614423
            ],
            [
              34.328842,
              44.543995
            ],
            [
              34.275284,
              44.542037
            ],
            [
              34.236832,
              44.500913
            ],
            [
              34.180527,
              44.488178
            ],
            [
              34.151688,
              44.446036
            ],
            [
              34.103622,
              44.421521
            ],
            [
              34.066544,
              44.418578
            ],
            [
              33.967667,
              44.383256
            ],
            [
              33.931961,
              44.375404
            ],
            [
              33.845444,
              44.399939
            ],
            [
              33.743134,
              44.391598
            ],
            [
              33.64151,
              44.432799
            ],
            [
              33.586578,
              44.495526
            ],
            [
              33.509674,
              44.489648
            ],
            [
              33.386078,
              44.564056
            ],
            [
              33.375092,
              44.587533
            ],
            [
              33.443756,
              44.614912
            ],
            [
              33.512421,
              44.605135
            ],
            [
              33.572845,
              44.612956
            ],
            [
              33.52066,
              44.630551
            ],
            [
              33.515167,
              44.661816
            ],
            [
              33.54332,
              44.689647
            ],
            [
              33.541946,
              44.732589
            ],
            [
              33.519974,
              44.786221
            ],
            [
              33.557053,
              44.84662
            ],
            [
              33.599625,
              44.86317
            ],
            [
              33.622971,
              44.899173
            ],
            [
              33.620224,
              44.945847
            ],
            [
              33.603745,
              45.005108
            ],
            [
              33.585892,
              45.024524
            ],
            [
              33.563919,
              45.096307
            ],
            [
              33.452682,
              45.164127
            ],
            [
              33.389511,
              45.194135
            ],
            [
              33.344193,
              45.181553
            ],
            [
              33.259048,
              45.155411
            ],
            [
              33.212357,
              45.190264
            ],
            [
              33.173904,
              45.196071
            ],
            [
              33.094254,
              45.247338
            ],
            [
              33.076401,
              45.277302
            ],
            [
              33.046188,
              45.286965
            ],
            [
              32.948685,
              45.342976
            ],
            [
              32.866287,
              45.361313
            ],
            [
              32.722092,
              45.361313
            ],
            [
              32.676773,
              45.320772
            ],
            [
              32.593002,
              45.319806
            ],
            [
              32.557297,
              45.332358
            ],
            [
              32.509232,
              45.341046
            ],
            [
              32.481766,
              45.413394
            ],
            [
              32.499619,
              45.438454
            ],
            [
              32.650681,
              45.523187
            ],
            [
              32.708359,
              45.53377
            ],
            [
              32.735825,
              45.548198
            ],
            [
              32.76329,
              45.570313
            ],
            [
              32.812729,
              45.562622
            ],
            [
              32.834702,
              45.578003
            ],
            [
              32.831955,
              45.60395
            ],
            [
              32.88414,
              45.642368
            ],
            [
              33.120346,
              45.728712
            ],
            [
              33.153305,
              45.737339
            ],
            [
              33.178024,
              45.755547
            ],
            [
              33.156052,
              45.771834
            ],
            [
              33.172531,
              45.788115
            ],
            [
              33.227463,
              45.753631
            ],
            [
              33.265915,
              45.756505
            ],
            [
              33.373032,
              45.794818
            ],
            [
              33.401871,
              45.826407
            ],
            [
              33.476028,
              45.854152
            ],
            [
              33.513107,
              45.842673
            ],
            [
              33.557053,
              45.852239
            ],
            [
              33.574905,
              45.87041
            ],
            [
              33.613358,
              45.884751
            ],
            [
              33.64357,
              45.87519
            ],
            [
              33.660049,
              45.856065
            ],
            [
              33.690262,
              45.864672
            ],
            [
              33.697128,
              45.907689
            ],
            [
              33.773346,
              45.925364
            ],
            [
              33.679962,
              45.961652
            ],
            [
              33.622284,
              45.944466
            ],
            [
              33.611298,
              46.045595
            ],
            [
              33.64975,
              46.089424
            ],
            [
              33.618851,
              46.138928
            ]
          ]
        ]
      },
      "properties": {
        "name": "",
        "description": "",
        "zone": "1",
        "fill": "#a52714"
      }
    },
    {
      "type": "Feature",
      "geometry": {
        "type": "Polygon",
        "coordinates": [
          [
            [
              37.554016,
              47.086956
            ],
            [
              37.284851,
              46.873336
            ],
            [
              37.21344,
              46.929634
            ],
            [
              36.912689,
              46.844225
            ],
            [
              36.805573,
              46.710678
            ],
            [
              36.745148,
              46.767147
            ],
            [
              36.657257,
              46.784076
            ],
            [
              36.519928,
              46.763384
            ],
            [
              36.390839,
              46.721976
            ],
            [
              36.280975,
              46.627749
            ],
            [
              36.239777,
              46.618318
            ],
            [
              36.201324,
              46.663575
            ],
            [
              36.066742,
              46.672999
            ],
            [
              35.932159,
              46.663575
            ],
            [
              35.105438,
              46.294764
            ],
            [
              35.042267,
              46.258695
            ],
            [
              34.910431,
              46.239702
            ],
            [
              34.806061,
              46.176978
            ],
            [
              34.83078,
              46.064656
            ],
            [
              34.863739,
              45.933005
            ],
            [
              34.978409,
              45.762733
            ],
            [
              34.959183,
              45.753152
            ],
            [
              34.868546,
              45.789552
            ],
            [
              34.794388,
              45.812529
            ],
            [
              34.793015,
              45.850804
            ],
            [
              34.806747,
              45.871844
            ],
            [
              34.793015,
              45.900522
            ],
            [
              34.744949,
              45.9053
            ],
            [
              34.633713,
              45.979787
            ],
            [
              34.576035,
              45.994099
            ],
            [
              34.545822,
              45.981695
            ],
            [
              34.527969,
              45.954969
            ],
            [
              34.500504,
              45.940646
            ],
            [
              34.466171,
              45.943511
            ],
            [
              34.420853,
              45.968334
            ],
            [
              34.408493,
              45.991237
            ],
            [
              34.360428,
              46.044642
            ],
            [
              34.319229,
              46.058938
            ],
            [
              34.250565,
              46.050361
            ],
            [
              34.197006,
              46.059891
            ],
            [
              34.150314,
              46.082757
            ],
            [
              34.140701,
              46.0999
            ],
            [
              34.07341,
              46.115134
            ],
            [
              34.045944,
              46.107517
            ],
            [
              33.914108,
              46.163663
            ],
            [
              33.859177,
              46.198844
            ],
            [
              33.787766,
              46.204547
            ],
            [
              33.730087,
              46.185535
            ],
            [
              33.687515,
              46.200745
            ],
            [
              33.64769,
              46.225453
            ],
            [
              33.614731,
              46.228303
            ],
            [
              33.640823,
              46.142734
            ],
            [
              33.618851,
              46.138928
            ],
            [
              33.54538,
              46.110374
            ],
            [
              33.493195,
              46.060844
            ],
            [
              33.42453,
              46.05322
            ],
            [
              33.353119,
              46.102757
            ],
            [
              33.298187,
              46.091329
            ],
            [
              33.284454,
              46.131315
            ],
            [
              33.21579,
              46.131315
            ],
            [
              33.22403,
              46.213101
            ],
            [
              33.174591,
              46.140831
            ],
            [
              33.0867,
              46.114182
            ],
            [
              33.004303,
              46.133218
            ],
            [
              32.905426,
              46.100852
            ],
            [
              32.740631,
              46.119893
            ],
            [
              32.496185,
              46.068467
            ],
            [
              32.232513,
              46.133218
            ],
            [
              32.213287,
              46.188388
            ],
            [
              32.117157,
              46.216902
            ],
            [
              32.040253,
              46.26819
            ],
            [
              31.966095,
              46.260594
            ],
            [
              31.90567,
              46.302355
            ],
            [
              31.820526,
              46.283377
            ],
            [
              31.765594,
              46.332706
            ],
            [
              31.908417,
              46.353563
            ],
            [
              31.988068,
              46.355459
            ],
            [
              32.062225,
              46.399041
            ],
            [
              32.015533,
              46.455835
            ],
            [
              31.949615,
              46.452051
            ],
            [
              31.721649,
              46.497447
            ],
            [
              31.683197,
              46.444481
            ],
            [
              31.515656,
              46.576799
            ],
            [
              31.633759,
              46.546583
            ],
            [
              31.771088,
              46.554139
            ],
            [
              31.853485,
              46.520131
            ],
            [
              32.032013,
              46.51257
            ],
            [
              32.100677,
              46.514461
            ],
            [
              32.218781,
              46.495556
            ],
            [
              32.323151,
              46.467187
            ],
            [
              32.403488,
              46.485629
            ],
            [
              32.418594,
              46.527217
            ],
            [
              32.504425,
              46.586238
            ],
            [
              32.614288,
              46.608884
            ],
            [
              32.644501,
              46.667345
            ],
            [
              32.534637,
              46.680537
            ],
            [
              32.501678,
              46.620204
            ],
            [
              32.416534,
              46.563582
            ],
            [
              32.312164,
              46.55225
            ],
            [
              32.240753,
              46.599449
            ],
            [
              32.144623,
              46.561693
            ],
            [
              32.103424,
              46.605111
            ],
            [
              31.988068,
              46.650379
            ],
            [
              31.924896,
              46.776552
            ],
            [
              32.070465,
              46.80476
            ],
            [
              32.147369,
              46.87803
            ],
            [
              32.163849,
              46.956824
            ],
            [
              32.075958,
              47.04299
            ],
            [
              31.91391,
              47.078539
            ],
            [
              31.834259,
              47.138359
            ],
            [
              31.815033,
              47.190646
            ],
            [
              31.746368,
              47.220501
            ],
            [
              31.746368,
              47.272707
            ],
            [
              31.721649,
              47.283887
            ],
            [
              31.784821,
              47.332308
            ],
            [
              32.334137,
              46.936199
            ],
            [
              32.520905,
              46.883662
            ],
            [
              32.699432,
              47.001797
            ],
            [
              32.910919,
              47.01678
            ],
            [
              33.185577,
              46.926821
            ],
            [
              33.366852,
              46.894924
            ],
            [
              33.490448,
              46.821677
            ],
            [
              33.63327,
              46.823556
            ],
            [
              33.663483,
              46.896801
            ],
            [
              33.696442,
              46.921193
            ],
            [
              33.715668,
              46.999924
            ],
            [
              33.828278,
              47.08228
            ],
            [
              33.869476,
              47.143963
            ],
            [
              33.949127,
              47.175712
            ],
            [
              33.990326,
              47.220501
            ],
            [
              33.995819,
              47.267116
            ],
            [
              34.020538,
              47.330446
            ],
            [
              34.050751,
              47.421583
            ],
            [
              34.144135,
              47.416008
            ],
            [
              34.207306,
              47.419725
            ],
            [
              34.259491,
              47.436448
            ],
            [
              34.325409,
              47.436448
            ],
            [
              34.380341,
              47.466165
            ],
            [
              34.361114,
              47.514418
            ],
            [
              34.468231,
              47.484729
            ],
            [
              34.556122,
              47.531111
            ],
            [
              34.654999,
              47.544091
            ],
            [
              34.715424,
              47.494009
            ],
            [
              34.863739,
              47.449451
            ],
            [
              34.869232,
              47.401138
            ],
            [
              34.959869,
              47.389982
            ],
            [
              35.069733,
              47.443879
            ],
            [
              35.193329,
              47.440164
            ],
            [
              35.297699,
              47.503287
            ],
            [
              35.415802,
              47.488441
            ],
            [
              35.654755,
              47.367664
            ],
            [
              35.723419,
              47.309965
            ],
            [
              35.877228,
              47.263388
            ],
            [
              36.02829,
              47.257796
            ],
            [
              36.209564,
              47.231692
            ],
            [
              36.209564,
              47.173845
            ],
            [
              36.162872,
              47.037374
            ],
            [
              36.541901,
              46.906184
            ],
            [
              36.657257,
              46.904307
            ],
            [
              36.79184,
              46.932448
            ],
            [
              37.339783,
              47.187846
            ],
            [
              37.750686,
              47.261095
            ],
            [
              37.831421,
              47.357432
            ],
            [
              37.839661,
              47.441092
            ],
            [
              37.85614,
              47.480088
            ],
            [
              37.807388,
              47.517664
            ],
            [
              37.751083,
              47.544554
            ],
            [
              37.830734,
              47.615884
            ],
            [
              37.726364,
              47.612181
            ],
            [
              37.65358,
              47.631619
            ],
            [
              37.468185,
              47.581621
            ],
            [
              37.44072,
              47.604774
            ],
            [
              37.597961,
              47.713458
            ],
            [
              37.592468,
              47.768868
            ],
            [
              37.617187,
              47.82422
            ],
            [
              37.606201,
              47.886881
            ],
            [
              37.499084,
              47.914501
            ],
            [
              37.510071,
              47.96602
            ],
            [
              37.554016,
              48.004625
            ],
            [
              37.63092,
              48.004625
            ],
            [
              37.658386,
              48.056054
            ],
            [
              37.738037,
              48.078079
            ],
            [
              37.784729,
              48.142265
            ],
            [
              37.902832,
              48.228332
            ],
            [
              37.880859,
              48.323387
            ],
            [
              37.941284,
              48.372672
            ],
            [
              38.020935,
              48.398209
            ],
            [
              38.17749,
              48.403679
            ],
            [
              38.215942,
              48.372672
            ],
            [
              38.391724,
              48.438312
            ],
            [
              38.41095,
              48.492947
            ],
            [
              38.468628,
              48.591143
            ],
            [
              38.427429,
              48.614754
            ],
            [
              38.430176,
              48.647428
            ],
            [
              38.493347,
              48.663757
            ],
            [
              38.564758,
              48.716337
            ],
            [
              38.677368,
              48.718149
            ],
            [
              38.739166,
              48.697306
            ],
            [
              38.770752,
              48.734455
            ],
            [
              38.505707,
              48.831278
            ],
            [
              38.486481,
              48.862004
            ],
            [
              38.549652,
              48.887295
            ],
            [
              38.541412,
              48.972104
            ],
            [
              38.439789,
              48.993735
            ],
            [
              38.475494,
              49.044169
            ],
            [
              38.706207,
              49.186192
            ],
            [
              38.866882,
              49.291098
            ],
            [
              38.972626,
              49.263324
            ],
            [
              39.109955,
              48.88007
            ],
            [
              39.237671,
              48.716337
            ],
            [
              39.243164,
              48.747134
            ],
            [
              39.298096,
              48.777913
            ],
            [
              39.325562,
              48.745323
            ],
            [
              39.353027,
              48.683708
            ],
            [
              39.462891,
              48.623832
            ],
            [
              39.493103,
              48.582058
            ],
            [
              39.5755,
              48.582058
            ],
            [
              39.597473,
              48.629278
            ],
            [
              39.526062,
              48.727209
            ],
            [
              39.435425,
              48.924304
            ],
            [
              39.440918,
              49.04867
            ],
            [
              39.509583,
              49.176317
            ],
            [
              39.663391,
              49.339441
            ],
            [
              39.668884,
              49.380585
            ],
            [
              39.631805,
              49.456521
            ],
            [
              39.497223,
              49.463662
            ],
            [
              39.502716,
              49.497566
            ],
            [
              39.079742,
              49.513618
            ],
            [
              39.06601,
              49.563524
            ],
            [
              39.464264,
              49.545707
            ],
            [
              39.58786,
              49.577774
            ],
            [
              39.670258,
              49.60804
            ],
            [
              39.778748,
              49.560852
            ],
            [
              39.819946,
              49.546598
            ],
            [
              39.91333,
              49.567978
            ],
            [
              39.973755,
              49.60715
            ],
            [
              40.116577,
              49.587568
            ],
            [
              40.105591,
              49.555507
            ],
            [
              40.045166,
              49.525208
            ],
            [
              40.012207,
              49.466339
            ],
            [
              40.083618,
              49.391312
            ],
            [
              40.14679,
              49.344809
            ],
            [
              40.152283,
              49.292889
            ],
            [
              40.144043,
              49.242707
            ],
            [
              40.102844,
              49.226566
            ],
            [
              40.039673,
              49.169134
            ],
            [
              39.957275,
              49.127814
            ],
            [
              39.927063,
              49.086459
            ],
            [
              39.927063,
              49.05047
            ],
            [
              39.891357,
              49.037868
            ],
            [
              39.830933,
              49.04867
            ],
            [
              39.743042,
              49.027063
            ],
            [
              39.682617,
              49.034267
            ],
            [
              39.663391,
              48.976612
            ],
            [
              39.710083,
              48.949563
            ],
            [
              39.762268,
              48.893615
            ],
            [
              39.858398,
              48.871941
            ],
            [
              39.907837,
              48.88278
            ],
            [
              39.954529,
              48.857487
            ],
            [
              40.00946,
              48.888198
            ],
            [
              40.047913,
              48.868328
            ],
            [
              40.031433,
              48.828566
            ],
            [
              39.973755,
              48.79239
            ],
            [
              39.916077,
              48.785152
            ],
            [
              39.806213,
              48.814099
            ],
            [
              39.765015,
              48.790581
            ],
            [
              39.734802,
              48.761621
            ],
            [
              39.699097,
              48.741701
            ],
            [
              39.627686,
              48.591143
            ],
            [
              39.685364,
              48.594776
            ],
            [
              39.803467,
              48.587509
            ],
            [
              39.855652,
              48.549342
            ],
            [
              39.872131,
              48.503867
            ],
            [
              39.843292,
              48.496588
            ],
            [
              39.847412,
              48.4711
            ],
            [
              39.877625,
              48.451976
            ],
            [
              39.92157,
              48.377233
            ],
            [
              39.877625,
              48.347123
            ],
            [
              39.811707,
              48.306948
            ],
            [
              39.887238,
              48.280451
            ],
            [
              39.957275,
              48.294158
            ],
            [
              39.994354,
              48.266741
            ],
            [
              39.961395,
              48.224673
            ],
            [
              39.90097,
              48.184401
            ],
            [
              39.825439,
              48.088171
            ],
            [
              39.848785,
              48.033101
            ],
            [
              39.767761,
              48.023917
            ],
            [
              39.758148,
              48.009219
            ],
            [
              39.791107,
              47.977972
            ],
            [
              39.793854,
              47.943027
            ],
            [
              39.773254,
              47.913581
            ],
            [
              39.776001,
              47.864774
            ],
            [
              39.715576,
              47.814999
            ],
            [
              39.616699,
              47.816843
            ],
            [
              39.548035,
              47.829752
            ],
            [
              39.504089,
              47.826064
            ],
            [
              39.454651,
              47.837127
            ],
            [
              39.391479,
              47.826064
            ],
            [
              39.314575,
              47.850031
            ],
            [
              39.116821,
              47.83344
            ],
            [
              39.020691,
              47.866617
            ],
            [
              38.875122,
              47.861089
            ],
            [
              38.792725,
              47.814999
            ],
            [
              38.754272,
              47.731934
            ],
            [
              38.757019,
              47.696823
            ],
            [
              38.713074,
              47.678334
            ],
            [
              38.660889,
              47.678334
            ],
            [
              38.572998,
              47.62838
            ],
            [
              38.377991,
              47.61357
            ],
            [
              38.317566,
              47.574673
            ],
            [
              38.27774,
              47.544091
            ],
            [
              38.250275,
              47.486585
            ],
            [
              38.253021,
              47.404856
            ],
            [
              38.191223,
              47.314621
            ],
            [
              38.213196,
              47.286682
            ],
            [
              38.295593,
              47.282956
            ],
            [
              38.301086,
              47.249407
            ],
            [
              38.221436,
              47.208374
            ],
            [
              38.202209,
              47.131819
            ],
            [
              38.218689,
              47.107523
            ],
            [
              38.117065,
              47.032695
            ],
            [
              38.114319,
              47.086956
            ],
            [
              38.06488,
              47.105653
            ],
            [
              38.026428,
              47.085085
            ],
            [
              37.858887,
              47.101914
            ],
            [
              37.780609,
              47.076669
            ],
            [
              37.748764,
              47.086956
            ],
            [
              37.554016,
              47.086956
            ]
          ]
        ]
      },
      "properties": {
        "name": "",
        "description": "",
        "zone": "1",
        "fill": "#a52714"
      }
    },
    {
      "type": "Feature",
      "geometry": {
        "type": "Polygon",
        "coordinates": [
          [
            [
              31.499176,
              46.380096
            ],
            [
              31.565094,
              46.256796
            ],
            [
              31.735382,
              46.218802
            ],
            [
              32.161102,
              46.148443
            ],
            [
              32.089691,
              46.186486
            ],
            [
              31.589813,
              46.271987
            ],
            [
              31.537628,
              46.368727
            ],
            [
              31.499176,
              46.380096
            ]
          ]
        ]
      },
      "properties": {
        "name": "",
        "description": "",
        "zone": "1",
        "fill": "#a52714"
      }
    },
    {
      "type": "Feature",
      "geometry": {
        "type": "Polygon",
        "coordinates": [
          [
            [
              32.089691,
              46.186486
            ],
            [
              32.161102,
              46.148443
            ],
            [
              31.735382,
              46.218802
            ],
            [
              31.565094,
              46.256796
            ],
            [
              31.499176,
              46.380096
            ],
            [
              31.537628,
              46.368727
            ],
            [
              31.589813,
              46.271987
            ],
            [
              32.089691,
              46.186486
            ]
          ]
        ]
      },
      "properties": {
        "name": "",
        "description": "",
        "zone": "1",
        "fill": "#a52714"
      }
    },
    {
      "type": "Feature",
      "geometry": {
        "type": "Point",
        "coordinates": [
          30.62439,
          46.585294
        ]
      },
      "properties": {
        "name": "",
        "description": "",
        "zone": "",
        "fill": "#a52714"
      }
    },
    {
      "type": "Feature",
      "geometry": {
        "type": "Polygon",
        "coordinates": [
          [
            [
              32.910919,
              47.018653
            ],
            [
              32.79007,
              47.102849
            ],
            [
              32.597809,
              47.087891
            ],
            [
              32.67746,
              47.007416
            ],
            [
              32.910919,
              47.018653
            ]
          ]
        ]
      },
      "properties": {
        "name": "",
        "description": "",
        "zone": "2",
        "fill": "#a52714"
      }
    },
    {
      "type": "Feature",
      "geometry": {
        "type": "Polygon",
        "coordinates": [
          [
            [
              32.186508,
              47.043926
            ],
            [
              32.473526,
              47.387193
            ],
            [
              32.447433,
              47.402067
            ],
            [
              32.189255,
              47.08602
            ],
            [
              32.121964,
              47.119672
            ],
            [
              32.179642,
              47.208374
            ],
            [
              32.146683,
              47.353711
            ],
            [
              32.2332,
              47.41322
            ],
            [
              32.197495,
              47.428087
            ],
            [
              32.102737,
              47.385334
            ],
            [
              32.113724,
              47.213971
            ],
            [
              32.065659,
              47.132754
            ],
            [
              32.186508,
              47.043926
            ]
          ]
        ]
      },
      "properties": {
        "name": "",
        "description": "",
        "zone": "2",
        "fill": "#a52714"
      }
    },
    {
      "type": "Feature",
      "geometry": {
        "type": "Point",
        "coordinates": [
          31.755981,
          47.282956
        ]
      },
      "properties": {
        "name": "",
        "description": "",
        "zone": "",
        "fill": "#a52714"
      }
    }
  ]
}