{"type":"FeatureCollection","name":"deepstatemap_data_20220424","sourceHistoryId":1650838456,"sourceCreatedAt":"2022-04-24T22:14:16.000Z","crs":{"type":"name","properties":{"name":"urn:ogc:def:crs:OGC:1.3:CRS84"}},"features":[{"type":"Feature","properties":{"controlStatus":"russian_occupied"},"geometry":{"type":"MultiPolygon","coordinates":[[[[29.244774,47.1684368],[29.2476923,47.1639435],[29.2700511,47.151804],[29.275716,47.1483016],[29.2885906,47.1438651],[29.2952854,47.1400119],[29.2968303,47.1313706],[29.2940837,47.1224942],[29.2915088,47.1154855],[29.2935688,47.1092937],[29.3011219,47.1056718],[29.3083594,47.103346],[29.3143676,47.1028786],[29.3196891,47.1032292],[29.3286155,47.1054492],[29.3371986,47.1075523],[29.3457816,47.1057997],[29.3500732,47.1005416],[29.354193,47.0953999],[29.3586562,47.0840629],[29.3602012,47.077166],[29.3650077,47.0714375],[29.366896,47.0699175],[29.3741057,47.062785],[29.3777106,47.0614987],[29.3832038,47.0604462],[29.3895553,47.060797],[29.3924735,47.0590429],[29.3880103,47.0569379],[29.3830321,47.0560023],[29.3802856,47.0524937],[29.3790839,47.048283],[29.3795989,47.0434872],[29.3804572,47.0391588],[29.3837188,47.0360001],[29.3880103,47.0329582],[29.3873237,47.02898],[29.3837188,47.0258206],[29.3778823,47.0257036],[29.3725608,47.0264057],[29.3656943,47.0282779],[29.3627761,47.0317881],[29.3615745,47.0381059],[29.3589995,47.0406796],[29.3545364,47.0392758],[29.3545364,47.0356491],[29.3565963,47.0312031],[29.3591712,47.0267568],[29.3617461,47.0233632],[29.3655227,47.0172778],[29.3689559,47.0135325],[29.3722175,47.0082653],[29.3763373,47.0029976],[29.3761657,46.9963244],[29.3739341,46.9937486],[29.3614028,46.9926948],[29.3462966,46.9922264],[29.3310187,46.992929],[29.3178008,46.9959732],[29.3088744,46.9959732],[29.3083594,46.9904701],[29.3081878,46.9849664],[29.3040679,46.98239],[29.2990897,46.9853177],[29.3006347,46.9896504],[29.3033813,46.9933973],[29.3061278,46.9980806],[29.3021796,47.0007733],[29.2953132,46.9984318],[29.2920516,46.9950365],[29.291365,46.988011],[29.2930816,46.9800477],[29.2987464,46.97548],[29.3054412,46.9714975],[29.3100761,46.9662262],[29.312136,46.9642346],[29.3155692,46.9598999],[29.3224357,46.9524011],[29.3299888,46.9495887],[29.3402885,46.9430261],[29.3489595,46.9385073],[29.3605445,46.9345872],[29.3722175,46.933415],[29.3811439,46.9345872],[29.3928168,46.9378691],[29.4003699,46.9444324],[29.4065497,46.9495887],[29.4141028,46.9556819],[29.4199393,46.9615401],[29.4271491,46.9655233],[29.4384788,46.965289],[29.4494651,46.9617744],[29.4518684,46.9584939],[29.4580482,46.9526354],[29.463198,46.9502918],[29.4714377,46.9505262],[29.4752143,46.9441981],[29.4764159,46.9363454],[29.4755576,46.9298984],[29.4736693,46.9253263],[29.4729827,46.9193469],[29.4680045,46.9106698],[29.464743,46.9062134],[29.4480918,46.9018739],[29.4546149,46.8908478],[29.4635413,46.8881495],[29.4673179,46.8809927],[29.4848273,46.8843952],[29.4846557,46.8762991],[29.4841407,46.8706664],[29.4837974,46.8649156],[29.4884322,46.8555253],[29.4891832,46.8537645],[29.4792269,46.8531188],[29.4744633,46.8469846],[29.4706867,46.8508002],[29.4692276,46.8536177],[29.4681118,46.8562003],[29.4657086,46.8572568],[29.4593571,46.8576089],[29.4550655,46.855496],[29.4529198,46.8547329],[29.4484566,46.8544395],[29.4379852,46.8598392],[29.4333504,46.8614825],[29.4321488,46.8596044],[29.4357536,46.8529133],[29.4357536,46.8493914],[29.4103478,46.8466911],[29.4048546,46.8462214],[29.4041679,46.8328351],[29.4050263,46.8158038],[29.3978165,46.8185057],[29.3964432,46.8068749],[29.3969582,46.8046425],[29.4069145,46.8033499],[29.4084595,46.7766701],[29.4024513,46.774554],[29.4014214,46.7584451],[29.4120644,46.7590331],[29.414296,46.7551521],[29.4582413,46.7592683],[29.4621895,46.773731],[29.4697426,46.7716148],[29.4754074,46.7803144],[29.4839905,46.7824303],[29.4875954,46.781725],[29.4891403,46.7781984],[29.5059631,46.7799618],[29.5081947,46.7846637],[29.5104263,46.7883075],[29.5123146,46.7888951],[29.5148895,46.784076],[29.5251892,46.7805495],[29.5349739,46.777258],[29.5418404,46.7781984],[29.5340298,46.7746716],[29.5366905,46.7709093],[29.5410679,46.767676],[29.5499943,46.7669705],[29.5586632,46.7557402],[29.5598648,46.7420961],[29.5567749,46.7353903],[29.5586632,46.7242123],[29.5562599,46.7173867],[29.5629547,46.7142089],[29.5825241,46.7138559],[29.5742844,46.72433],[29.5718811,46.7325666],[29.5727394,46.7403315],[29.5811508,46.7432724],[29.5935104,46.7431548],[29.6070717,46.7409197],[29.6273277,46.7412726],[29.6426056,46.7431548],[29.6573685,46.7443311],[29.6573685,46.7358609],[29.6693848,46.7330373],[29.6697281,46.7212703],[29.6635483,46.7123258],[29.6669815,46.7036151],[29.6583126,46.7014373],[29.6486137,46.7010841],[29.6483563,46.6953741],[29.6549652,46.6953152],[29.6511887,46.6910764],[29.6599434,46.6897812],[29.6547936,46.6856597],[29.6527336,46.6822446],[29.6551369,46.6767093],[29.6635483,46.6752959],[29.6676682,46.6754137],[29.6741913,46.6763559],[29.6779678,46.6755315],[29.6814011,46.673058],[29.6858643,46.6717623],[29.6912716,46.6727635],[29.6943615,46.6741769],[29.6952198,46.6790059],[29.6993397,46.678417],[29.7013996,46.6760615],[29.7008846,46.6708789],[29.6984814,46.666756],[29.7000263,46.6649889],[29.7063778,46.6642821],[29.7091244,46.6620437],[29.7147892,46.6589806],[29.7182224,46.6576846],[29.722514,46.6589806],[29.7268055,46.6613369],[29.7254322,46.6652246],[29.721999,46.6681696],[29.7244022,46.6718212],[29.7292088,46.6718212],[29.7357319,46.6700543],[29.7369335,46.667345],[29.7400234,46.6646355],[29.7434567,46.6659314],[29.7451733,46.6682874],[29.754958,46.6688764],[29.7619961,46.668523],[29.7649143,46.6651068],[29.7592495,46.656742],[29.7547863,46.6514397],[29.7561596,46.6473153],[29.7654293,46.6516754],[29.7734974,46.6556816],[29.774699,46.6502613],[29.7643993,46.6479045],[29.7595928,46.645312],[29.7673176,46.6376513],[29.7729824,46.6411871],[29.7786472,46.6364727],[29.7781323,46.633408],[29.7649143,46.6337617],[29.7585629,46.6338795],[29.7515247,46.6306969],[29.7597645,46.6259815],[29.7630261,46.6227984],[29.7626827,46.619733],[29.7585629,46.6212657],[29.7546146,46.6237415],[29.7482632,46.6262173],[29.7424267,46.625392],[29.7425984,46.6232699],[29.7455166,46.6204404],[29.7522114,46.6172569],[29.7558163,46.615842],[29.7504948,46.614427],[29.7479199,46.614427],[29.7496365,46.6117149],[29.7472332,46.6079413],[29.7420834,46.6061724],[29.7374485,46.6098282],[29.7338436,46.6057006],[29.731097,46.6007472],[29.7232006,46.6021625],[29.722514,46.5990959],[29.731097,46.5948496],[29.7389935,46.5931982],[29.7513531,46.5898952],[29.7602795,46.5901311],[29.7671459,46.5894233],[29.7664593,46.5856481],[29.7760723,46.5814008],[29.7843121,46.578569],[29.7925518,46.5823447],[29.795985,46.5804569],[29.7983883,46.5851762],[29.7946117,46.5896592],[29.795985,46.5948496],[29.8042248,46.5922545],[29.806628,46.5870639],[29.8107479,46.5894233],[29.807658,46.5943778],[29.8055981,46.6016907],[29.7977017,46.6021625],[29.8018215,46.6059365],[29.8090313,46.6040495],[29.8176144,46.6014548],[29.8134945,46.5962651],[29.8138378,46.5856481],[29.8207043,46.590603],[29.8237942,46.5969728],[29.8217342,46.6026343],[29.828944,46.6016907],[29.8306606,46.5974446],[29.8323773,46.5953215],[29.8399304,46.5969728],[29.8368404,46.5891874],[29.828944,46.586356],[29.8258541,46.5817547],[29.8311756,46.579631],[29.8394154,46.5817547],[29.8457668,46.5860021],[29.8495434,46.5891874],[29.8531483,46.586474],[29.8533199,46.5822267],[29.8560665,46.579513],[29.8625897,46.578333],[29.8713444,46.578687],[29.8718594,46.5822267],[29.8713444,46.5875358],[29.8770092,46.5861201],[29.8780392,46.5825806],[29.8752926,46.578333],[29.8685978,46.5760911],[29.8625897,46.5737311],[29.861388,46.571253],[29.8670528,46.5706629],[29.8734043,46.5704269],[29.8716877,46.5686567],[29.8596714,46.5696008],[29.8598431,46.5666504],[29.8631046,46.564408],[29.8696278,46.5626376],[29.8794125,46.5624016],[29.883189,46.5638179],[29.8897122,46.5594508],[29.893832,46.556854],[29.8964069,46.5526043],[29.8922871,46.5500072],[29.8869656,46.5524863],[29.8795841,46.5557916],[29.8795841,46.5588606],[29.8718594,46.5580344],[29.8739193,46.5504794],[29.8761509,46.5462293],[29.8778675,46.5426873],[29.8816441,46.5417427],[29.8845623,46.5462293],[29.8876522,46.5474099],[29.9455021,46.5549653],[29.9479054,46.5615754],[29.9386356,46.5596869],[29.9427555,46.5667684],[29.949622,46.5684207],[29.9376057,46.5703089],[29.9345158,46.5804569],[29.936919,46.5835245],[29.9352024,46.5884795],[29.9393223,46.5894233],[29.9444721,46.5842324],[29.9633549,46.5837605],[29.9681614,46.5990959],[29.9585484,46.6094744],[29.9544285,46.6182002],[29.9530552,46.6271604],[29.9558018,46.6387121],[29.9479054,46.6434264],[29.9489353,46.6521467],[29.9544285,46.6582737],[29.958205,46.6707611],[29.9623249,46.682068],[29.969878,46.6860719],[29.9678181,46.700672],[29.9659784,46.712263],[29.96821,46.7212076],[29.969755,46.72968],[29.9707849,46.736857],[29.9723299,46.7409746],[29.9742182,46.7450918],[29.974309,46.7536004],[29.9661551,46.7558938],[29.9655543,46.7595983],[29.9664126,46.771592],[29.9429415,46.7950167],[29.9343584,46.8060626],[29.9625108,46.818046],[29.9783037,46.8166363],[29.9803636,46.8201604],[29.9714372,46.8248588],[29.9676607,46.8319057],[29.958391,46.8370729],[29.9491213,46.8427092],[29.9250887,46.8349591],[29.9316118,46.8286173],[29.9062059,46.8192207],[29.8825166,46.850693],[29.8928163,46.8530409],[29.8825166,46.8882477],[29.8454378,46.8812082],[29.850931,46.8746371],[29.7486208,46.8614926],[29.7348543,46.9206888],[29.7184084,46.9182725],[29.7128816,46.9338188],[29.6991823,46.9239003],[29.6476839,46.9206175],[29.6366976,46.957186],[29.5694063,46.9403113],[29.5536134,46.957186],[29.6016786,46.9656213],[29.6003053,47.0414794],[29.6284578,47.0456906],[29.6120304,47.0998224],[29.5502323,47.095148],[29.5474857,47.0736407],[29.5145268,47.1110392],[29.4884342,47.113843],[29.4939274,47.1278599],[29.5804447,47.1372025],[29.5516056,47.2538461],[29.5982975,47.2575744],[29.5782991,47.367164],[29.4856876,47.3609318],[29.4815678,47.3274326],[29.4856876,47.3069505],[29.430756,47.2911179],[29.4183964,47.3069505],[29.408011,47.296427],[29.3970247,47.341114],[29.4074101,47.3637224],[29.3868107,47.3823229],[29.3428654,47.3711634],[29.3140263,47.4483016],[29.2426151,47.4185749],[29.2426151,47.464087],[29.1863102,47.4260082],[29.1849369,47.4464442],[29.1986698,47.4631586],[29.1588444,47.4520162],[29.1519779,47.4668722],[29.1835636,47.4733704],[29.1904301,47.499355],[29.1849369,47.5188351],[29.1464848,47.5058492],[29.1148991,47.5512857],[29.1657108,47.5707465],[29.1904301,47.5707465],[29.1863102,47.5911262],[29.2034715,47.5969504],[29.2003816,47.6034324],[29.2161745,47.6122283],[29.2106813,47.6293527],[29.2196077,47.6272703],[29.2336839,47.642308],[29.2072481,47.6427706],[29.2110246,47.6587289],[29.219951,47.6584976],[29.2196077,47.6802301],[29.2312807,47.6843906],[29.2028008,47.7194487],[29.215847,47.7383851],[29.2515526,47.7522367],[29.2803917,47.8039167],[29.2481194,47.8122176],[29.2316399,47.7979208],[29.2165337,47.798382],[29.1973076,47.818673],[29.2051277,47.8377647],[29.2254601,47.8546238],[29.239193,47.8661413],[29.2784185,47.886026],[29.217907,47.8859453],[29.2234977,47.8901741],[29.2185195,47.8955839],[29.2143997,47.8925913],[29.212683,47.8875265],[29.2099365,47.8854544],[29.2013534,47.8844184],[29.1977485,47.8963896],[29.1846835,47.9660878],[29.1771304,47.9656281],[29.1750704,47.9913683],[29.1249453,47.9941254],[29.1304385,47.9817172],[29.1070925,47.9835557],[29.0878665,47.9780401],[29.0995394,47.9610302],[29.081,47.972524],[29.0871798,47.9467744],[29.0658938,47.9430948],[29.0446078,47.9458545],[29.026755,47.9458545],[29.0116488,47.9545926],[28.9986025,47.9596508],[28.9766299,47.9706852],[28.9622103,47.9784998],[28.9271914,47.9612601],[28.8784396,48.0003284],[28.8880526,48.0058415],[28.8835894,48.0088276],[28.8890826,48.0115838],[28.8938891,48.0088276],[28.9021289,48.0102057],[28.9010989,48.0129618],[28.8870226,48.0141101],[28.8815295,48.0111244],[28.8677966,48.0173253],[28.8695132,48.0196218],[28.8595568,48.0219182],[28.8547503,48.0189329],[28.8564669,48.0278882],[28.8379627,48.0356595],[28.8544422,48.0618237],[28.8420826,48.068248],[28.8516956,48.0728363],[28.8407093,48.0769654],[28.8565022,48.1012744],[28.8448292,48.1251136],[28.8283497,48.1278636],[28.8132435,48.1237386],[28.8050037,48.1333631],[28.7919575,48.1274053],[28.7741047,48.1260303],[28.7548786,48.1374873],[28.7274128,48.1310717],[28.7033802,48.1274053],[28.6889607,48.1241969],[28.678661,48.141153],[28.6841541,48.1480255],[28.6436421,48.1439021],[28.6477619,48.1530648],[28.6264759,48.1571874],[28.6086231,48.1581035],[28.5928303,48.1718431],[28.5756641,48.1663477],[28.5703035,48.1738358],[28.5433918,48.1663477],[28.5351521,48.1571874],[28.5262257,48.154439],[28.5071321,48.153684],[28.5200459,48.1379456],[28.5001331,48.1260303],[28.4997898,48.1209884],[28.4956338,48.1191235],[28.4946789,48.1195604],[28.4945287,48.119367],[28.4918894,48.1188442],[28.4987773,48.1152413],[28.4995311,48.1154671],[28.5091442,48.1216554],[28.5218471,48.1209679],[28.5410732,48.1182175],[28.5640758,48.1101949],[28.5784954,48.1044636],[28.5939449,48.0980439],[28.611111,48.0955216],[28.6255306,48.0925406],[28.632397,48.0881835],[28.6354869,48.0796974],[28.633427,48.0702922],[28.621754,48.0643271],[28.6128276,48.064786],[28.6059612,48.0774036],[28.5990947,48.0760273],[28.5960048,48.0668509],[28.5891384,48.056755],[28.5884517,48.0482637],[28.5750621,48.0425256],[28.5530895,48.0393119],[28.5441631,48.0358685],[28.5427898,48.0271442],[28.5362667,48.021863],[28.5283702,48.0129066],[28.5318035,48.0034893],[28.5390132,47.9984354],[28.5465663,47.9972867],[28.5599559,47.9922321],[28.5750621,47.9984354],[28.578152,48.0078536],[28.5877651,48.0172702],[28.590855,48.0276034],[28.5932582,48.0349503],[28.6087127,48.0370175],[28.6207241,48.0298994],[28.6368602,48.0276034],[28.6509365,48.0257665],[28.6773723,48.0276034],[28.7024349,48.0234704],[28.7048381,48.0129066],[28.7027782,48.0032596],[28.7141078,47.9959082],[28.730244,47.9812024],[28.7460369,47.9761463],[28.7563365,47.9754568],[28.7625163,47.9784446],[28.773846,47.9848792],[28.7882656,47.9864878],[28.7944454,47.9812024],[28.7927288,47.9713195],[28.8013118,47.963274],[28.8157314,47.9506284],[28.8298076,47.9441895],[28.8353008,47.9347596],[28.8284343,47.925558],[28.8201946,47.9117527],[28.8250011,47.9016264],[28.8356441,47.8974832],[28.8528102,47.897253],[28.8730663,47.8947209],[28.8867992,47.890347],[28.9080852,47.8857425],[28.925938,47.8843611],[28.9424175,47.8848216],[28.9503139,47.8811376],[28.9571804,47.8811376],[28.9702266,47.8783744],[28.9815563,47.876302],[28.9901393,47.8737689],[28.9987224,47.8701992],[29.0061038,47.8658233],[29.0191501,47.8559184],[29.0251583,47.8486612],[29.02327,47.841864],[29.0177768,47.8323002],[29.0107387,47.8253855],[29.0078205,47.8160493],[29.0016406,47.8087866],[28.9937442,47.8002545],[28.9884227,47.7905677],[28.9870494,47.782494],[28.9834445,47.7688813],[28.9803546,47.757573],[28.9810413,47.7455698],[28.9734882,47.7303309],[28.967995,47.7199382],[28.9721149,47.7044608],[28.979668,47.6924453],[28.9861911,47.6718738],[28.991341,47.6584634],[28.9958042,47.6503692],[28.9927143,47.6390352],[28.9855045,47.6263105],[28.9831012,47.6133512],[28.9937442,47.6013147],[29.0088504,47.5902017],[29.0270465,47.5723695],[29.0273899,47.5512874],[29.0208667,47.536687],[29.0253299,47.518373],[29.0414661,47.5102571],[29.0606922,47.4995886],[29.0768283,47.4928617],[29.0967411,47.4831177],[29.1080707,47.4712834],[29.1180271,47.4585179],[29.1060108,47.4450527],[29.0909046,47.4369255],[29.0788883,47.4241516],[29.0778583,47.4141626],[29.0915912,47.4048688],[29.1077274,47.3927844],[29.1321033,47.3816271],[29.1492694,47.3695374],[29.1588825,47.3590729],[29.1640323,47.3474433],[29.1605991,47.337905],[29.1468662,47.3306921],[29.13176,47.3288305],[29.1276401,47.3255726],[29.1228336,47.3167287],[29.1245502,47.3102111],[29.1338199,47.3090472],[29.1475528,47.3104439],[29.163689,47.3167287],[29.1726154,47.3207435],[29.1822284,47.325398],[29.1957038,47.3292377],[29.2094367,47.3331353],[29.2205947,47.3256889],[29.2394775,47.3395336],[29.2484039,47.346978],[29.2616218,47.3526769],[29.2707199,47.3629101],[29.2829078,47.3724438],[29.288401,47.37814],[29.2983573,47.3841842],[29.3129486,47.3799998],[29.3227333,47.3695374],[29.3235916,47.360352],[29.2957824,47.3481411],[29.2727798,47.3383703],[29.2532104,47.334764],[29.224028,47.3137028],[29.2075485,47.296708],[29.1946739,47.3039256],[29.1744178,47.2963588],[29.1596549,47.2939139],[29.1455787,47.2930989],[29.1277259,47.2880922],[29.1143363,47.2819205],[29.1272109,47.2733022],[29.1342541,47.2674838],[29.1418072,47.2609602],[29.1467854,47.2540863],[29.1478153,47.2481437],[29.1497036,47.2446478],[29.1567417,47.2394034],[29.1612049,47.2329929],[29.1632648,47.227048],[29.1670414,47.2198199],[29.1706463,47.2152726],[29.179401,47.214573],[29.1861516,47.2155202],[29.187071,47.2160354],[29.18701,47.2131299],[29.1897565,47.2077658],[29.1911298,47.2014681],[29.195593,47.1944698],[29.2007429,47.1895704],[29.2093259,47.1821039],[29.2223722,47.17697],[29.217909,47.1650669],[29.2337018,47.1526941],[29.2405683,47.159231],[29.2409116,47.1711355],[29.2411156,47.1714053],[29.244774,47.1684368]],[[29.1870743,47.2161906],[29.187071,47.2160354],[29.1872206,47.2161193],[29.1870743,47.2161906]],[[29.1872206,47.2161193],[29.1879112,47.2157826],[29.188748,47.2138003],[29.1893918,47.2119346],[29.1899711,47.2100835],[29.1904217,47.2080281],[29.1907436,47.2065413],[29.1937047,47.1991792],[29.1957218,47.196963],[29.1979534,47.1943969],[29.2003137,47.1921806],[29.2044765,47.1880976],[29.2062789,47.1868143],[29.2167503,47.1800766],[29.2222435,47.1785306],[29.2264492,47.1769846],[29.2394525,47.1727546],[29.2411156,47.1714053],[29.2532712,47.1874706],[29.2433149,47.2000685],[29.249838,47.2012348],[29.2601377,47.1954029],[29.2852003,47.2038006],[29.2810804,47.2117306],[29.2954999,47.239476],[29.3126661,47.2397091],[29.3305189,47.2571882],[29.3442518,47.2592853],[29.3610746,47.2849099],[29.3428785,47.2914305],[29.3092329,47.2662751],[29.3020231,47.2674399],[29.2941267,47.2604503],[29.2776472,47.267207],[29.2608243,47.254858],[29.250868,47.2634793],[29.2385084,47.2618483],[29.2312986,47.2529938],[29.2191106,47.2518286],[29.2141325,47.2425062],[29.2155057,47.2372616],[29.197653,47.2307343],[29.2024595,47.2244393],[29.1931039,47.2197759],[29.1895849,47.2174441],[29.1872206,47.2161193]]],[[[38.355341,49.0541261],[38.3448782,49.0470349],[38.3403623,49.0426207],[38.3384519,49.0385873],[38.3344555,49.0328516],[38.3281413,49.0293108],[38.3315352,49.024416],[38.3377475,49.0177882],[38.337978,49.0168383],[38.3386376,49.0160011],[38.3397385,49.0158683],[38.3409253,49.0164673],[38.3430414,49.0177215],[38.3433256,49.0190479],[38.3464689,49.0197304],[38.3494412,49.0193153],[38.3530731,49.0192906],[38.3546879,49.0192377],[38.3563811,49.0205853],[38.357719,49.0243794],[38.3584099,49.0263571],[38.3693555,49.0247852],[38.3688424,49.0227627],[38.3682066,49.0195628],[38.3739741,49.0187917],[38.3817461,49.0176476],[38.3800889,49.0121732],[38.3852978,49.0113145],[38.3937675,49.0101701],[38.3931391,49.0111648],[38.3926333,49.0120366],[38.3910546,49.0159766],[38.3937843,49.0193259],[38.396343,49.0299923],[38.4068499,49.0361959],[38.355341,49.0541261]]],[[[36.3433079,50.0860841],[36.355204,50.0836584],[36.3764899,50.0723117],[36.397261,50.0676841],[36.4042977,50.0752992],[36.4032677,50.0815784],[36.4055594,50.0899831],[36.4113959,50.0995639],[36.4192923,50.1085923],[36.4223822,50.1176191],[36.4287337,50.1297254],[36.4330252,50.1388582],[36.4318236,50.1483192],[36.4316519,50.1544789],[36.4272647,50.1596073],[36.4155192,50.1625742],[36.3997229,50.1575584],[36.3851317,50.1491992],[36.3746603,50.1436989],[36.3674506,50.1373178],[36.3686522,50.1319262],[36.3672789,50.1258737],[36.3583525,50.1161881],[36.3590392,50.1073813],[36.3475378,50.0997841],[36.3433079,50.0860841]]],[[[37.258105,49.2296919],[37.2549077,49.2277302],[37.2505519,49.2263288],[37.2340724,49.2180322],[37.235274,49.2019955],[37.2385356,49.1923486],[37.246947,49.1778746],[37.2160909,49.1312467],[37.2191497,49.12511],[37.2230016,49.1191418],[37.229126,49.1197518],[37.2305269,49.1292131],[37.2610988,49.1342798],[37.277929,49.1461314],[37.2820136,49.1313473],[37.299243,49.1314433],[37.2975922,49.1463637],[37.3062666,49.1563857],[37.3048966,49.1584778],[37.3018096,49.1621976],[37.2999335,49.1639989],[37.2997861,49.1656373],[37.30138,49.1661641],[37.3026797,49.1664322],[37.3030478,49.1678104],[37.3039558,49.1694446],[37.3049138,49.1701878],[37.3055425,49.170608],[37.3056578,49.1707131],[37.3057047,49.170927],[37.3056925,49.1711304],[37.3056522,49.1713319],[37.3055891,49.1714853],[37.3055361,49.1717058],[37.305456,49.1718932],[37.3053998,49.1720325],[37.30529,49.172256],[37.3052041,49.1723804],[37.30507,49.1725829],[37.3048527,49.1727929],[37.3047119,49.1728839],[37.3045985,49.172982],[37.3044668,49.1732134],[37.3044492,49.1733642],[37.3044457,49.1736079],[37.3045513,49.1737929],[37.305086,49.1744899],[37.3057994,49.1749336],[37.3066068,49.1753378],[37.3073539,49.176073],[37.3077704,49.1769596],[37.307807,49.1777116],[37.307718,49.1786627],[37.3075448,49.1793627],[37.3080161,49.1799932],[37.3085522,49.1804348],[37.3099789,49.1809641],[37.3109498,49.181327],[37.3121863,49.1824341],[37.3125256,49.183142],[37.3124163,49.1841551],[37.3121139,49.1848456],[37.3116753,49.1856103],[37.3109838,49.1860767],[37.3100586,49.1865063],[37.3089951,49.1867631],[37.307562,49.1873263],[37.306781,49.1878883],[37.3066479,49.1887723],[37.3070319,49.1900698],[37.307374,49.1907467],[37.3077596,49.1923332],[37.3074372,49.192832],[37.3060529,49.1931375],[37.3050603,49.1930658],[37.3043924,49.1931842],[37.3036292,49.1930751],[37.3021533,49.1927962],[37.3011149,49.1923622],[37.3005743,49.1918787],[37.2996817,49.1919454],[37.2986346,49.1915862],[37.2971883,49.1920095],[37.2967543,49.192394],[37.2964276,49.1928206],[37.296448,49.1930856],[37.2964254,49.1933085],[37.2962277,49.1936558],[37.2961534,49.19401],[37.2959074,49.1944098],[37.2946927,49.1952477],[37.2936554,49.1957946],[37.2924894,49.1962994],[37.2914502,49.1966254],[37.2909351,49.1966989],[37.2903342,49.1968461],[37.2888428,49.197498],[37.2883438,49.1977697],[37.2879374,49.1983003],[37.2877396,49.1985727],[37.2876061,49.198845],[37.287755,49.1994037],[37.2880403,49.1998799],[37.288508,49.2007697],[37.2908802,49.2018593],[37.2933967,49.2025443],[37.294934,49.2034476],[37.2960353,49.204467],[37.2966216,49.2050098],[37.2963904,49.2057286],[37.2954486,49.2061932],[37.2947739,49.2065726],[37.2936426,49.2066327],[37.2924761,49.2067889],[37.2896788,49.2065806],[37.2909578,49.2094037],[37.2926704,49.2131842],[37.2985888,49.2132078],[37.3035811,49.213322],[37.3107121,49.2100146],[37.3133332,49.2109118],[37.3189354,49.2092577],[37.328057,49.208949],[37.3333568,49.2104906],[37.3292263,49.2140649],[37.3268175,49.2170295],[37.3286146,49.2197136],[37.3308248,49.2222924],[37.331147,49.2255439],[37.3202465,49.2323822],[37.3085736,49.240004],[37.2950123,49.2384349],[37.2823093,49.2354086],[37.2807645,49.2343999],[37.2792919,49.2337922],[37.2774599,49.2333071],[37.2758291,49.2333351],[37.267203,49.2323823],[37.258105,49.2296919]]],[[[30.1934477,45.2668024],[30.1810881,45.2498856],[30.2058073,45.2392496],[30.223316,45.253026],[30.2109571,45.2672857],[30.1934477,45.2668024]]],[[[37.2230016,49.1191418],[37.2191497,49.12511],[37.2160909,49.1312467],[37.1575768,49.1411247],[37.1277261,49.1448084],[37.1040567,49.1506187],[37.091719,49.138909],[37.0414305,49.124341],[37.1078685,49.1187591],[37.1969475,49.1166675],[37.2028698,49.094135],[37.1740816,49.0339706],[37.1949408,49.0199035],[37.2219335,49.0047559],[37.2222008,48.9346772],[37.2433182,48.9280158],[37.2666688,48.9531298],[37.2646275,48.9935724],[37.2626347,48.9990373],[37.251842,49.0251844],[37.2298715,49.0859384],[37.2289274,49.0941729],[37.2326181,49.1025465],[37.230129,49.1157503],[37.229126,49.1197518],[37.2230016,49.1191418]]],[[[39.4070999,48.6594287],[39.4107046,48.6576711],[39.4175046,48.6594284],[39.4372422,48.6564862],[39.4460828,48.6575634],[39.4507018,48.6555733],[39.4513185,48.6517234],[39.4481269,48.6475215],[39.4496766,48.6428633],[39.4505778,48.6415305],[39.4542256,48.6398007],[39.4598046,48.639744],[39.4639355,48.6394741],[39.4656839,48.6380992],[39.4627339,48.6329512],[39.4631519,48.6290518],[39.4673147,48.6287115],[39.4731084,48.6291653],[39.4786016,48.6291653],[39.4856826,48.6304417],[39.4892447,48.6316329],[39.4940083,48.6333914],[39.4997589,48.6342139],[39.5026343,48.6349796],[39.5069369,48.6355605],[39.5101985,48.6355038],[39.5128466,48.6345659],[39.5157774,48.6298881],[39.5119883,48.6251492],[39.5116576,48.6218889],[39.5162797,48.6181138],[39.5233306,48.6150233],[39.5270213,48.6095756],[39.523672,48.6061969],[39.522483,48.6027083],[39.5240154,48.5987048],[39.5313968,48.5971154],[39.5321819,48.5935127],[39.5274486,48.5920064],[39.525217,48.5886001],[39.5312251,48.5842851],[39.5415249,48.5842851],[39.5459881,48.587351],[39.5458165,48.592347],[39.5477047,48.5970019],[39.5545712,48.599613],[39.561781,48.5985913],[39.565656,48.5939668],[39.5653858,48.5889407],[39.5612786,48.5848264],[39.5681324,48.5820139],[39.5749257,48.5842586],[39.5823073,48.588971],[39.5931951,48.5937095],[39.6010915,48.5914387],[39.6050397,48.5867833],[39.6000615,48.5855342],[39.5945684,48.5811054],[39.5943235,48.5764225],[39.6024648,48.5746318],[39.6095029,48.5750861],[39.6148244,48.5799697],[39.6173993,48.5863291],[39.622206,48.5868968],[39.6304458,48.5809918],[39.6409171,48.5830359],[39.6505301,48.5854206],[39.6694122,48.5892256],[39.6773094,48.5875781],[39.6863343,48.5869839],[39.688006,48.5870856],[39.6872754,48.5872501],[39.6868029,48.5879142],[39.6866952,48.5897082],[39.6861477,48.5899949],[39.6854877,48.5901241],[39.6839131,48.5908983],[39.6833832,48.5915976],[39.6832255,48.5922737],[39.6830393,48.5925691],[39.6800065,48.5924756],[39.6794984,48.5921165],[39.6795878,48.5907873],[39.6790746,48.590364],[39.6786464,48.5902801],[39.6777242,48.5903942],[39.6767695,48.590948],[39.676378,48.5914662],[39.6757316,48.593258],[39.6757301,48.5939552],[39.6762229,48.5945735],[39.6768342,48.5951645],[39.6776387,48.5956135],[39.6779149,48.5959498],[39.6781803,48.5960236],[39.6785973,48.5959434],[39.6788809,48.5957613],[39.679248,48.5956703],[39.6795496,48.5956816],[39.6799687,48.595893],[39.6803177,48.5961903],[39.6804708,48.5964595],[39.6803005,48.5968709],[39.6800867,48.5971795],[39.6799046,48.5973515],[39.6795024,48.5976043],[39.6789633,48.5978938],[39.6785811,48.5980315],[39.6781647,48.5980649],[39.6778878,48.5980841],[39.6767115,48.5979648],[39.6760269,48.5976072],[39.6753949,48.596882],[39.6750467,48.5966897],[39.6744864,48.5963026],[39.6736913,48.5958891],[39.6728431,48.5956326],[39.6718289,48.5954547],[39.6709142,48.5954793],[39.6701886,48.5956406],[39.6694093,48.5959793],[39.6688302,48.5964537],[39.6683045,48.5971735],[39.6679558,48.5980159],[39.6680175,48.5991041],[39.6681555,48.5999037],[39.6680744,48.6008995],[39.6679468,48.6010421],[39.6680123,48.6013407],[39.6684581,48.6017951],[39.668861,48.6022779],[39.6698433,48.6026685],[39.6707207,48.603247],[39.6710736,48.6037633],[39.6708078,48.6040911],[39.6704389,48.604482],[39.6696107,48.604791],[39.6685314,48.604988],[39.6676806,48.605051],[39.666429,48.60504],[39.6658489,48.6049564],[39.6653357,48.6048175],[39.6649486,48.6047603],[39.6643473,48.6047507],[39.6638909,48.6047873],[39.6636117,48.60483],[39.6633111,48.6049365],[39.6627637,48.605238],[39.6625329,48.6053746],[39.6622485,48.6054829],[39.6615317,48.6057042],[39.6612587,48.6058507],[39.6610608,48.6060504],[39.6609233,48.606839],[39.6608663,48.6069536],[39.6607448,48.6070754],[39.6605074,48.6073722],[39.6604401,48.6076039],[39.6604237,48.6079397],[39.6605759,48.6082486],[39.6606583,48.6085291],[39.6606313,48.608666],[39.6605561,48.608833],[39.6605664,48.6090712],[39.6605717,48.6091835],[39.6606253,48.6092533],[39.6608021,48.6095134],[39.6609429,48.6097597],[39.6611104,48.6101016],[39.6612136,48.6106547],[39.6613955,48.6108901],[39.661674,48.6110474],[39.6622201,48.6115466],[39.6626054,48.6119606],[39.6629565,48.6121643],[39.6633184,48.6124815],[39.6635959,48.6128343],[39.6637339,48.6131303],[39.6639954,48.6139832],[39.6641904,48.6147927],[39.664803,48.6153251],[39.6648357,48.6154068],[39.6648225,48.6156197],[39.6648052,48.6158149],[39.6648717,48.6160631],[39.6650792,48.6162937],[39.6651589,48.6164763],[39.6653217,48.6167352],[39.6656458,48.6173108],[39.6660665,48.617819],[39.6661476,48.6179816],[39.6661214,48.6183427],[39.6663957,48.6189095],[39.6665113,48.6194483],[39.6669179,48.6200013],[39.6671909,48.6205509],[39.6678716,48.621448],[39.6681779,48.6215936],[39.6689778,48.6224625],[39.6715373,48.6244945],[39.6745905,48.6265264],[39.6776182,48.6282003],[39.680012,48.6295903],[39.6843633,48.6317034],[39.6856604,48.6322423],[39.6869575,48.6326252],[39.687686,48.6328946],[39.6884574,48.6333626],[39.6901831,48.6352639],[39.6905772,48.6354983],[39.6911001,48.6356334],[39.6928086,48.6361372],[39.6934853,48.6365715],[39.6939904,48.63702],[39.6941358,48.6374533],[39.694317,48.637792],[39.6943695,48.6382726],[39.6943576,48.6388524],[39.6942765,48.639192],[39.6942896,48.6397659],[39.6940494,48.6406341],[39.6938971,48.6413093],[39.6938745,48.6419234],[39.693756,48.6429465],[39.6935572,48.6433092],[39.6930394,48.6436465],[39.6927054,48.6437868],[39.6921414,48.6442255],[39.6916019,48.6449908],[39.6913306,48.6454937],[39.6911867,48.6458465],[39.6911256,48.6463968],[39.6913198,48.6466535],[39.6915998,48.6468463],[39.6918959,48.647064],[39.6920279,48.6473163],[39.6920939,48.6475276],[39.6921008,48.6478026],[39.6922656,48.6478909],[39.6924687,48.6480414],[39.692707,48.6482992],[39.6929362,48.6485645],[39.6932063,48.6489559],[39.6934058,48.6491215],[39.6935811,48.6493703],[39.6938888,48.6495643],[39.6942278,48.64964],[39.6944509,48.6497062],[39.6946403,48.6498208],[39.694853,48.6500216],[39.6949888,48.6500813],[39.6952848,48.6502919],[39.6957814,48.6505159],[39.696534,48.6507944],[39.6967597,48.6508862],[39.6970176,48.6509532],[39.6972759,48.6510659],[39.6982559,48.6517675],[39.6986337,48.6520173],[39.6989835,48.6522556],[39.6994696,48.6525449],[39.7001096,48.6527179],[39.7006871,48.6528221],[39.701169,48.6529628],[39.7016835,48.6531784],[39.7018657,48.6532623],[39.7020962,48.6533211],[39.7022242,48.6533625],[39.702304,48.6534091],[39.7029026,48.6540217],[39.7034654,48.6546036],[39.7039559,48.6549017],[39.7042427,48.6551289],[39.7045856,48.6555266],[39.7046417,48.6557396],[39.7047368,48.6559737],[39.7050741,48.6563317],[39.7051622,48.6564717],[39.7052707,48.6566232],[39.7054752,48.6567203],[39.705749,48.6567262],[39.7060201,48.6567895],[39.7061986,48.6569451],[39.706337,48.6569823],[39.7065292,48.656991],[39.7067052,48.656929],[39.7068791,48.6568235],[39.7070304,48.6566857],[39.7071651,48.6564822],[39.7072746,48.6563268],[39.7073652,48.6562137],[39.707655,48.6559202],[39.7080567,48.6556086],[39.7081947,48.6555108],[39.7084775,48.6552322],[39.7086102,48.6550893],[39.708816,48.6548796],[39.7090798,48.6547251],[39.7093593,48.6546426],[39.7095178,48.6546261],[39.7096963,48.6546657],[39.7099813,48.6546873],[39.7101721,48.6547477],[39.7103292,48.6548213],[39.7105445,48.6549999],[39.7106955,48.6551819],[39.7107858,48.655303],[39.7108873,48.6556931],[39.7109541,48.6561964],[39.7108385,48.657086],[39.710539,48.657624],[39.709923,48.6586156],[39.7096046,48.6593839],[39.7095393,48.6600959],[39.7095304,48.6608184],[39.7096963,48.6620948],[39.7096251,48.6625202],[39.7101332,48.6630165],[39.7105985,48.6640584],[39.7107239,48.6644306],[39.7107436,48.6650135],[39.7109788,48.6656805],[39.7110638,48.6665459],[39.7110072,48.6667166],[39.7104746,48.6671704],[39.7103732,48.6672696],[39.7101967,48.6673263],[39.709747,48.6675106],[39.7091579,48.6675603],[39.708477,48.6675851],[39.7075198,48.6674239],[39.707143,48.6672123],[39.7066921,48.667007],[39.7062734,48.666947],[39.7058213,48.6668674],[39.7054229,48.6667984],[39.7049842,48.6668215],[39.7044341,48.66684],[39.7040204,48.6668972],[39.7035855,48.6669702],[39.7032956,48.6670006],[39.702126,48.6681469],[39.7025441,48.6688964],[39.7030049,48.6705726],[39.7118147,48.675226],[39.7150357,48.6811681],[39.7221627,48.6841631],[39.7162439,48.6904449],[39.7155159,48.695852],[39.7199379,48.6980865],[39.7027777,48.7067983],[39.7110185,48.7135328],[39.7048401,48.7216266],[39.7227192,48.7342732],[39.7389298,48.7485733],[39.7414144,48.7719273],[39.7652059,48.7651718],[39.7843113,48.7975121],[39.7971291,48.8407392],[39.8046749,48.8437398],[39.8080468,48.8396436],[39.8075059,48.8387445],[39.8278344,48.8316285],[39.8304418,48.8337178],[39.886258,48.8211091],[39.9383277,48.8000534],[39.9522773,48.7976408],[39.9582214,48.7980167],[39.9761809,48.7938682],[40.0788345,48.8700299],[40.0712899,48.8771383],[40.0554983,48.9102615],[40.048499,48.9103496],[40.0311984,48.9159646],[40.0180663,48.9079545],[39.983734,48.8682232],[39.9246825,48.8944133],[39.871124,48.8944133],[39.8409117,48.9025384],[39.8244322,48.8908017],[39.818939,48.9079545],[39.7942197,48.9251014],[39.7695006,48.930515],[39.7887267,48.9476542],[39.7477855,48.9881109],[39.7329788,48.9803654],[39.729449,48.9780205],[39.72705,48.975459],[39.7248227,48.9767284],[39.7244807,48.9782317],[39.7261645,48.9786744],[39.7264844,48.9788421],[39.7263835,48.9796244],[39.7252293,48.9803992],[39.7233668,48.9806833],[39.7215236,48.981452],[39.7205591,48.9816321],[39.7189789,48.9817927],[39.717625,48.9825178],[39.7176931,48.9829104],[39.7179258,48.9835407],[39.7176199,48.9845264],[39.7174157,48.9847517],[39.7169001,48.9848644],[39.716726,48.9850758],[39.7165023,48.9857737],[39.716921,48.9864057],[39.7169214,48.9867134],[39.7167719,48.9872302],[39.7157142,48.9881553],[39.7155484,48.988389],[39.71541,48.9887437],[39.7154337,48.9895658],[39.7153521,48.9898724],[39.7150604,48.9900632],[39.7135076,48.9897487],[39.7121056,48.9901232],[39.7118062,48.9903573],[39.7107568,48.9916986],[39.7097393,48.9921145],[39.7076649,48.9925954],[39.7074363,48.993512],[39.7074277,48.9942288],[39.7069257,48.995228],[39.7048401,48.9975657],[39.703956,48.9988886],[39.7020697,48.9995807],[39.699999,49.0006214],[39.6989261,49.0008241],[39.6969626,49.0000584],[39.6933469,48.9992052],[39.6911798,48.9968964],[39.6912229,48.9962207],[39.6769328,48.9897019],[39.6634138,49.0010353],[39.6702791,49.0033117],[39.6792068,49.01305],[39.683584,49.0370881],[39.6898496,49.0521657],[39.7681273,49.0404641],[39.7983396,49.061165],[39.8148191,49.0593653],[39.8752439,49.0656641],[39.9356688,49.0539657],[39.9356689,49.0836563],[39.997467,49.1474759],[40.2141348,49.2594897],[40.1877213,49.3464842],[40.0425804,49.4328999],[40.0376028,49.5200585],[40.1568323,49.5720062],[40.120934,49.6160801],[39.9505096,49.5900361],[39.8077188,49.5637809],[39.6438746,49.6323725],[39.6115327,49.7293401],[39.4458038,49.7577471],[39.3769644,49.7385876],[39.2799667,49.7610736],[39.1784029,49.8881645],[39.0872732,49.8257606],[38.9469279,49.7951297],[38.898467,49.8705799],[38.8764156,49.8695863],[38.8751358,49.8687024],[38.8745919,49.8680424],[38.874563,49.8668016],[38.8693986,49.8646519],[38.8668376,49.8650548],[38.8653205,49.8661926],[38.8627155,49.8660336],[38.857162,49.8681771],[38.856612,49.8688127],[38.8558548,49.8690541],[38.8544568,49.8683588],[38.8541747,49.8680231],[38.8541623,49.867593],[38.8538371,49.8672859],[38.8520281,49.8666719],[38.8514142,49.8663289],[38.8506155,49.8660301],[38.8491041,49.8652666],[38.8467251,49.8656481],[38.8461298,49.8658856],[38.8456688,49.8659731],[38.8439316,49.8653459],[38.8432896,49.8653086],[38.839345,49.8659252],[38.8389657,49.8661901],[38.8360183,49.8673006],[38.8363462,49.86753],[38.8348129,49.8692333],[38.8346641,49.8711186],[38.8366836,49.8723169],[38.835701,49.8739942],[38.8349373,49.8745002],[38.8344399,49.8747375],[38.8329727,49.8749079],[38.8277627,49.8773224],[38.8270413,49.8779199],[38.8260274,49.8785339],[38.8244285,49.8790982],[38.822432,49.8791478],[38.7949573,49.8834734],[38.7901495,49.8786734],[38.7834874,49.8812766],[38.7776826,49.8854834],[38.7682313,49.8962076],[38.7438463,49.8974706],[38.7422824,49.8990847],[38.7338452,49.9051884],[38.7232467,49.9271688],[38.6928998,49.9349292],[38.6852993,49.9605072],[38.7153145,49.9825472],[38.6874851,50.0059999],[38.6797305,49.9746573],[38.66694,49.9723199],[38.6461952,49.9561007],[38.6160771,49.9745534],[38.5815687,49.9775796],[38.5267143,49.9584342],[38.4877047,49.9637656],[38.4775184,49.9834347],[38.4680383,49.9954103],[38.4340937,50.0011822],[38.4160062,49.9815016],[38.349573,50.0066076],[38.3511988,50.0349042],[38.3290971,50.0853707],[38.1779973,50.0800842],[38.2164373,49.9873451],[38.255245,49.9096982],[38.1769673,49.8424375],[38.1879536,49.7395957],[38.1330218,49.5973864],[38.1687275,49.5546426],[38.1083024,49.4440476],[38.1440081,49.3886564],[38.2341024,49.3694037],[38.225176,49.215799],[38.1839773,49.2023414],[38.1832907,49.1619467],[38.1784495,49.133396],[38.2280539,49.0639498],[38.2675242,49.0403081],[38.303659,49.0453153],[38.3344555,49.0328516],[38.3403623,49.0426207],[38.3448782,49.0470349],[38.355341,49.0541261],[38.4068499,49.0361959],[38.419964,49.0293865],[38.4376054,49.0295824],[38.4558235,49.02239],[38.4621741,49.0218647],[38.4650601,49.0226205],[38.4777299,49.0217796],[38.5347495,49.0333799],[38.5525108,49.0265109],[38.5619476,49.0247341],[38.5637582,49.0315523],[38.5810198,49.03263],[38.6301161,48.9756125],[38.6245701,48.9677118],[38.6974347,48.9487665],[38.5870647,48.940592],[38.5611394,48.9150439],[38.5838065,48.9051826],[38.6101291,48.9292183],[38.6936787,48.9359684],[38.740192,48.9253301],[38.7348947,48.8908876],[38.7425698,48.8383084],[38.7149182,48.8149605],[38.6341195,48.8253617],[38.6472915,48.762219],[38.6523402,48.7224271],[38.6784116,48.723701],[38.6745492,48.7293629],[38.6917155,48.7293629],[38.7535137,48.7184915],[38.7670674,48.71432],[38.8084379,48.7134138],[38.8300673,48.7170382],[38.8360755,48.7232671],[38.841397,48.7335147],[38.8471476,48.7429112],[38.8561599,48.7504951],[38.8728111,48.753268],[38.8920372,48.7508912],[38.9047401,48.7506082],[38.9198464,48.7456279],[38.9330644,48.7482313],[38.9361543,48.7437602],[38.9317769,48.7364584],[38.9446515,48.7354394],[38.9571829,48.7394585],[38.9595003,48.747156],[38.979928,48.743647],[38.9884383,48.7350198],[38.9965867,48.7243805],[38.9977884,48.7197373],[38.9943476,48.715849],[38.9888619,48.715207],[38.9831971,48.7141876],[38.9837904,48.7110352],[38.9955704,48.7124653],[38.9977884,48.7097701],[38.9965868,48.706485],[38.998475,48.7011605],[39.0018149,48.697384],[39.0070581,48.6969684],[39.0137454,48.6960244],[39.0147829,48.6896031],[39.0122079,48.6834834],[39.0176936,48.679989],[39.0192461,48.6767963],[39.0192461,48.6721487],[39.0235376,48.669428],[39.0252542,48.6668205],[39.0266275,48.6628524],[39.0216493,48.6617186],[39.0173578,48.6630791],[39.009633,48.6626256],[39.0122903,48.6587233],[39.0183803,48.6569753],[39.0279933,48.6535734],[39.0355464,48.6482432],[39.0444804,48.6475437],[39.0534068,48.648451],[39.0649006,48.650398],[39.0707446,48.6527605],[39.078641,48.6516264],[39.0872242,48.6518533],[39.0975239,48.6511728],[39.104047,48.6518533],[39.1108201,48.6560115],[39.118974,48.6602636],[39.1239597,48.6614351],[39.1288521,48.6612083],[39.1371702,48.6606038],[39.138036,48.6629658],[39.1375211,48.6656868],[39.1383794,48.6685778],[39.1418909,48.6735848],[39.1463616,48.6770796],[39.1525414,48.6771363],[39.1590571,48.6769854],[39.1685918,48.6807067],[39.1712525,48.6824067],[39.175987,48.6851175],[39.1797636,48.6927101],[39.1832044,48.6979599],[39.1861226,48.7007923],[39.1886042,48.7022276],[39.1908358,48.7051164],[39.1917875,48.7071365],[39.1936682,48.7076087],[39.1959073,48.7066833],[39.1965082,48.7033981],[39.1999414,48.6995461],[39.205349,48.6994197],[39.2070655,48.7014023],[39.2099837,48.7036114],[39.2132454,48.7056506],[39.2191677,48.7067834],[39.2238025,48.7102384],[39.2276649,48.712164],[39.2328148,48.7122773],[39.2360688,48.7104274],[39.2390729,48.7105406],[39.245596,48.7137122],[39.2473202,48.7177139],[39.2483501,48.7209983],[39.2486934,48.7243957],[39.2538433,48.7324352],[39.25144,48.7366243],[39.2498951,48.7400207],[39.25169,48.7427],[39.2651656,48.7431528],[39.2663673,48.7455299],[39.2658598,48.7486237],[39.2650015,48.7515664],[39.2683414,48.7545847],[39.2742711,48.7541695],[39.2749577,48.7499819],[39.2806226,48.7503214],[39.2848208,48.7518118],[39.285164,48.7545281],[39.285944,48.7585831],[39.288119,48.7610486],[39.2931538,48.7625438],[39.2983036,48.7653726],[39.3013002,48.7686163],[39.3024235,48.7714823],[39.3043118,48.7737449],[39.3091108,48.7754609],[39.3142681,48.7758944],[39.3193248,48.7769315],[39.3254186,48.7756872],[39.3259411,48.7722742],[39.3259336,48.7686728],[39.3309193,48.7676355],[39.3377858,48.7672961],[39.3435289,48.7694083],[39.3487721,48.7696721],[39.3530561,48.766806],[39.349802,48.7633358],[39.3447305,48.7613181],[39.3420773,48.7553013],[39.3455888,48.7506234],[39.3463688,48.7472654],[39.3492871,48.742398],[39.3546086,48.7404735],[39.3575193,48.7360207],[39.3561535,48.7322088],[39.3530636,48.7289252],[39.3534853,48.7262266],[39.3601802,48.7226029],[39.3667891,48.7212439],[39.371332,48.7199549],[39.3721773,48.7171104],[39.3685058,48.7156377],[39.3630126,48.7159209],[39.3575193,48.7146184],[39.3541526,48.7131462],[39.3486595,48.7133727],[39.3454172,48.7119566],[39.3503095,48.7059529],[39.3525411,48.7008549],[39.3586158,48.6963798],[39.3670274,48.6915075],[39.3793142,48.686322],[39.3890193,48.6844245],[39.3879893,48.6807411],[39.3903733,48.6781344],[39.3936348,48.6764342],[39.4010356,48.6751304],[39.4058421,48.6737135],[39.4111446,48.6698593],[39.4123462,48.6669118],[39.4080547,48.6625468],[39.4070999,48.6594287]]],[[[33.3967657,47.4749894],[33.3967056,47.4680827],[33.4298362,47.4693591],[33.4713783,47.4750448],[33.4775581,47.4608875],[33.4972992,47.4610036],[33.4938659,47.4806139],[33.5156669,47.4829341],[33.5199585,47.4744647],[33.5645905,47.4695912],[33.5605545,47.4878194],[33.5544203,47.5050804],[33.5460514,47.5180609],[33.4989476,47.5120287],[33.5124054,47.4917502],[33.4645118,47.4847902],[33.4294929,47.4775974],[33.3967657,47.4749894]]],[[[37.8562077,48.1928465],[37.8833302,48.1997121],[37.8965706,48.2154292],[37.8929432,48.2335689],[37.89157,48.2550609],[37.8609519,48.2597596],[37.7819877,48.2682159],[37.7497154,48.2609023],[37.7562384,48.2384982],[37.8125434,48.2380409],[37.8228431,48.230723],[37.8290229,48.2041871],[37.8562077,48.1928465]]],[[[37.299243,49.1314433],[37.2820136,49.1313473],[37.2786208,49.1218186],[37.3011084,49.1101334],[37.3179312,49.0798965],[37.3529502,49.0531287],[37.3615332,49.0562786],[37.336299,49.0763545],[37.3550946,49.0870069],[37.3527785,49.0937808],[37.3671981,49.104627],[37.3919173,49.0979959],[37.4077356,49.0930945],[37.4396114,49.0878038],[37.4443169,49.0776195],[37.4602174,49.0780267],[37.463887,49.083353],[37.4573217,49.0902945],[37.4524306,49.0912488],[37.4454802,49.0923141],[37.4416207,49.094838],[37.4118799,49.0975857],[37.3927764,49.1061728],[37.3805886,49.1080553],[37.3679712,49.1126343],[37.3641081,49.1113695],[37.3548358,49.1004688],[37.3359557,49.0929377],[37.3400756,49.0872045],[37.3290892,49.0838317],[37.3151847,49.1187852],[37.299243,49.1314433]]],[[[38.4024861,48.5572586],[38.4019504,48.5615018],[38.4019712,48.5747527],[38.402637,48.5810386],[38.402637,48.5919397],[38.4060702,48.6019302],[38.4048036,48.6090985],[38.4046894,48.6169314],[38.4088093,48.62964],[38.4143025,48.6382619],[38.4198032,48.6450485],[38.3904538,48.6431674],[38.3739903,48.6047285],[38.3719304,48.5749798],[38.4024861,48.5572586]]],[[[32.4432643,46.5752038],[32.4264412,46.5753219],[32.4267843,46.5747336],[32.4432643,46.5752038]]],[[[33.3034744,47.3395522],[33.2208764,47.3597618],[33.2282278,47.3932035],[33.2429784,47.4046325],[33.2405653,47.4137375],[33.2393543,47.425166],[33.2363523,47.4463727],[33.2224478,47.4449796],[33.2232532,47.4247782],[33.2238954,47.4147058],[33.2219627,47.4075352],[33.2190024,47.3980405],[33.1888983,47.3537571],[33.1766783,47.3090055],[33.1712803,47.2483092],[33.0962724,47.2357692],[33.0940652,47.2264798],[33.0983763,47.2190655],[33.1583029,47.2214356],[33.1585529,47.1909293],[33.1752874,47.156691],[33.1863195,47.1068957],[32.8907841,47.0604547],[33.0055852,47.1128147],[32.9961616,47.1198125],[32.9821486,47.1202894],[32.9169962,47.0985565],[32.8783746,47.0912922],[32.8417642,47.0939271],[32.8179021,47.0945714],[32.7952438,47.0939271],[32.7598813,47.0673917],[32.7599765,47.0424424],[32.5445157,47.0051671],[32.4873482,46.998303],[32.4766195,46.9849547],[32.422727,46.9589532],[32.4069518,46.8468995],[32.4158434,46.8138331],[32.4281942,46.7977692],[32.4199443,46.7751243],[32.4384308,46.7542854],[32.4845655,46.7328467],[32.4652705,46.6914317],[32.4322646,46.6872125],[32.3477414,46.6674697],[32.2522194,46.6675923],[32.1384303,46.6526803],[32.1198845,46.5969803],[32.1396255,46.5573336],[32.1847725,46.5755086],[32.2091484,46.5764526],[32.2465706,46.5924979],[32.2596169,46.5906105],[32.2787667,46.581218],[32.3207073,46.5536264],[32.4264412,46.5753219],[32.4432643,46.5752038],[32.4605693,46.5764225],[32.5117047,46.5959191],[32.5442877,46.5965579],[32.5655297,46.601101],[32.5898642,46.602691],[32.6120044,46.6223243],[32.6241968,46.629575],[32.6412735,46.6413616],[32.6562978,46.6551495],[32.7186973,46.6739985],[32.7189445,46.6659243],[32.7221137,46.666069],[32.7214667,46.6751818],[32.732646,46.6760866],[32.7443297,46.6741827],[32.7554978,46.6734555],[32.7791873,46.6765179],[32.8091504,46.6852748],[32.8524095,46.7022297],[32.9423606,46.7398884],[33.0137725,46.7422411],[33.0460451,46.7469464],[33.0950616,46.7691807],[33.1561737,46.7886952],[33.2299887,46.7868145],[33.3058635,46.780467],[33.3294672,46.7801731],[33.3537713,46.7846316],[33.3597373,46.788723],[33.3807086,46.8053825],[33.4123503,46.8298909],[33.4420037,46.8419645],[33.4699496,46.8469854],[33.5087455,46.8583085],[33.5906411,46.854001],[33.5954392,46.9347815],[33.6621441,47.0000807],[33.6561332,47.0560055],[33.7473646,47.0941206],[33.782062,47.1309269],[33.7886479,47.1864238],[33.8201075,47.1983209],[33.8550065,47.2074077],[33.9005705,47.2311942],[33.9125138,47.2619696],[33.9196667,47.2851769],[33.954146,47.3005073],[33.9645983,47.3288724],[33.9727372,47.3808159],[33.9600507,47.4095159],[33.8695023,47.3893272],[33.8441039,47.4091809],[33.8355409,47.4341268],[33.7757277,47.4242175],[33.7233582,47.4203837],[33.7087588,47.4000855],[33.710046,47.3811465],[33.818773,47.3735669],[33.8265127,47.3538759],[33.8011165,47.3510376],[33.8037036,47.3386615],[33.7617483,47.3332626],[33.7479475,47.3364658],[33.6948146,47.332519],[33.6747022,47.3364846],[33.6210327,47.328414],[33.6018214,47.3494846],[33.5748686,47.3465255],[33.5393257,47.3614685],[33.5861901,47.4071252],[33.562099,47.4095839],[33.5132702,47.3708119],[33.4547437,47.3941156],[33.4251505,47.432341],[33.4103003,47.4410628],[33.3977763,47.4568622],[33.3969442,47.4683177],[33.3970043,47.4752244],[33.395537,47.4893955],[33.4009398,47.4978897],[33.395013,47.506152],[33.3859027,47.5052777],[33.381257,47.4965172],[33.3781235,47.4708527],[33.3689854,47.4694337],[33.3901664,47.4510832],[33.3934902,47.4436406],[33.3964119,47.4303778],[33.4023367,47.4218892],[33.3945297,47.4166524],[33.3766284,47.3974118],[33.3662914,47.3749157],[33.323597,47.359185],[33.3034744,47.3395522]],[[33.3010005,47.3405109],[33.301225,47.3405791],[33.3010774,47.3405352],[33.3010005,47.3405109]],[[33.2870334,47.3456871],[33.2870282,47.3456938],[33.2870264,47.3456885],[33.2870334,47.3456871]],[[33.8005103,47.3477407],[33.8005053,47.3477351],[33.8005098,47.3477361],[33.8005103,47.3477407]]],[[[35.3434366,46.3497596],[35.3433347,46.3477675],[35.3313763,46.336223],[35.3157046,46.3207143],[35.3032454,46.3160091],[35.2964674,46.31476],[35.2910634,46.3092421],[35.2895284,46.2918032],[35.2549007,46.2507502],[35.2207048,46.226544],[35.2086604,46.1900173],[35.1352698,46.1660481],[35.0327618,46.1496279],[35.0181048,46.1299544],[34.9890453,46.1098001],[34.9802566,46.0888106],[34.9766247,46.0706783],[35.0705207,46.0954324],[35.1514409,46.1213036],[35.195134,46.1470375],[35.2220449,46.183696],[35.3472255,46.3400542],[35.3692081,46.3640927],[35.3784012,46.3730302],[35.3821876,46.37871],[35.3709296,46.3707598],[35.3434366,46.3497596]]],[[[35.3434366,46.3497596],[35.3434799,46.3506067],[35.3462001,46.3533273],[35.3574785,46.3612563],[35.3709296,46.3707598],[35.3763957,46.3749323],[35.4344622,46.4150832],[35.6142873,46.4994629],[35.7699686,46.6015568],[35.9360552,46.6582401],[36.0830785,46.6581396],[36.1895152,46.6666762],[36.2286736,46.6501517],[36.2691601,46.6053279],[36.3867636,46.7166804],[36.4954425,46.7472541],[36.6152277,46.7730088],[36.6468189,46.7803189],[36.7051951,46.7772681],[36.746052,46.7652665],[36.7807089,46.7485489],[36.8101611,46.7276354],[36.8217417,46.7015406],[36.8009687,46.706789],[36.7903225,46.6744455],[36.77797,46.6632954],[36.7606414,46.6654545],[36.7419857,46.6370064],[36.7589075,46.6183014],[36.8023818,46.6604473],[36.8376794,46.7054072],[36.8454677,46.7238059],[36.8553148,46.7417292],[36.8681455,46.7653368],[36.8855787,46.7890296],[36.9039823,46.8053809],[36.9291585,46.8282063],[36.9585264,46.8472718],[36.992704,46.8621047],[37.0189753,46.8665125],[37.2352681,46.950714],[37.2968334,46.9269724],[37.3185414,46.8959443],[37.2921715,46.8742997],[37.2882615,46.870285],[37.3073534,46.8655663],[37.4810864,47.0319752],[37.5118489,47.0642661],[37.5372658,47.081589],[37.572574,47.0856491],[37.5753358,47.0999205],[37.5753475,47.1026476],[37.580681,47.1049073],[37.6132064,47.1137326],[37.6136616,47.1083058],[37.6195119,47.1032864],[37.618789,47.0876616],[37.6296282,47.0951587],[37.697967,47.0796129],[37.7677476,47.0899133],[37.7930162,47.085733],[37.8148513,47.0894957],[37.8175977,47.1011821],[37.8163243,47.1097603],[37.8180408,47.119106],[37.825594,47.1333552],[37.8297138,47.1461995],[37.8365803,47.1569396],[37.8441334,47.1655768],[37.8499699,47.1742126],[37.8513432,47.1989453],[37.8472234,47.2138727],[37.8413869,47.2269307],[37.8334905,47.2493083],[37.8341772,47.2761025],[37.8338339,47.285419],[37.8300573,47.2958981],[37.8276539,47.3026502],[37.8348638,47.3082375],[37.8317739,47.314988],[37.8245641,47.321505],[37.8273107,47.3284865],[37.8278976,47.335535],[37.8292709,47.3425147],[37.8444769,47.3419815],[37.8568365,47.34361],[37.8611999,47.3478651],[37.8591401,47.354378],[37.8485968,47.3501234],[37.8376105,47.3524495],[37.8417303,47.3584966],[37.8515869,47.3655411],[37.8416305,47.3690291],[37.8382971,47.3780289],[37.8503133,47.3843056],[37.8568366,47.3929058],[37.8558066,47.4031313],[37.863703,47.4265958],[37.878466,47.4416912],[37.8925423,47.4697802],[37.8194144,47.5463107],[37.808428,47.5618351],[37.7823354,47.5859235],[37.7771855,47.6157869],[37.7686024,47.6354551],[37.8019048,47.6423952],[37.8039646,47.6602035],[37.7644825,47.6847088],[37.7184773,47.7072389],[37.6355977,47.7431156],[37.6494212,47.7509626],[37.6525109,47.7578868],[37.6432419,47.8084068],[37.63425,47.8384304],[37.6329901,47.8460171],[37.6348783,47.8525842],[37.6348782,47.8558095],[37.6355649,47.8601864],[37.6388945,47.8677956],[37.6409319,47.8706301],[37.6424768,47.8737392],[37.6440216,47.8809928],[37.6002306,47.8276503],[37.6009691,47.8138098],[37.59141,47.804119],[37.5633692,47.7936123],[37.5550293,47.7961925],[37.5456591,47.7957738],[37.5257893,47.7720772],[37.451368,47.7682457],[37.3889791,47.7478341],[37.3574418,47.7493934],[37.3360483,47.7502444],[37.3191037,47.7520157],[37.2611671,47.7520748],[37.2198304,47.7600571],[37.1427721,47.7661625],[37.0825392,47.7835402],[36.9899879,47.7976375],[36.9791697,47.7997417],[36.9674529,47.8017669],[36.9601995,47.7973341],[36.8364734,47.8037885],[36.8200108,47.8054275],[36.8052644,47.804989],[36.7920922,47.8076911],[36.6423506,47.8119834],[36.6061603,47.7734986],[36.5548814,47.672682],[36.5137356,47.6632983],[36.4444679,47.6498852],[36.3679558,47.6312058],[36.1201584,47.5480127],[36.0244562,47.5342689],[35.9902849,47.5311799],[35.9520193,47.4970127],[35.8205743,47.5120757],[35.765462,47.5403114],[35.7220308,47.5652146],[35.7022745,47.5211645],[35.5977892,47.4970857],[35.5571913,47.4998648],[35.4996417,47.5342903],[35.4867496,47.5454464],[35.4091347,47.5426842],[35.3946499,47.5205731],[35.2941979,47.4474581],[35.2645526,47.454145],[35.270755,47.4716231],[35.2659682,47.4729138],[35.2488648,47.467239],[35.2022787,47.4446194],[35.1482984,47.4453021],[35.0771463,47.4529177],[35.0586358,47.4470038],[35.0442503,47.4373726],[35.0161843,47.411139],[34.9683309,47.3888495],[34.9280445,47.3923519],[34.8805204,47.4085222],[34.8615517,47.4205004],[34.8719771,47.4362449],[34.8714187,47.4492024],[34.859562,47.4508698],[34.8248411,47.4644185],[34.7919435,47.467363],[34.7468617,47.4927389],[34.7353126,47.4905785],[34.7086215,47.4901977],[34.6860495,47.4925954],[34.6798388,47.5103466],[34.6591223,47.5263589],[34.6437287,47.5416882],[34.6280181,47.5454457],[34.6176747,47.5441066],[34.6056377,47.5371777],[34.5986802,47.5342861],[34.5858892,47.5214249],[34.544171,47.5323231],[34.5327783,47.5300749],[34.5010368,47.4983036],[34.4354809,47.496529],[34.4097646,47.4996917],[34.3905965,47.5060009],[34.3634413,47.4935062],[34.3392158,47.467783],[34.338331,47.444876],[34.295745,47.4283035],[34.2627991,47.4260427],[34.1264861,47.4151389],[34.0837442,47.4221913],[34.0588531,47.4180832],[34.0395621,47.4022028],[33.9874416,47.2263145],[33.9166682,47.1633262],[33.8638455,47.1423136],[33.8404336,47.09814],[33.8019642,47.0586323],[33.7223966,47.0169991],[33.708302,46.9996641],[33.7010936,46.962651],[33.6949308,46.9209441],[33.6780936,46.9005413],[33.6573224,46.9032385],[33.6406731,46.8946728],[33.6382769,46.8812985],[33.6482388,46.873556],[33.6202868,46.8236042],[33.5559172,46.8126746],[33.5138615,46.8188647],[33.4759235,46.8156427],[33.3893147,46.7671751],[33.3597238,46.7887317],[33.3537578,46.7846403],[33.3535195,46.7844053],[33.3714394,46.768524],[33.2862995,46.748602],[33.2567791,46.7553059],[33.2234847,46.7671536],[33.1984228,46.7686462],[33.1435673,46.7599679],[33.0011559,46.7179131],[32.921058,46.7117419],[32.8448623,46.6851002],[32.7723186,46.668353],[32.7186953,46.6656982],[32.7014503,46.662676],[32.6589943,46.6500057],[32.5538117,46.5475952],[32.5158711,46.5359719],[32.4179268,46.4853332],[32.33085,46.4673553],[31.8607122,46.5155842],[31.8039853,46.5287257],[31.7540936,46.5475112],[31.6973125,46.5446499],[31.6686982,46.5360204],[31.6311604,46.5401339],[31.6000336,46.5374865],[31.6915414,46.4683674],[31.7410136,46.4888541],[31.8014857,46.4818914],[31.9481921,46.4395827],[31.9705557,46.4431056],[32.0084255,46.4557936],[32.0442624,46.4243711],[32.0595109,46.3757066],[31.9435827,46.3425471],[31.8383007,46.3353831],[31.7426757,46.3186491],[31.7796068,46.2622723],[31.8014031,46.2656863],[31.9587941,46.2650115],[32.2474469,46.124254],[32.5343488,46.0650295],[32.7098475,46.1024564],[32.9122952,46.1019617],[33.1771998,46.1201186],[33.2988417,46.0698133],[33.4285113,46.0269922],[33.5144647,46.026876],[33.4963485,46.0699301],[33.5633972,46.0743852],[33.5244478,46.1153413],[33.5569866,46.1218965],[33.5733937,46.1253533],[33.607615,46.1473251],[33.6908855,46.2050859],[33.7407498,46.2084572],[33.7420965,46.2083384],[33.7378268,46.2005832],[33.7277979,46.2009842],[33.7203811,46.1997587],[33.7177043,46.2024726],[33.7129325,46.2016909],[33.7156961,46.1979728],[33.7112408,46.1935006],[33.7097834,46.1901249],[33.7131321,46.186273],[33.7108166,46.1838485],[33.7160525,46.1757179],[33.7197521,46.173954],[33.7257209,46.1740225],[33.7299054,46.1709657],[33.7292498,46.1690811],[33.7261752,46.1667128],[33.7253245,46.1649346],[33.7262719,46.1616677],[33.7265729,46.1578942],[33.7280961,46.1551753],[33.7350363,46.1498909],[33.7355871,46.14713],[33.7474992,46.1378623],[33.7495243,46.1374691],[33.7545388,46.140447],[33.8239334,46.1869596],[34.0204638,46.1327688],[34.1222263,46.1077673],[34.2198404,46.0752371],[34.4199204,46.0251975],[34.5450382,45.9954987],[34.6510556,45.9735529],[34.7008651,45.9590695],[34.8396596,45.873504],[34.8155111,45.8354851],[34.8247283,45.8109751],[34.8670509,45.8289436],[34.8703655,45.8465261],[34.8747749,45.8553125],[34.8852215,45.8630502],[34.9000576,45.8578303],[34.9349479,45.8051976],[34.9400095,45.7870162],[34.9452863,45.7800794],[34.9551333,45.7671519],[34.9493247,45.762826],[34.9581999,45.7599275],[34.9685826,45.762605],[34.9770337,45.7651753],[34.891827,45.8984556],[34.8521133,46.0088626],[34.8342802,46.1151746],[34.8289593,46.2038179],[34.8992099,46.2379344],[35.0211905,46.2582045],[35.0518103,46.2667073],[35.0764109,46.2782987],[35.1017779,46.3002147],[35.1120863,46.3099756],[35.1172514,46.3219655],[35.1270553,46.3417068],[35.1391848,46.3513339],[35.1617366,46.3585109],[35.1750758,46.3630378],[35.1848369,46.3693236],[35.18972,46.3710411],[35.1993715,46.3811358],[35.2570729,46.37552],[35.2627376,46.3654039],[35.2659971,46.353274],[35.2691647,46.3557168],[35.2743562,46.3557214],[35.289955,46.356997],[35.3015309,46.3553236],[35.3050384,46.3540053],[35.3076508,46.3492667],[35.3084325,46.3481414],[35.3136771,46.3447646],[35.317634,46.3400249],[35.3181572,46.3348111],[35.3171392,46.3312338],[35.3214785,46.3329708],[35.3434366,46.3497596]]],[[[36.7992474,50.0756431],[36.8266117,50.0777264],[36.8353585,50.0727569],[36.8350255,50.0660586],[36.8477327,50.0442479],[36.8590622,50.027163],[36.8617248,50.0180649],[36.8928383,50.0088802],[36.9084493,50.0109829],[36.9142799,50.0000077],[36.9178777,49.9979696],[36.9709041,49.9580444],[36.9565492,49.9437023],[36.9517726,49.9322202],[36.978221,49.9270296],[37.0025098,49.92988],[37.0068882,49.9344967],[36.9908526,49.8812901],[37.0059655,49.8649823],[37.0028923,49.8424104],[37.0058813,49.8298088],[36.9049444,49.7915912],[36.8927814,49.7995755],[36.8775389,49.7520148],[36.8019217,49.7208424],[36.7665799,49.7266],[36.7844603,49.7162791],[36.8337273,49.7092297],[36.9028237,49.6477412],[36.8875909,49.6348718],[36.8711397,49.6195961],[36.8651939,49.6137643],[36.8592492,49.6102127],[36.8474091,49.6097265],[36.8352269,49.604567],[36.7923182,49.6143663],[36.7880325,49.6060296],[36.8300286,49.5987373],[36.8503388,49.6059882],[36.8680776,49.6075625],[36.8733423,49.617329],[36.8833288,49.6207547],[36.9006753,49.6266702],[36.9148883,49.6305167],[36.9275588,49.6358072],[36.9311967,49.6265047],[36.9924687,49.5825642],[36.8642056,49.4945449],[36.8146618,49.4976705],[36.8053663,49.4890674],[36.7985745,49.4844589],[36.7873207,49.481634],[36.7807581,49.4764124],[36.8136132,49.4385804],[36.8255282,49.4071638],[36.8780806,49.3789614],[36.8957679,49.3896477],[36.8493449,49.4264858],[36.8783301,49.4529432],[36.9636257,49.4311527],[37.023505,49.4208118],[37.0491472,49.4041326],[37.0489106,49.3949078],[37.0702309,49.3968957],[37.1339383,49.4012877],[37.1877622,49.3938622],[37.2003761,49.3846395],[37.2083047,49.3442232],[37.1935537,49.3251319],[37.1632459,49.3139249],[37.126785,49.2856968],[37.1356215,49.2836721],[37.1520214,49.2890225],[37.2103939,49.2827531],[37.2124562,49.2548752],[37.2340724,49.2180322],[37.2505519,49.2263288],[37.2549077,49.2277302],[37.258105,49.2296919],[37.267203,49.2323823],[37.2758291,49.2333351],[37.2774599,49.2333071],[37.2807645,49.2343999],[37.2823093,49.2354086],[37.2950123,49.2384349],[37.3085736,49.240004],[37.331147,49.2255439],[37.3308248,49.2222924],[37.3286146,49.2197136],[37.3268175,49.2170295],[37.3292263,49.2140649],[37.3333568,49.2104906],[37.328057,49.208949],[37.3189354,49.2092577],[37.3376183,49.1916856],[37.3658308,49.1850299],[37.4479305,49.1999181],[37.4825202,49.2701098],[37.5460672,49.3187727],[37.5292385,49.3492414],[37.6111528,49.352759],[37.6277418,49.3011695],[37.5110668,49.2558901],[37.5812136,49.2289642],[37.5775086,49.1950696],[37.6074239,49.1958334],[37.6189964,49.2435956],[37.6921462,49.2926292],[37.7958249,49.2645937],[37.7573711,49.1140212],[37.8459039,49.1052965],[37.8816597,49.3752488],[38.0267355,49.3823688],[38.0569479,49.3519626],[38.0699942,49.221181],[37.9841635,49.23284],[37.9525778,49.1309551],[37.9635641,49.1291579],[37.9422693,49.080371],[37.9374716,49.0455156],[37.9455635,49.0403141],[37.950906,49.0252092],[37.9598784,49.0117613],[38.1028592,48.9912767],[38.1528865,49.0041743],[38.2324763,49.0403544],[38.2537623,49.0300007],[38.3014842,49.0327019],[38.3281413,49.0293108],[38.3344555,49.0328516],[38.303659,49.0453153],[38.2675242,49.0403081],[38.2280539,49.0639498],[38.1940241,49.1114217],[38.1784495,49.133396],[38.1832907,49.1619467],[38.1839773,49.2023414],[38.225176,49.215799],[38.2341024,49.3694037],[38.1440081,49.3886564],[38.1090198,49.4439504],[38.1694447,49.5545454],[38.1337391,49.5972892],[38.1886708,49.7394985],[38.1776845,49.8423403],[38.2559621,49.909601],[38.2171861,49.9859305],[38.2154155,49.9779347],[38.1956744,49.9694337],[38.1955027,49.9665077],[38.1976485,49.9622012],[38.1717276,49.9539184],[38.1622863,49.9514332],[38.1713843,49.9419333],[38.1420302,49.9296138],[38.1407272,49.9302001],[38.1340753,49.9279348],[38.1358349,49.9266087],[38.1268226,49.9221604],[38.1290113,49.9317195],[38.1248485,49.9424367],[38.0582868,49.9241221],[38.046013,49.9153906],[38.0365717,49.9042805],[38.0283319,49.9059388],[38.0124532,49.918596],[38.0194914,49.9211381],[38.0167448,49.9245089],[38.0441248,49.9330731],[38.0082685,49.9633201],[38.0096417,49.9653077],[38.0048352,49.9675161],[37.9986554,49.9635409],[37.9797727,49.977011],[37.9650098,49.9787773],[37.9650098,49.9831927],[37.9615766,49.9834134],[37.951521,49.9980089],[37.9266907,50.0354182],[37.888092,50.0516465],[37.842444,50.0611592],[37.7950241,50.0845761],[37.7578393,50.0793762],[37.7438519,50.0936505],[37.7254397,50.107213],[37.7063995,50.1255263],[37.7122621,50.1295815],[37.6689256,50.1535193],[37.6549751,50.1661888],[37.6379907,50.1783275],[37.6438198,50.190319],[37.6246285,50.206065],[37.6205199,50.2128726],[37.61537,50.2152893],[37.6139967,50.2199026],[37.6277296,50.2405474],[37.6249831,50.2447192],[37.627043,50.2932168],[37.6291029,50.2965067],[37.6380293,50.3026473],[37.6349394,50.3122951],[37.6150267,50.3162414],[37.5944273,50.3160222],[37.5848143,50.3142683],[37.5772612,50.3063751],[37.5542586,50.3293933],[37.5202696,50.3357488],[37.5055067,50.3528385],[37.4838774,50.3565624],[37.4818175,50.3633522],[37.4704878,50.3703601],[37.4722044,50.3758342],[37.465338,50.3824024],[37.4643045,50.4291849],[37.485433,50.4358338],[37.4837387,50.4434579],[37.4906584,50.4578568],[37.4763155,50.4604242],[37.4695922,50.4537414],[37.4327363,50.4442799],[37.4201233,50.4340761],[37.3955449,50.4311443],[37.3552352,50.4370754],[37.33086,50.4367639],[37.3112957,50.427701],[37.291256,50.4020663],[37.1501728,50.355583],[37.137171,50.361565],[37.1057099,50.3568589],[37.1059706,50.3518314],[37.0433669,50.344967],[37.0376235,50.3496452],[36.9344624,50.3500475],[36.8537217,50.329729],[36.833019,50.3122715],[36.8211251,50.3128564],[36.8083134,50.3113798],[36.801235,50.3066595],[36.7882244,50.3052572],[36.7854329,50.3047508],[36.7682713,50.3019332],[36.7641116,50.2909283],[36.7547179,50.2898479],[36.6948207,50.2694226],[36.6876278,50.2667639],[36.6832038,50.2570565],[36.6836264,50.2552003],[36.6841305,50.2508303],[36.6793108,50.2377008],[36.6641952,50.2221997],[36.6476009,50.2179259],[36.640276,50.2226572],[36.6153238,50.2270632],[36.6134863,50.2240135],[36.5953868,50.2299901],[36.597639,50.2316209],[36.5847801,50.2357743],[36.5753521,50.2419031],[36.5688825,50.2451174],[36.560134,50.2506442],[36.5685677,50.2576353],[36.5742447,50.2552869],[36.5804148,50.262451],[36.5758405,50.2743012],[36.5935765,50.2780338],[36.5836791,50.2863778],[36.5615122,50.2845964],[36.5562823,50.2812329],[36.5252953,50.2859664],[36.527203,50.2925651],[36.5003186,50.2992313],[36.4874198,50.3116425],[36.4723521,50.3129375],[36.4406691,50.3108091],[36.4337192,50.3307479],[36.4240611,50.3285],[36.4205385,50.3226879],[36.400448,50.3073336],[36.3753767,50.3011746],[36.373987,50.2989435],[36.3783951,50.2937102],[36.3668763,50.287477],[36.2964342,50.2919211],[36.3002758,50.2992945],[36.2860065,50.2984984],[36.284119,50.3050194],[36.2808571,50.3100582],[36.2774212,50.3124621],[36.2750103,50.3170522],[36.2767126,50.31856],[36.2787438,50.3228931],[36.2725031,50.3238871],[36.2772896,50.3309544],[36.2826447,50.3354141],[36.278591,50.3385283],[36.26998,50.3340503],[36.2658352,50.3198193],[36.2587212,50.3175515],[36.2433677,50.3196669],[36.1796015,50.3472138],[36.1715681,50.3269263],[36.1577873,50.2582685],[36.1901487,50.2553118],[36.2039331,50.2552354],[36.2086199,50.2545081],[36.2107294,50.2375362],[36.2070518,50.2196193],[36.1983475,50.2029996],[36.2488838,50.2026887],[36.2574018,50.1660139],[36.2415376,50.1463948],[36.2516571,50.1333362],[36.2681669,50.1324775],[36.2940477,50.1318481],[36.3058209,50.1354536],[36.3674506,50.1373178],[36.3746603,50.1436989],[36.3851317,50.1491992],[36.3997229,50.1575584],[36.4155192,50.1625742],[36.4272647,50.1596073],[36.442791,50.1948843],[36.4967617,50.1797094],[36.5184371,50.1658413],[36.5906822,50.1497005],[36.621185,50.1565483],[36.6197217,50.1508219],[36.6231093,50.1393789],[36.6498306,50.1116493],[36.6272659,50.095392],[36.6034557,50.0848939],[36.5980431,50.0751556],[36.5832737,50.0738841],[36.5773052,50.0710513],[36.444564,50.0581742],[36.447402,50.0533327],[36.4547856,50.0541361],[36.4623389,50.0362008],[36.5590048,50.0058935],[36.5750152,50.0641549],[36.582408,50.0694355],[36.6382903,50.0639217],[36.6646569,50.0646506],[36.6864298,50.0700839],[36.705217,50.0700484],[36.7178762,50.075431],[36.7326181,50.0751504],[36.7561331,50.0636233],[36.7638529,50.0679611],[36.7974019,50.0698534],[36.7992474,50.0756431]],[[36.7992356,50.0769489],[36.7992307,50.0769483],[36.7994023,50.076129],[36.7992356,50.0769489]],[[36.7994023,50.076129],[36.7992386,50.0756424],[36.7992474,50.0756431],[36.7994023,50.076129]],[[38.1281381,49.0310565],[38.1661118,49.0348001],[38.1859862,49.0422467],[38.1979723,49.0577933],[38.1689616,49.1076011],[38.0871603,49.1956113],[38.0157492,49.2068277],[37.9992697,49.1394909],[37.9759237,49.0855556],[37.9711274,49.0487633],[37.9636495,49.029212],[38.0862208,49.032927],[38.1281381,49.0310565]],[[36.8238529,50.0798574],[36.8187823,50.0987857],[36.819037,50.1185485],[36.8220002,50.1384976],[36.8245425,50.1457937],[36.8312057,50.1517696],[36.847655,50.1551051],[36.8481529,50.1766134],[36.842505,50.1890943],[36.854024,50.2000355],[36.8324272,50.199947],[36.8283993,50.1883511],[36.8395518,50.1748078],[36.8164895,50.1556361],[36.7991245,50.1097858],[36.7952733,50.0964268],[36.7992356,50.0769489],[36.8238529,50.0798574]]]]}}]}
