{"type":"FeatureCollection","features":[{"type":"Feature","geometry":{"type":"Polygon","coordinates":[[[29.244774,47.1684368,0],[29.2476923,47.1639435,0],[29.2700511,47.151804,0],[29.275716,47.1483016,0],[29.2885906,47.1438651,0],[29.2952854,47.1400119,0],[29.2968303,47.1313706,0],[29.2940837,47.1224942,0],[29.2915088,47.1154855,0],[29.2935688,47.1092937,0],[29.3011219,47.1056718,0],[29.3083594,47.103346,0],[29.3143676,47.1028786,0],[29.3196891,47.1032292,0],[29.3286155,47.1054492,0],[29.3371986,47.1075523,0],[29.3457816,47.1057997,0],[29.3500732,47.1005416,0],[29.354193,47.0953999,0],[29.3586562,47.0840629,0],[29.3602012,47.077166,0],[29.3650077,47.0714375,0],[29.366896,47.0699175,0],[29.3741057,47.062785,0],[29.3777106,47.0614987,0],[29.3832038,47.0604462,0],[29.3895553,47.060797,0],[29.3924735,47.0590429,0],[29.3880103,47.0569379,0],[29.3830321,47.0560023,0],[29.3802856,47.0524937,0],[29.3790839,47.048283,0],[29.3795989,47.0434872,0],[29.3804572,47.0391588,0],[29.3837188,47.0360001,0],[29.3880103,47.0329582,0],[29.3873237,47.02898,0],[29.3837188,47.0258206,0],[29.3778823,47.0257036,0],[29.3725608,47.0264057,0],[29.3656943,47.0282779,0],[29.3627761,47.0317881,0],[29.3615745,47.0381059,0],[29.3589995,47.0406796,0],[29.3545364,47.0392758,0],[29.3545364,47.0356491,0],[29.3565963,47.0312031,0],[29.3591712,47.0267568,0],[29.3617461,47.0233632,0],[29.3655227,47.0172778,0],[29.3689559,47.0135325,0],[29.3722175,47.0082653,0],[29.3763373,47.0029976,0],[29.3761657,46.9963244,0],[29.3739341,46.9937486,0],[29.3614028,46.9926948,0],[29.3462966,46.9922264,0],[29.3310187,46.992929,0],[29.3178008,46.9959732,0],[29.3088744,46.9959732,0],[29.3083594,46.9904701,0],[29.3081878,46.9849664,0],[29.3040679,46.98239,0],[29.2990897,46.9853177,0],[29.3006347,46.9896504,0],[29.3033813,46.9933973,0],[29.3061278,46.9980806,0],[29.3021796,47.0007733,0],[29.2953132,46.9984318,0],[29.2920516,46.9950365,0],[29.291365,46.988011,0],[29.2930816,46.9800477,0],[29.2987464,46.97548,0],[29.3054412,46.9714975,0],[29.3100761,46.9662262,0],[29.312136,46.9642346,0],[29.3155692,46.9598999,0],[29.3224357,46.9524011,0],[29.3299888,46.9495887,0],[29.3402885,46.9430261,0],[29.3489595,46.9385073,0],[29.3605445,46.9345872,0],[29.3722175,46.933415,0],[29.3811439,46.9345872,0],[29.3928168,46.9378691,0],[29.4003699,46.9444324,0],[29.4065497,46.9495887,0],[29.4141028,46.9556819,0],[29.4199393,46.9615401,0],[29.4271491,46.9655233,0],[29.4384788,46.965289,0],[29.4494651,46.9617744,0],[29.4518684,46.9584939,0],[29.4580482,46.9526354,0],[29.463198,46.9502918,0],[29.4714377,46.9505262,0],[29.4752143,46.9441981,0],[29.4764159,46.9363454,0],[29.4755576,46.9298984,0],[29.4736693,46.9253263,0],[29.4729827,46.9193469,0],[29.4680045,46.9106698,0],[29.464743,46.9062134,0],[29.4480918,46.9018739,0],[29.4546149,46.8908478,0],[29.4635413,46.8881495,0],[29.4673179,46.8809927,0],[29.4848273,46.8843952,0],[29.4846557,46.8762991,0],[29.4841407,46.8706664,0],[29.4837974,46.8649156,0],[29.4884322,46.8555253,0],[29.4891832,46.8537645,0],[29.4792269,46.8531188,0],[29.4744633,46.8469846,0],[29.4706867,46.8508002,0],[29.4692276,46.8536177,0],[29.4681118,46.8562003,0],[29.4657086,46.8572568,0],[29.4593571,46.8576089,0],[29.4550655,46.855496,0],[29.4529198,46.8547329,0],[29.4484566,46.8544395,0],[29.4379852,46.8598392,0],[29.4333504,46.8614825,0],[29.4321488,46.8596044,0],[29.4357536,46.8529133,0],[29.4357536,46.8493914,0],[29.4103478,46.8466911,0],[29.4048546,46.8462214,0],[29.4041679,46.8328351,0],[29.4050263,46.8158038,0],[29.3978165,46.8185057,0],[29.3964432,46.8068749,0],[29.3969582,46.8046425,0],[29.4069145,46.8033499,0],[29.4084595,46.7766701,0],[29.4024513,46.774554,0],[29.4014214,46.7584451,0],[29.4120644,46.7590331,0],[29.414296,46.7551521,0],[29.4582413,46.7592683,0],[29.4621895,46.773731,0],[29.4697426,46.7716148,0],[29.4754074,46.7803144,0],[29.4839905,46.7824303,0],[29.4875954,46.781725,0],[29.4891403,46.7781984,0],[29.5059631,46.7799618,0],[29.5081947,46.7846637,0],[29.5104263,46.7883075,0],[29.5123146,46.7888951,0],[29.5148895,46.784076,0],[29.5251892,46.7805495,0],[29.5349739,46.777258,0],[29.5418404,46.7781984,0],[29.5340298,46.7746716,0],[29.5366905,46.7709093,0],[29.5410679,46.767676,0],[29.5499943,46.7669705,0],[29.5586632,46.7557402,0],[29.5598648,46.7420961,0],[29.5567749,46.7353903,0],[29.5586632,46.7242123,0],[29.5562599,46.7173867,0],[29.5629547,46.7142089,0],[29.5825241,46.7138559,0],[29.5742844,46.72433,0],[29.5718811,46.7325666,0],[29.5727394,46.7403315,0],[29.5811508,46.7432724,0],[29.5935104,46.7431548,0],[29.6070717,46.7409197,0],[29.6273277,46.7412726,0],[29.6426056,46.7431548,0],[29.6573685,46.7443311,0],[29.6573685,46.7358609,0],[29.6693848,46.7330373,0],[29.6697281,46.7212703,0],[29.6635483,46.7123258,0],[29.6669815,46.7036151,0],[29.6583126,46.7014373,0],[29.6486137,46.7010841,0],[29.6483563,46.6953741,0],[29.6549652,46.6953152,0],[29.6511887,46.6910764,0],[29.6599434,46.6897812,0],[29.6547936,46.6856597,0],[29.6527336,46.6822446,0],[29.6551369,46.6767093,0],[29.6635483,46.6752959,0],[29.6676682,46.6754137,0],[29.6741913,46.6763559,0],[29.6779678,46.6755315,0],[29.6814011,46.673058,0],[29.6858643,46.6717623,0],[29.6912716,46.6727635,0],[29.6943615,46.6741769,0],[29.6952198,46.6790059,0],[29.6993397,46.678417,0],[29.7013996,46.6760615,0],[29.7008846,46.6708789,0],[29.6984814,46.666756,0],[29.7000263,46.6649889,0],[29.7063778,46.6642821,0],[29.7091244,46.6620437,0],[29.7147892,46.6589806,0],[29.7182224,46.6576846,0],[29.722514,46.6589806,0],[29.7268055,46.6613369,0],[29.7254322,46.6652246,0],[29.721999,46.6681696,0],[29.7244022,46.6718212,0],[29.7292088,46.6718212,0],[29.7357319,46.6700543,0],[29.7369335,46.667345,0],[29.7400234,46.6646355,0],[29.7434567,46.6659314,0],[29.7451733,46.6682874,0],[29.754958,46.6688764,0],[29.7619961,46.668523,0],[29.7649143,46.6651068,0],[29.7592495,46.656742,0],[29.7547863,46.6514397,0],[29.7561596,46.6473153,0],[29.7654293,46.6516754,0],[29.7734974,46.6556816,0],[29.774699,46.6502613,0],[29.7643993,46.6479045,0],[29.7595928,46.645312,0],[29.7673176,46.6376513,0],[29.7729824,46.6411871,0],[29.7786472,46.6364727,0],[29.7781323,46.633408,0],[29.7649143,46.6337617,0],[29.7585629,46.6338795,0],[29.7515247,46.6306969,0],[29.7597645,46.6259815,0],[29.7630261,46.6227984,0],[29.7626827,46.619733,0],[29.7585629,46.6212657,0],[29.7546146,46.6237415,0],[29.7482632,46.6262173,0],[29.7424267,46.625392,0],[29.7425984,46.6232699,0],[29.7455166,46.6204404,0],[29.7522114,46.6172569,0],[29.7558163,46.615842,0],[29.7504948,46.614427,0],[29.7479199,46.614427,0],[29.7496365,46.6117149,0],[29.7472332,46.6079413,0],[29.7420834,46.6061724,0],[29.7374485,46.6098282,0],[29.7338436,46.6057006,0],[29.731097,46.6007472,0],[29.7232006,46.6021625,0],[29.722514,46.5990959,0],[29.731097,46.5948496,0],[29.7389935,46.5931982,0],[29.7513531,46.5898952,0],[29.7602795,46.5901311,0],[29.7671459,46.5894233,0],[29.7664593,46.5856481,0],[29.7760723,46.5814008,0],[29.7843121,46.578569,0],[29.7925518,46.5823447,0],[29.795985,46.5804569,0],[29.7983883,46.5851762,0],[29.7946117,46.5896592,0],[29.795985,46.5948496,0],[29.8042248,46.5922545,0],[29.806628,46.5870639,0],[29.8107479,46.5894233,0],[29.807658,46.5943778,0],[29.8055981,46.6016907,0],[29.7977017,46.6021625,0],[29.8018215,46.6059365,0],[29.8090313,46.6040495,0],[29.8176144,46.6014548,0],[29.8134945,46.5962651,0],[29.8138378,46.5856481,0],[29.8207043,46.590603,0],[29.8237942,46.5969728,0],[29.8217342,46.6026343,0],[29.828944,46.6016907,0],[29.8306606,46.5974446,0],[29.8323773,46.5953215,0],[29.8399304,46.5969728,0],[29.8368404,46.5891874,0],[29.828944,46.586356,0],[29.8258541,46.5817547,0],[29.8311756,46.579631,0],[29.8394154,46.5817547,0],[29.8457668,46.5860021,0],[29.8495434,46.5891874,0],[29.8531483,46.586474,0],[29.8533199,46.5822267,0],[29.8560665,46.579513,0],[29.8625897,46.578333,0],[29.8713444,46.578687,0],[29.8718594,46.5822267,0],[29.8713444,46.5875358,0],[29.8770092,46.5861201,0],[29.8780392,46.5825806,0],[29.8752926,46.578333,0],[29.8685978,46.5760911,0],[29.8625897,46.5737311,0],[29.861388,46.571253,0],[29.8670528,46.5706629,0],[29.8734043,46.5704269,0],[29.8716877,46.5686567,0],[29.8596714,46.5696008,0],[29.8598431,46.5666504,0],[29.8631046,46.564408,0],[29.8696278,46.5626376,0],[29.8794125,46.5624016,0],[29.883189,46.5638179,0],[29.8897122,46.5594508,0],[29.893832,46.556854,0],[29.8964069,46.5526043,0],[29.8922871,46.5500072,0],[29.8869656,46.5524863,0],[29.8795841,46.5557916,0],[29.8795841,46.5588606,0],[29.8718594,46.5580344,0],[29.8739193,46.5504794,0],[29.8761509,46.5462293,0],[29.8778675,46.5426873,0],[29.8816441,46.5417427,0],[29.8845623,46.5462293,0],[29.8876522,46.5474099,0],[29.9260165,46.5530801,0],[29.9455021,46.5549653,0],[29.9453303,46.5577096,0],[29.9484631,46.5604097,0],[29.948592,46.5613392,0],[29.9479054,46.5615754,0],[29.9448529,46.5597754,0],[29.9436888,46.5595099,0],[29.9418757,46.5589787,0],[29.9400518,46.5590967,0],[29.9406043,46.5601885,0],[29.9423584,46.5606901,0],[29.9425193,46.5644669,0],[29.9432705,46.5660013,0],[29.9452017,46.5665103,0],[29.9462745,46.5661341,0],[29.9485062,46.5685682,0],[29.9473515,46.5692247,0],[29.9461968,46.5689666,0],[29.9440591,46.5676243,0],[29.9412428,46.5682439,0],[29.9388718,46.5683618,0],[29.9384211,46.5701909,0],[29.9345158,46.5804569,0],[29.936919,46.5835245,0],[29.9352024,46.5884795,0],[29.9393223,46.5894233,0],[29.9444721,46.5842324,0],[29.9633549,46.5837605,0],[29.9681614,46.5990959,0],[29.9585484,46.6094744,0],[29.9544285,46.6182002,0],[29.9530552,46.6271604,0],[29.9558018,46.6387121,0],[29.9479054,46.6434264,0],[29.9489353,46.6521467,0],[29.9544285,46.6582737,0],[29.958205,46.6707611,0],[29.9623249,46.682068,0],[29.969878,46.6860719,0],[29.9678181,46.700672,0],[29.9659784,46.712263,0],[29.96821,46.7212076,0],[29.969755,46.72968,0],[29.9707849,46.736857,0],[29.9723299,46.7409746,0],[29.9742182,46.7450918,0],[29.974309,46.7536004,0],[29.9661551,46.7558938,0],[29.9655543,46.7595983,0],[29.9664126,46.771592,0],[29.9429415,46.7950167,0],[29.9343584,46.8060626,0],[29.9625108,46.818046,0],[29.9783037,46.8166363,0],[29.9803636,46.8201604,0],[29.9714372,46.8248588,0],[29.9676607,46.8319057,0],[29.958391,46.8370729,0],[29.9491213,46.8427092,0],[29.9250887,46.8349591,0],[29.9316118,46.8286173,0],[29.9062059,46.8192207,0],[29.8825166,46.850693,0],[29.8928163,46.8530409,0],[29.8825166,46.8882477,0],[29.8454378,46.8812082,0],[29.850931,46.8746371,0],[29.7486208,46.8614926,0],[29.7348543,46.9206888,0],[29.7184084,46.9182725,0],[29.7128816,46.9338188,0],[29.6991823,46.9239003,0],[29.6476839,46.9206175,0],[29.6366976,46.957186,0],[29.5694063,46.9403113,0],[29.5536134,46.957186,0],[29.6016786,46.9656213,0],[29.6003053,47.0414794,0],[29.6284578,47.0456906,0],[29.6120304,47.0998224,0],[29.5502323,47.095148,0],[29.5474857,47.0736407,0],[29.5145268,47.1110392,0],[29.4884342,47.113843,0],[29.4939274,47.1278599,0],[29.5804447,47.1372025,0],[29.5516056,47.2538461,0],[29.5982975,47.2575744,0],[29.5782991,47.367164,0],[29.4856876,47.3609318,0],[29.4815678,47.3274326,0],[29.4856876,47.3069505,0],[29.430756,47.2911179,0],[29.4183964,47.3069505,0],[29.408011,47.296427,0],[29.3970247,47.341114,0],[29.4074101,47.3637224,0],[29.3868107,47.3823229,0],[29.3428654,47.3711634,0],[29.3140263,47.4483016,0],[29.2426151,47.4185749,0],[29.2426151,47.464087,0],[29.1863102,47.4260082,0],[29.1849369,47.4464442,0],[29.1986698,47.4631586,0],[29.1588444,47.4520162,0],[29.1519779,47.4668722,0],[29.1835636,47.4733704,0],[29.1904301,47.499355,0],[29.1849369,47.5188351,0],[29.1464848,47.5058492,0],[29.1148991,47.5512857,0],[29.1657108,47.5707465,0],[29.1904301,47.5707465,0],[29.1863102,47.5911262,0],[29.2034715,47.5969504,0],[29.2003816,47.6034324,0],[29.2161745,47.6122283,0],[29.2106813,47.6293527,0],[29.2196077,47.6272703,0],[29.2336839,47.642308,0],[29.2072481,47.6427706,0],[29.2110246,47.6587289,0],[29.219951,47.6584976,0],[29.2196077,47.6802301,0],[29.2312807,47.6843906,0],[29.2028008,47.7194487,0],[29.215847,47.7383851,0],[29.2515526,47.7522367,0],[29.2803917,47.8039167,0],[29.2481194,47.8122176,0],[29.2316399,47.7979208,0],[29.2165337,47.798382,0],[29.1973076,47.818673,0],[29.2051277,47.8377647,0],[29.2254601,47.8546238,0],[29.239193,47.8661413,0],[29.2784185,47.886026,0],[29.217907,47.8859453,0],[29.2234977,47.8901741,0],[29.2185195,47.8955839,0],[29.2143997,47.8925913,0],[29.212683,47.8875265,0],[29.2099365,47.8854544,0],[29.2013534,47.8844184,0],[29.1977485,47.8963896,0],[29.1846835,47.9660878,0],[29.1771304,47.9656281,0],[29.1750704,47.9913683,0],[29.1249453,47.9941254,0],[29.1304385,47.9817172,0],[29.1070925,47.9835557,0],[29.0878665,47.9780401,0],[29.0995394,47.9610302,0],[29.081,47.972524,0],[29.0871798,47.9467744,0],[29.0658938,47.9430948,0],[29.0446078,47.9458545,0],[29.026755,47.9458545,0],[29.0116488,47.9545926,0],[28.9986025,47.9596508,0],[28.9766299,47.9706852,0],[28.9622103,47.9784998,0],[28.9271914,47.9612601,0],[28.8784396,48.0003284,0],[28.8880526,48.0058415,0],[28.8835894,48.0088276,0],[28.8890826,48.0115838,0],[28.8938891,48.0088276,0],[28.9021289,48.0102057,0],[28.9010989,48.0129618,0],[28.8870226,48.0141101,0],[28.8815295,48.0111244,0],[28.8677966,48.0173253,0],[28.8695132,48.0196218,0],[28.8595568,48.0219182,0],[28.8547503,48.0189329,0],[28.8564669,48.0278882,0],[28.8379627,48.0356595,0],[28.8544422,48.0618237,0],[28.8420826,48.068248,0],[28.8516956,48.0728363,0],[28.8407093,48.0769654,0],[28.8565022,48.1012744,0],[28.8448292,48.1251136,0],[28.8283497,48.1278636,0],[28.8132435,48.1237386,0],[28.8050037,48.1333631,0],[28.7919575,48.1274053,0],[28.7741047,48.1260303,0],[28.7548786,48.1374873,0],[28.7274128,48.1310717,0],[28.7033802,48.1274053,0],[28.6889607,48.1241969,0],[28.678661,48.141153,0],[28.6841541,48.1480255,0],[28.6436421,48.1439021,0],[28.6477619,48.1530648,0],[28.6264759,48.1571874,0],[28.6086231,48.1581035,0],[28.5928303,48.1718431,0],[28.5756641,48.1663477,0],[28.5703035,48.1738358,0],[28.5433918,48.1663477,0],[28.5351521,48.1571874,0],[28.5262257,48.154439,0],[28.5071321,48.153684,0],[28.5200459,48.1379456,0],[28.5001331,48.1260303,0],[28.4997898,48.1209884,0],[28.4956338,48.1191235,0],[28.4946789,48.1195604,0],[28.4945287,48.119367,0],[28.4918894,48.1188442,0],[28.4987773,48.1152413,0],[28.4995311,48.1154671,0],[28.5091442,48.1216554,0],[28.5218471,48.1209679,0],[28.5410732,48.1182175,0],[28.5640758,48.1101949,0],[28.5784954,48.1044636,0],[28.5939449,48.0980439,0],[28.611111,48.0955216,0],[28.6255306,48.0925406,0],[28.632397,48.0881835,0],[28.6354869,48.0796974,0],[28.633427,48.0702922,0],[28.621754,48.0643271,0],[28.6128276,48.064786,0],[28.6059612,48.0774036,0],[28.5990947,48.0760273,0],[28.5960048,48.0668509,0],[28.5891384,48.056755,0],[28.5884517,48.0482637,0],[28.5750621,48.0425256,0],[28.5530895,48.0393119,0],[28.5441631,48.0358685,0],[28.5427898,48.0271442,0],[28.5362667,48.021863,0],[28.5283702,48.0129066,0],[28.5318035,48.0034893,0],[28.5390132,47.9984354,0],[28.5465663,47.9972867,0],[28.5599559,47.9922321,0],[28.5750621,47.9984354,0],[28.578152,48.0078536,0],[28.5877651,48.0172702,0],[28.590855,48.0276034,0],[28.5932582,48.0349503,0],[28.6087127,48.0370175,0],[28.6207241,48.0298994,0],[28.6368602,48.0276034,0],[28.6509365,48.0257665,0],[28.6773723,48.0276034,0],[28.7024349,48.0234704,0],[28.7048381,48.0129066,0],[28.7027782,48.0032596,0],[28.7141078,47.9959082,0],[28.730244,47.9812024,0],[28.7460369,47.9761463,0],[28.7563365,47.9754568,0],[28.7625163,47.9784446,0],[28.773846,47.9848792,0],[28.7882656,47.9864878,0],[28.7944454,47.9812024,0],[28.7927288,47.9713195,0],[28.8013118,47.963274,0],[28.8157314,47.9506284,0],[28.8298076,47.9441895,0],[28.8353008,47.9347596,0],[28.8284343,47.925558,0],[28.8201946,47.9117527,0],[28.8250011,47.9016264,0],[28.8356441,47.8974832,0],[28.8528102,47.897253,0],[28.8730663,47.8947209,0],[28.8867992,47.890347,0],[28.9080852,47.8857425,0],[28.925938,47.8843611,0],[28.9424175,47.8848216,0],[28.9503139,47.8811376,0],[28.9571804,47.8811376,0],[28.9702266,47.8783744,0],[28.9815563,47.876302,0],[28.9901393,47.8737689,0],[28.9987224,47.8701992,0],[29.0061038,47.8658233,0],[29.0191501,47.8559184,0],[29.0251583,47.8486612,0],[29.02327,47.841864,0],[29.0177768,47.8323002,0],[29.0107387,47.8253855,0],[29.0078205,47.8160493,0],[29.0016406,47.8087866,0],[28.9937442,47.8002545,0],[28.9884227,47.7905677,0],[28.9870494,47.782494,0],[28.9834445,47.7688813,0],[28.9803546,47.757573,0],[28.9810413,47.7455698,0],[28.9734882,47.7303309,0],[28.967995,47.7199382,0],[28.9721149,47.7044608,0],[28.979668,47.6924453,0],[28.9861911,47.6718738,0],[28.991341,47.6584634,0],[28.9958042,47.6503692,0],[28.9927143,47.6390352,0],[28.9855045,47.6263105,0],[28.9831012,47.6133512,0],[28.9937442,47.6013147,0],[29.0088504,47.5902017,0],[29.0270465,47.5723695,0],[29.0273899,47.5512874,0],[29.0208667,47.536687,0],[29.0253299,47.518373,0],[29.0414661,47.5102571,0],[29.0606922,47.4995886,0],[29.0768283,47.4928617,0],[29.0967411,47.4831177,0],[29.1080707,47.4712834,0],[29.1180271,47.4585179,0],[29.1060108,47.4450527,0],[29.0909046,47.4369255,0],[29.0788883,47.4241516,0],[29.0778583,47.4141626,0],[29.0915912,47.4048688,0],[29.1077274,47.3927844,0],[29.1321033,47.3816271,0],[29.1492694,47.3695374,0],[29.1588825,47.3590729,0],[29.1640323,47.3474433,0],[29.1605991,47.337905,0],[29.1468662,47.3306921,0],[29.13176,47.3288305,0],[29.1276401,47.3255726,0],[29.1228336,47.3167287,0],[29.1245502,47.3102111,0],[29.1338199,47.3090472,0],[29.1475528,47.3104439,0],[29.163689,47.3167287,0],[29.1726154,47.3207435,0],[29.1822284,47.325398,0],[29.1957038,47.3292377,0],[29.2094367,47.3331353,0],[29.2205947,47.3256889,0],[29.2394775,47.3395336,0],[29.2484039,47.346978,0],[29.2616218,47.3526769,0],[29.2707199,47.3629101,0],[29.2829078,47.3724438,0],[29.288401,47.37814,0],[29.2983573,47.3841842,0],[29.3129486,47.3799998,0],[29.3227333,47.3695374,0],[29.3235916,47.360352,0],[29.2957824,47.3481411,0],[29.2727798,47.3383703,0],[29.2532104,47.334764,0],[29.224028,47.3137028,0],[29.2075485,47.296708,0],[29.1946739,47.3039256,0],[29.1744178,47.2963588,0],[29.1596549,47.2939139,0],[29.1455787,47.2930989,0],[29.1277259,47.2880922,0],[29.1143363,47.2819205,0],[29.1272109,47.2733022,0],[29.1342541,47.2674838,0],[29.1418072,47.2609602,0],[29.1467854,47.2540863,0],[29.1478153,47.2481437,0],[29.1497036,47.2446478,0],[29.1567417,47.2394034,0],[29.1612049,47.2329929,0],[29.1632648,47.227048,0],[29.1670414,47.2198199,0],[29.1706463,47.2152726,0],[29.179401,47.214573,0],[29.1861516,47.2155202,0],[29.187071,47.2160354,0],[29.18701,47.2131299,0],[29.1897565,47.2077658,0],[29.1911298,47.2014681,0],[29.195593,47.1944698,0],[29.2007429,47.1895704,0],[29.2093259,47.1821039,0],[29.2223722,47.17697,0],[29.217909,47.1650669,0],[29.2337018,47.1526941,0],[29.2405683,47.159231,0],[29.2409116,47.1711355,0],[29.2411156,47.1714053,0],[29.244774,47.1684368,0]],[[29.1870743,47.2161906,0],[29.187071,47.2160354,0],[29.1872206,47.2161193,0],[29.1870743,47.2161906,0]],[[29.1872206,47.2161193,0],[29.1879112,47.2157826,0],[29.188748,47.2138003,0],[29.1893918,47.2119346,0],[29.1899711,47.2100835,0],[29.1904217,47.2080281,0],[29.1907436,47.2065413,0],[29.1937047,47.1991792,0],[29.1957218,47.196963,0],[29.1979534,47.1943969,0],[29.2003137,47.1921806,0],[29.2044765,47.1880976,0],[29.2062789,47.1868143,0],[29.2167503,47.1800766,0],[29.2222435,47.1785306,0],[29.2264492,47.1769846,0],[29.2394525,47.1727546,0],[29.2411156,47.1714053,0],[29.2532712,47.1874706,0],[29.2433149,47.2000685,0],[29.249838,47.2012348,0],[29.2601377,47.1954029,0],[29.2852003,47.2038006,0],[29.2810804,47.2117306,0],[29.2954999,47.239476,0],[29.3126661,47.2397091,0],[29.3305189,47.2571882,0],[29.3442518,47.2592853,0],[29.3610746,47.2849099,0],[29.3428785,47.2914305,0],[29.3092329,47.2662751,0],[29.3020231,47.2674399,0],[29.2941267,47.2604503,0],[29.2776472,47.267207,0],[29.2608243,47.254858,0],[29.250868,47.2634793,0],[29.2385084,47.2618483,0],[29.2312986,47.2529938,0],[29.2191106,47.2518286,0],[29.2141325,47.2425062,0],[29.2155057,47.2372616,0],[29.197653,47.2307343,0],[29.2024595,47.2244393,0],[29.1931039,47.2197759,0],[29.1895849,47.2174441,0],[29.1872206,47.2161193,0]]]},"properties":{"name":"Придністров'я /// Transnistria","styleUrl":"#poly-880E4F-1200-77-nodesc","styleHash":"-6b23f4d9","styleMapHash":{"normal":"#poly-880E4F-1200-77-nodesc-normal","highlight":"#poly-880E4F-1200-77-nodesc-highlight"},"stroke-opacity":1,"stroke":"#880e4f","stroke-width":1.2,"fill-opacity":0.30196078431372547,"fill":"#880e4f"}},{"type":"Feature","geometry":{"type":"Polygon","coordinates":[[[38.355341,49.0541261,0],[38.3448782,49.0470349,0],[38.3403623,49.0426207,0],[38.3344555,49.0328516,0],[38.3315352,49.024416,0],[38.3377475,49.0177882,0],[38.3386376,49.0160011,0],[38.3419272,49.0109707,0],[38.3460135,49.0073975,0],[38.3536184,49.005851,0],[38.3735404,48.9961946,0],[38.3880899,48.9931545,0],[38.4010048,48.9834115,0],[38.4057625,48.9789431,0],[38.4241472,48.9814425,0],[38.4355573,48.9951909,0],[38.4417253,49.0008731,0],[38.430949,49.0099249,0],[38.4241521,49.0156399,0],[38.419964,49.0293865,0],[38.4068499,49.0361959,0],[38.355341,49.0541261,0]]]},"properties":{"name":"Рубіжне. Території зайняті ворогом // Rubizhne. Territory, which is under occupation","styleUrl":"#poly-A52714-1200-77-nodesc","styleHash":"5f0393c8","styleMapHash":{"normal":"#poly-A52714-1200-77-nodesc-normal","highlight":"#poly-A52714-1200-77-nodesc-highlight"},"stroke-opacity":1,"stroke":"#a52714","stroke-width":1.2,"fill-opacity":0.30196078431372547,"fill":"#a52714"}},{"type":"Feature","geometry":{"type":"Polygon","coordinates":[[[36.2479942,50.202794,0],[36.2857093,50.1988143,0],[36.3932684,50.2292829,0],[36.3996688,50.2827904,0],[36.486424,50.2580317,0],[36.5058366,50.2367607,0],[36.6180204,50.1970433,0],[36.6521043,50.2005974,0],[36.6845491,50.2090446,0],[36.7374609,50.2115461,0],[36.7467566,50.1872308,0],[36.7939675,50.187637,0],[36.8253068,50.19525,0],[36.8424043,50.1782266,0],[36.8525932,50.156253,0],[36.8327418,50.1531923,0],[36.8258281,50.1476211,0],[36.8216159,50.1396691,0],[36.8174477,50.1183743,0],[36.8167383,50.1082763,0],[36.8122529,50.1058845,0],[36.8104478,50.0987397,0],[36.8178215,50.0820326,0],[36.8253542,50.0776955,0],[36.8328456,50.0721396,0],[36.8326427,50.0692515,0],[36.82935,50.0665837,0],[36.8216732,50.0664902,0],[36.8083821,50.0610139,0],[36.8123575,50.0416871,0],[36.8196195,50.0310319,0],[36.8307045,50.0227347,0],[36.8621229,50.0173893,0],[36.8912012,50.0045578,0],[36.8907421,49.9780424,0],[36.9011276,49.9523805,0],[36.9073532,49.949493,0],[36.9252276,49.9516938,0],[36.9504714,49.9417463,0],[36.9484994,49.9335676,0],[36.9528786,49.9285927,0],[36.9585658,49.9266891,0],[36.9624384,49.9284996,0],[36.9695246,49.925426,0],[36.9883444,49.9249939,0],[37.0046192,49.9186981,0],[37.0061286,49.9108542,0],[36.999645,49.8911063,0],[37.0126776,49.8604924,0],[37.0030213,49.842672,0],[37.0060103,49.8300704,0],[36.9239557,49.7899688,0],[36.9261192,49.7668131,0],[36.8640668,49.7351079,0],[36.8196369,49.7278563,0],[36.7712649,49.7335708,0],[36.7562417,49.7192596,0],[36.8229794,49.7075077,0],[36.8832236,49.6531316,0],[36.8668858,49.6232094,0],[36.8503774,49.612775,0],[36.8201407,49.6139031,0],[36.7727245,49.6072471,0],[36.7802415,49.597719,0],[36.8221038,49.5985168,0],[36.8739132,49.5979623,0],[36.9151867,49.6079434,0],[36.946157,49.5974445,0],[36.9653119,49.5776544,0],[36.8842751,49.4910446,0],[36.8128931,49.5067399,0],[36.7800535,49.4872899,0],[36.7912003,49.4463554,0],[36.8256563,49.4074254,0],[36.8567021,49.398918,0],[36.8832704,49.3829181,0],[36.8942588,49.3872513,0],[36.9258569,49.4067763,0],[36.9356747,49.4074286,0],[37.0271811,49.3852702,0],[37.0932549,49.394924,0],[37.1637161,49.3847609,0],[37.178544,49.3781579,0],[37.1604109,49.3257421,0],[37.0750054,49.268065,0],[37.0969421,49.2591737,0],[37.1354671,49.2774343,0],[37.1855198,49.2768756,0],[37.2134485,49.2505044,0],[37.2342026,49.2182938,0],[37.2354042,49.2022571,0],[37.2470773,49.1781362,0],[37.2160909,49.1312467,0],[37.2231318,49.1194034,0],[37.2292562,49.1200134,0],[37.2821858,49.1052821,0],[37.2960891,49.1047761,0],[37.3180619,49.0801581,0],[37.353081,49.0533903,0],[37.3616641,49.0565402,0],[37.3364298,49.0766161,0],[37.3552254,49.0872685,0],[37.3709338,49.0862857,0],[37.3918767,49.0825193,0],[37.4148795,49.0817322,0],[37.4444482,49.0778811,0],[37.4603488,49.0782883,0],[37.4640184,49.0836146,0],[37.4574531,49.0905561,0],[37.4456115,49.0925757,0],[37.441752,49.0950996,0],[37.412011,49.0978473,0],[37.3929075,49.1064344,0],[37.3964535,49.1100207,0],[37.4032524,49.1221347,0],[37.4039773,49.1400678,0],[37.4021649,49.1514442,0],[37.4075631,49.1628206,0],[37.4220954,49.1666669,0],[37.4366279,49.163552,0],[37.4700576,49.1623672,0],[37.4998958,49.1537673,0],[37.5395301,49.1433914,0],[37.5777534,49.1199905,0],[37.6198807,49.1303775,0],[37.6583057,49.1341511,0],[37.7309137,49.1085546,0],[37.7699053,49.1091142,0],[37.9266448,49.1388177,0],[37.9626782,49.127182,0],[37.9481134,49.0895481,0],[37.9353957,49.0646418,0],[37.9469159,49.0274215,0],[37.9054628,49.028642,0],[37.8961851,49.0187828,0],[37.868119,49.0063247,0],[37.8416831,48.9914585,0],[37.8888902,48.9783905,0],[37.9179003,48.9579849,0],[37.937727,48.9520753,0],[37.9179398,48.920543,0],[37.9317495,48.9142834,0],[37.9545973,48.91207,0],[37.9568754,48.9088081,0],[37.9561358,48.9075272,0],[37.9521348,48.903369,0],[37.9529735,48.9018509,0],[37.9610014,48.9012689,0],[37.9702309,48.9026328,0],[37.9736947,48.9038089,0],[37.9751264,48.9070485,0],[37.9789618,48.910965,0],[37.9834235,48.9112039,0],[37.9864698,48.9114924,0],[37.9891088,48.9109315,0],[37.9914583,48.9089021,0],[37.9925042,48.9063924,0],[37.9936279,48.9060964,0],[37.9950481,48.9074999,0],[37.9949858,48.9095555,0],[37.9970694,48.9112727,0],[37.9999859,48.9112285,0],[38.0042765,48.9089217,0],[38.0053487,48.907458,0],[38.0055197,48.905148,0],[38.0061818,48.9048773,0],[38.007457,48.9055599,0],[38.008481,48.9087783,0],[38.0094225,48.9093722,0],[38.0113953,48.9096409,0],[38.0134547,48.9081957,0],[38.0148064,48.90806,0],[38.0159865,48.9088833,0],[38.0166088,48.9115681,0],[38.0174351,48.9120927,0],[38.0196936,48.9125524,0],[38.0207518,48.9133723,0],[38.0204367,48.9170691,0],[38.0256005,48.9173554,0],[38.0272091,48.9163229,0],[38.0290752,48.9142187,0],[38.0441239,48.9351512,0],[38.0574623,48.9400682,0],[38.0643634,48.9373624,0],[38.0904908,48.9405176,0],[38.0947132,48.9357836,0],[38.1141658,48.9322081,0],[38.117368,48.9281641,0],[38.1198832,48.9268268,0],[38.1274882,48.9268863,0],[38.1332902,48.9245205,0],[38.1368611,48.9258061,0],[38.1398316,48.931603,0],[38.1423395,48.9331592,0],[38.2012874,48.928142,0],[38.2230444,48.9344989,0],[38.2308351,48.9385785,0],[38.2338203,48.944462,0],[38.2281174,48.9476605,0],[38.2265338,48.9522116,0],[38.2309224,48.9552258,0],[38.2387446,48.9564362,0],[38.2563067,48.9599226,0],[38.2605385,48.969151,0],[38.2423781,49.0034155,0],[38.2463928,49.0069101,0],[38.2638985,49.0243909,0],[38.2906715,49.0254312,0],[38.3214108,49.0122361,0],[38.3294765,49.0075174,0],[38.33035,49.0065726,0],[38.3351084,49.0029725,0],[38.347513,48.9985408,0],[38.3532262,48.9935238,0],[38.3600742,48.9897477,0],[38.3735404,48.9961946,0],[38.3536184,49.005851,0],[38.3460135,49.0073975,0],[38.3419272,49.0109707,0],[38.3386376,49.0160011,0],[38.3377475,49.0177882,0],[38.3315352,49.024416,0],[38.3344555,49.0328516,0],[38.3037949,49.0455768,0],[38.2676599,49.0405696,0],[38.2281893,49.0642113,0],[38.1785847,49.1336575,0],[38.1834259,49.1622082,0],[38.1841125,49.2026029,0],[38.2253114,49.2160605,0],[38.234238,49.3696652,0],[38.1441432,49.3889179,0],[38.1084373,49.4443091,0],[38.1688628,49.5549041,0],[38.1331568,49.5976479,0],[38.188089,49.7398572,0],[38.1771027,49.842699,0],[38.2553808,49.9099597,0],[38.216573,49.9876066,0],[38.2156066,49.9777863,0],[38.1959941,49.9697545,0],[38.1961657,49.966221,0],[38.1980541,49.9625772,0],[38.1628633,49.9518645,0],[38.171618,49.9423646,0],[38.1345345,49.9284439,0],[38.1269859,49.9224751,0],[38.1290464,49.930431,0],[38.1249259,49.9423646,0],[38.058321,49.9246854,0],[38.0460449,49.9155111,0],[38.0360907,49.9043463,0],[38.0264573,49.9063919,0],[38.0197407,49.9124169,0],[38.0125948,49.9187722,0],[38.0200511,49.9212315,0],[38.0170362,49.9247959,0],[38.044073,49.9329733,0],[38.0330867,49.9441322,0],[38.0241637,49.9519742,0],[38.0092287,49.9629079,0],[38.0089697,49.964951,0],[38.0052774,49.9676566,0],[37.9992691,49.9642336,0],[37.979015,49.9772627,0],[37.9649367,49.9794697,0],[37.9554952,49.9948114,0],[37.9251111,50.0352944,0],[37.8921577,50.0511736,0],[37.8616007,50.0556922,0],[37.8502662,50.0593254,0],[37.8186873,50.0722192,0],[37.7973943,50.0842255,0],[37.754822,50.0782772,0],[37.7467611,50.0921533,0],[37.7359496,50.0985395,0],[37.7108765,50.1236427,0],[37.6898104,50.1429953,0],[37.676862,50.149592,0],[37.6713929,50.1513511,0],[37.6549338,50.1663075,0],[37.6455018,50.1752136,0],[37.6411281,50.1759286,0],[37.6395006,50.1814807,0],[37.6426038,50.1909372,0],[37.6133722,50.2195175,0],[37.627271,50.2423489,0],[37.6253798,50.2449775,0],[37.6270942,50.2642892,0],[37.6270975,50.2928167,0],[37.6286433,50.2961102,0],[37.6384302,50.3029125,0],[37.6367184,50.3103765,0],[37.63423,50.3126245,0],[37.6296815,50.3146531,0],[37.600326,50.3165153,0],[37.5857335,50.3147617,0],[37.5773233,50.3064297,0],[37.5549391,50.3305437,0],[37.5209038,50.3366812,0],[37.5059416,50.3502646,0],[37.5064266,50.3526742,0],[37.4854324,50.3567928,0],[37.4831489,50.3593778,0],[37.4827012,50.3621383,0],[37.4715034,50.370506,0],[37.4711179,50.3754795,0],[37.467835,50.3788421,0],[37.4652381,50.384394,0],[37.4660968,50.3883054,0],[37.4664382,50.397882,0],[37.4666056,50.4073496,0],[37.4652277,50.4133155,0],[37.4660428,50.4181275,0],[37.4649698,50.4211898,0],[37.4637254,50.4247994,0],[37.4662576,50.4301588,0],[37.4695618,50.4312253,0],[37.481449,50.4316353,0],[37.4858272,50.4357354,0],[37.4849252,50.4452451,0],[37.4907201,50.4579263,0],[37.4775874,50.4598932,0],[37.4735478,50.455797,0],[37.4677923,50.4532307,0],[37.4430687,50.4476578,0],[37.4325975,50.4438858,0],[37.4210992,50.4353026,0],[37.3963912,50.4312523,0],[37.3758225,50.4329674,0],[37.3524043,50.4376481,0],[37.3325906,50.4370794,0],[37.3202873,50.4330534,0],[37.3159391,50.4302479,0],[37.3089637,50.4257279,0],[37.3101216,50.4230308,0],[37.3048921,50.4152289,0],[37.302834,50.4118656,0],[37.300045,50.4065188,0],[37.2978782,50.4052676,0],[37.2927071,50.401664,0],[37.2573281,50.3914542,0],[37.2562848,50.3928417,0],[37.2218539,50.3793619,0],[37.2233578,50.3780919,0],[37.1826393,50.363681,0],[37.1598405,50.3588075,0],[37.1488546,50.3557411,0],[37.1423308,50.3616549,0],[37.1033635,50.3577124,0],[37.1038786,50.3528933,0],[37.0710027,50.3472557,0],[37.058729,50.3468717,0],[37.0455134,50.3450064,0],[37.0369336,50.3486346,0],[36.9380528,50.3507026,0],[36.9174397,50.3475324,0],[36.8879069,50.337784,0],[36.8734001,50.3368263,0],[36.8547757,50.3306068,0],[36.8511744,50.3269334,0],[36.8329954,50.3138845,0],[36.8061269,50.3107634,0],[36.799174,50.3063244,0],[36.7674205,50.3027019,0],[36.7657039,50.2928327,0],[36.7481895,50.2879531,0],[36.7505891,50.2859247,0],[36.750889,50.2832752,0],[36.7487857,50.2806257,0],[36.7401161,50.2832244,0],[36.7293014,50.2778905,0],[36.7196895,50.2775331,0],[36.7035569,50.2686178,0],[36.7016268,50.2646607,0],[36.6974654,50.2667387,0],[36.6955356,50.269365,0],[36.6894857,50.2695772,0],[36.6841392,50.2592104,0],[36.6823249,50.2558927,0],[36.6841644,50.2510507,0],[36.6793115,50.2377128,0],[36.672401,50.2307426,0],[36.667382,50.226407,0],[36.6661397,50.2244324,0],[36.6639935,50.2223046,0],[36.6524067,50.2191879,0],[36.6479464,50.2180372,0],[36.6407375,50.2225688,0],[36.6190218,50.2271952,0],[36.6159531,50.227363,0],[36.6147727,50.2269816,0],[36.6132703,50.2241323,0],[36.5955455,50.2303089,0],[36.5975606,50.231653,0],[36.584773,50.2364024,0],[36.5779052,50.2396684,0],[36.5755456,50.2422897,0],[36.5727669,50.2437821,0],[36.5713614,50.2441766,0],[36.5700097,50.2441972,0],[36.5600953,50.2510305,0],[36.5681205,50.2573964,0],[36.5685926,50.2579727,0],[36.5743433,50.2555307,0],[36.5779694,50.2589054,0],[36.5752336,50.2609494,0],[36.5805231,50.2628562,0],[36.5792251,50.2655102,0],[36.5777177,50.2675504,0],[36.5780128,50.2681094,0],[36.5767038,50.269841,0],[36.5768539,50.2707498,0],[36.5760598,50.273222,0],[36.5758344,50.274513,0],[36.5737635,50.2755571,0],[36.5939126,50.2761601,0],[36.5934649,50.2783473,0],[36.5913435,50.278889,0],[36.5896753,50.2796431,0],[36.5883989,50.281316,0],[36.5878515,50.282029,0],[36.5887794,50.2841406,0],[36.5867542,50.2853609,0],[36.583424,50.2865195,0],[36.5814671,50.2865811,0],[36.5697533,50.2858759,0],[36.5611298,50.2847311,0],[36.559161,50.2837575,0],[36.5584853,50.2823588,0],[36.5555892,50.2817,0],[36.5393674,50.2838673,0],[36.5285955,50.2856632,0],[36.5256987,50.2863963,0],[36.5272542,50.2928498,0],[36.5240409,50.2938283,0],[36.5211708,50.2932714,0],[36.5161068,50.2946697,0],[36.5166326,50.2954613,0],[36.515785,50.296253,0],[36.5132315,50.2961913,0],[36.5117294,50.2957389,0],[36.5006164,50.2997138,0],[36.4974518,50.3026809,0],[36.4916824,50.306109,0],[36.4900326,50.3082211,0],[36.4898228,50.3101431,0],[36.4876107,50.3125689,0],[36.440232,50.3121304,0],[36.4343955,50.3294479,0],[36.4335372,50.3308725,0],[36.4282157,50.3296671,0],[36.4250717,50.3281602,0],[36.4246744,50.3273108,0],[36.4231614,50.3265984,0],[36.4216486,50.3240776,0],[36.4188589,50.3216662,0],[36.4158981,50.3185426,0],[36.4133879,50.316323,0],[36.4086559,50.3122261,0],[36.3998055,50.3071422,0],[36.375687,50.3007281,0],[36.374228,50.3005087,0],[36.3788628,50.2938745,0],[36.3665454,50.2882265,0],[36.361439,50.2874037,0],[36.3544025,50.289026,0],[36.3285675,50.2897814,0],[36.3047488,50.2921855,0],[36.2969798,50.2922294,0],[36.2992973,50.2992478,0],[36.2857359,50.2989736,0],[36.2855643,50.3034691,0],[36.2843627,50.3064296,0],[36.2757795,50.3173921,0],[36.278526,50.3233108,0],[36.2733762,50.3241876,0],[36.2840193,50.3349268,0],[36.2768095,50.3404051,0],[36.2553627,50.3551935,0],[36.2409448,50.3584782,0],[36.2329185,50.3646923,0],[36.2307274,50.3715632,0],[36.217758,50.3807055,0],[36.1621391,50.3566171,0],[36.1579117,50.25853,0],[36.1902732,50.2555733,0],[36.2040577,50.2554969,0],[36.2087445,50.2547696,0],[36.210854,50.2377977,0],[36.2018343,50.2081283,0],[36.1984721,50.2032611,0],[36.2479942,50.202794,0]]]},"properties":{"name":"Окуповано /// Occupied","styleUrl":"#poly-A52714-1200-77-nodesc","styleHash":"5f0393c8","styleMapHash":{"normal":"#poly-A52714-1200-77-nodesc-normal","highlight":"#poly-A52714-1200-77-nodesc-highlight"},"stroke-opacity":1,"stroke":"#a52714","stroke-width":1.2,"fill-opacity":0.30196078431372547,"fill":"#a52714"}},{"type":"Feature","geometry":{"type":"Polygon","coordinates":[[[30.1991118,45.2687362,0],[30.1845198,45.2535108,0],[30.2092406,45.2428748,0],[30.2241755,45.2570137,0],[30.1991118,45.2687362,0]]]},"properties":{"name":"Зміїний /// Snake Island","styleUrl":"#poly-A52714-1200-77-nodesc","styleHash":"5f0393c8","styleMapHash":{"normal":"#poly-A52714-1200-77-nodesc-normal","highlight":"#poly-A52714-1200-77-nodesc-highlight"},"stroke-opacity":1,"stroke":"#a52714","stroke-width":1.2,"fill-opacity":0.30196078431372547,"fill":"#a52714"}},{"type":"Feature","geometry":{"type":"Polygon","coordinates":[[[37.2231318,49.1194034,0],[37.2160909,49.1312467,0],[37.1575768,49.1411247,0],[37.1256662,49.143124,0],[37.1040567,49.1506187,0],[37.072951,49.1599985,0],[37.0425229,49.1653288,0],[37.0297762,49.1562483,0],[37.047238,49.1478409,0],[37.0384608,49.1377036,0],[37.0328474,49.1295083,0],[36.9845681,49.1228908,0],[36.9818475,49.1162122,0],[36.9706313,49.1073509,0],[36.9761958,49.1025911,0],[36.9944181,49.1078618,0],[37.0099372,49.1048137,0],[37.0393266,49.1156171,0],[37.1078685,49.1187591,0],[37.1572155,49.1226652,0],[37.1969475,49.1166675,0],[37.2028698,49.094135,0],[37.1740816,49.0339706,0],[37.156272,49.0048355,0],[37.157704,48.9933109,0],[37.1911779,48.9822714,0],[37.234294,48.9792667,0],[37.2650214,48.9848434,0],[37.2646275,48.9935724,0],[37.2626347,48.9990373,0],[37.2527861,49.0239462,0],[37.2539491,49.032019,0],[37.2466141,49.039979,0],[37.2298715,49.0859384,0],[37.2289274,49.0941729,0],[37.2326181,49.1025465,0],[37.230129,49.1157503,0],[37.2292562,49.1200134,0],[37.2231318,49.1194034,0]]]},"properties":{"name":"Окуповано 04.04 та 21.04 /// Occupied 04.04 and 21.04\n\n","styleUrl":"#poly-A52714-1200-77","styleHash":"bf33a3e","styleMapHash":{"normal":"#poly-A52714-1200-77-normal","highlight":"#poly-A52714-1200-77-highlight"},"description":"Зведення Генерального штабу 06:00 05.04: \"У напрямку на Барвінкове ворог має частковий успіх, просунувся на 7 км, взяв під контроль населений пункт Бражківка.\"<br><br>Зведення Генерального штабу 06:00 22.04: \"Ворог здійснює спроби вести наступ у напрямку населеного пункту Заводи. Вийшов на північні околиці Дібровного, намагається закріпитись на досягнутому рубежі.\"<br><br>///Summary of the General Staff 06:00 05.04: \"In the direction of Barvinkova the enemy has partial success, advanced 7 km, took control of the village of Brazhkivka.\"<br><br>Summary of the General Staff 06:00 22.04: \"The enemy is trying to launch an offensive in the direction of the settlement of Zavody and Dibrovka.","stroke-opacity":1,"stroke":"#a52714","stroke-width":1.2,"fill-opacity":0.30196078431372547,"fill":"#a52714"}},{"type":"Feature","geometry":{"type":"Polygon","coordinates":[[[37.8198549,48.1438969,0],[37.824622,48.1578177,0],[37.8285927,48.1751503,0],[37.8562077,48.1928465,0],[37.8290229,48.2041871,0],[37.8077741,48.1849014,0],[37.8103277,48.1553785,0],[37.8094909,48.1524009,0],[37.8122588,48.1502823,0],[37.8198549,48.1438969,0]]]},"properties":{"name":"Окуповано /// Occupied","styleUrl":"#poly-A52714-1200-77-nodesc","styleHash":"5f0393c8","styleMapHash":{"normal":"#poly-A52714-1200-77-nodesc-normal","highlight":"#poly-A52714-1200-77-nodesc-highlight"},"stroke-opacity":1,"stroke":"#a52714","stroke-width":1.2,"fill-opacity":0.30196078431372547,"fill":"#a52714"}},{"type":"Feature","geometry":{"type":"Polygon","coordinates":[[[37.8562077,48.1928465,0],[37.8833302,48.1997121,0],[37.8965706,48.2154292,0],[37.8929432,48.2335689,0],[37.89157,48.2550609,0],[37.8953466,48.268546,0],[37.8881602,48.2836394,0],[37.8618482,48.2709071,0],[37.8250056,48.2571634,0],[37.7968006,48.2729172,0],[37.7898231,48.2712524,0],[37.7821594,48.2705012,0],[37.7497154,48.2609023,0],[37.7562384,48.2384982,0],[37.8125434,48.2380409,0],[37.8228431,48.230723,0],[37.8290229,48.2041871,0],[37.8562077,48.1928465,0]]]},"properties":{"name":"Окуповано /// Occupied","styleUrl":"#poly-A52714-1200-77-nodesc","styleHash":"5f0393c8","styleMapHash":{"normal":"#poly-A52714-1200-77-nodesc-normal","highlight":"#poly-A52714-1200-77-nodesc-highlight"},"stroke-opacity":1,"stroke":"#a52714","stroke-width":1.2,"fill-opacity":0.30196078431372547,"fill":"#a52714"}},{"type":"Feature","geometry":{"type":"Polygon","coordinates":[[[38.4024861,48.5572586,0],[38.4019504,48.5615018,0],[38.4019712,48.5747527,0],[38.402637,48.5810386,0],[38.402637,48.5919397,0],[38.4060702,48.6019302,0],[38.4048036,48.6090985,0],[38.4046894,48.6169314,0],[38.4088093,48.62964,0],[38.4143025,48.6382619,0],[38.4198032,48.6450485,0],[38.3846174,48.6600649,0],[38.3430054,48.6590144,0],[38.3506135,48.6158631,0],[38.3719304,48.5749798,0],[38.4024861,48.5572586,0]]]},"properties":{"name":"Окуповано /// Occupied","styleUrl":"#poly-A52714-1200-77-nodesc","styleHash":"5f0393c8","styleMapHash":{"normal":"#poly-A52714-1200-77-nodesc-normal","highlight":"#poly-A52714-1200-77-nodesc-highlight"},"stroke-opacity":1,"stroke":"#a52714","stroke-width":1.2,"fill-opacity":0.30196078431372547,"fill":"#a52714"}},{"type":"Feature","geometry":{"type":"GeometryCollection","geometries":[{"type":"Polygon","coordinates":[[[35.3437946,46.3499966,0],[35.3436927,46.3480045,0],[35.3317342,46.33646,0],[35.3160624,46.3209513,0],[35.3036032,46.3162461,0],[35.2968251,46.314997,0],[35.2914211,46.3094791,0],[35.2898861,46.2920402,0],[35.2552582,46.2509872,0],[35.2210622,46.226781,0],[35.2090177,46.1902543,0],[35.1356268,46.1662851,0],[35.0331183,46.1498649,0],[35.0184613,46.1301914,0],[34.9894016,46.1100372,0],[34.9806129,46.0890477,0],[34.9769809,46.0709154,0],[35.0708774,46.0956694,0],[35.1517979,46.1215406,0],[35.1954912,46.1472745,0],[35.2224023,46.183933,0],[35.3475835,46.3402912,0],[35.3695662,46.3643297,0],[35.3787593,46.3732672,0],[35.3825458,46.378947,0],[35.3712877,46.3709968,0],[35.3437946,46.3499966,0]]]},{"type":"Polygon","coordinates":[[[35.3248693,46.3701253,0],[35.3438379,46.3508437,0],[35.3465581,46.3535643,0],[35.3578365,46.3614933,0],[35.3712877,46.3709968,0],[35.3767538,46.3751693,0],[35.4348206,46.4153201,0],[35.6146465,46.4996998,0],[35.7703286,46.6017937,0],[35.9364159,46.6584769,0],[36.0834399,46.6583764,0],[36.189877,46.6669129,0],[36.2290356,46.6503884,0],[36.2695222,46.6055646,0],[36.3871263,46.7169171,0],[36.4958057,46.7474907,0],[36.6155915,46.7732454,0],[36.6471828,46.7805555,0],[36.7055593,46.7775047,0],[36.7464163,46.7655031,0],[36.7810734,46.7487854,0],[36.8105257,46.7278719,0],[36.8221063,46.7017771,0],[36.8013332,46.7070255,0],[36.790687,46.674682,0],[36.7783344,46.6635319,0],[36.7610057,46.6656911,0],[36.7423499,46.637243,0],[36.7592718,46.618538,0],[36.8027463,46.6606838,0],[36.8380441,46.7056437,0],[36.8458325,46.7240424,0],[36.8556796,46.7419657,0],[36.8685104,46.7655733,0],[36.8859437,46.7892661,0],[36.9043474,46.8056174,0],[36.9295237,46.8284428,0],[36.9588917,46.8475083,0],[36.9930695,46.8623412,0],[37.0193409,46.866749,0],[37.2356347,46.9509504,0],[37.2972003,46.9272088,0],[37.3189084,46.8961806,0],[37.2925383,46.8745361,0],[37.2886283,46.8705214,0],[37.3077203,46.8658027,0],[37.4814542,47.0322115,0],[37.5122169,47.0645024,0],[37.5376339,47.0818253,0],[37.5729423,47.0858853,0],[37.5710692,47.1012668,0],[37.5757158,47.1028838,0],[37.5810493,47.1051435,0],[37.6135749,47.1139688,0],[37.6140301,47.108542,0],[37.6198804,47.1035226,0],[37.6191575,47.0878978,0],[37.6195065,47.087157,0],[37.6243159,47.0909649,0],[37.6268941,47.0944221,0],[37.6295827,47.0948063,0],[37.6321854,47.0946061,0],[37.6336795,47.0931637,0],[37.6345118,47.0931437,0],[37.6352283,47.09401,0],[37.6664429,47.086291,0],[37.6709319,47.0852044,0],[37.6705154,47.0817678,0],[37.6757999,47.0777699,0],[37.6821324,47.0770565,0],[37.685084,47.0781024,0],[37.6872037,47.0810509,0],[37.6983358,47.0798491,0],[37.7138251,47.0802705,0],[37.7394664,47.0834014,0],[37.7676875,47.0886009,0],[37.7939862,47.0847127,0],[37.8148639,47.0894884,0],[37.8176104,47.1011748,0],[37.8163369,47.109753,0],[37.8180535,47.1190987,0],[37.8256066,47.1333479,0],[37.8297265,47.1461922,0],[37.8365929,47.1569323,0],[37.8445029,47.1658129,0],[37.8499825,47.1742053,0],[37.8513558,47.198938,0],[37.8472359,47.2138654,0],[37.8413995,47.2269234,0],[37.833503,47.249301,0],[37.8334033,47.2603213,0],[37.8341897,47.2760952,0],[37.8338464,47.2854117,0],[37.8300698,47.2958908,0],[37.8276665,47.3026429,0],[37.8348763,47.3082302,0],[37.8317864,47.3149807,0],[37.8245766,47.3214977,0],[37.8273232,47.3284792,0],[37.8279101,47.3355277,0],[37.8292834,47.3425074,0],[37.8444894,47.3419742,0],[37.856849,47.3436027,0],[37.8612124,47.3478578,0],[37.8591525,47.3543707,0],[37.8486092,47.3501161,0],[37.8376229,47.3524422,0],[37.8421,47.3587327,0],[37.8515994,47.3655338,0],[37.841643,47.3690218,0],[37.8383096,47.3780216,0],[37.8503258,47.3842983,0],[37.856849,47.3928985,0],[37.855819,47.403124,0],[37.8637154,47.4265885,0],[37.8784784,47.4416839,0],[37.8925547,47.4697729,0],[37.8194267,47.5463034,0],[37.8084403,47.5618278,0],[37.7823477,47.5859162,0],[37.7771978,47.6157796,0],[37.7686147,47.6354478,0],[37.801917,47.6423879,0],[37.8039769,47.6601962,0],[37.7644947,47.6847015,0],[37.7184895,47.7072316,0],[37.6355977,47.7431156,0],[37.6494334,47.7509552,0],[37.6525231,47.7578794,0],[37.643254,47.8083994,0],[37.6342622,47.838423,0],[37.6330023,47.8460097,0],[37.6348905,47.8525768,0],[37.6348904,47.8558021,0],[37.6355771,47.860179,0],[37.6389066,47.8677882,0],[37.640944,47.8706227,0],[37.6424889,47.8737318,0],[37.6440338,47.8809854,0],[37.5774254,47.8640615,0],[37.527145,47.8441906,0],[37.4904102,47.8278261,0],[37.5091712,47.7831628,0],[37.4517363,47.768482,0],[37.3893471,47.7480704,0],[37.3578097,47.7496297,0],[37.3364161,47.7504807,0],[37.3194714,47.752252,0],[37.2615345,47.7523112,0],[37.2201976,47.7602935,0],[37.143139,47.7663989,0],[37.001195,47.7814697,0],[36.9903541,47.797874,0],[36.9795359,47.7999782,0],[36.967819,47.8020034,0],[36.9605656,47.7975706,0],[36.8368389,47.804025,0],[36.8203763,47.805664,0],[36.8056298,47.8052255,0],[36.7924575,47.8079276,0],[36.6906088,47.8014977,0],[36.6238353,47.8043162,0],[36.5936802,47.8006522,0],[36.6065248,47.7737352,0],[36.5375439,47.7166252,0],[36.5552456,47.6729186,0],[36.5140996,47.6635349,0],[36.4448315,47.6501219,0],[36.3683191,47.6314425,0],[36.287964,47.6052585,0],[36.1065648,47.5890677,0],[36.078782,47.5252906,0],[36.0333639,47.5162955,0],[36.0089327,47.5082406,0],[35.9733233,47.5156869,0],[35.8398195,47.5322287,0],[35.7673675,47.5415912,0],[35.7512173,47.5511427,0],[35.7322599,47.5577929,0],[35.5979354,47.558368,0],[35.5511126,47.5573055,0],[35.4581154,47.5440296,0],[35.3950215,47.5208021,0],[35.3950087,47.5208101,0],[35.3603365,47.4994552,0],[35.310061,47.4922519,0],[35.2789589,47.5011779,0],[35.274292,47.4940961,0],[35.2839651,47.4711179,0],[35.2732113,47.4557986,0],[35.2649108,47.454382,0],[35.2711132,47.4718601,0],[35.2663264,47.4731508,0],[35.2492229,47.467476,0],[35.2026366,47.4448564,0],[35.1486561,47.4455391,0],[35.0775036,47.4531547,0],[35.0589931,47.4472408,0],[35.0446075,47.4376096,0],[35.0165413,47.411376,0],[34.9686877,47.3890866,0],[34.9284011,47.392589,0],[34.8808768,47.4087593,0],[34.8619081,47.4207375,0],[34.8723335,47.436482,0],[34.8717751,47.4494395,0],[34.8599184,47.4511069,0],[34.8251973,47.4646556,0],[34.7922996,47.4676001,0],[34.7472176,47.492976,0],[34.7356684,47.4908156,0],[34.7089772,47.4904348,0],[34.6864051,47.4928325,0],[34.6801944,47.5105837,0],[34.6594778,47.526596,0],[34.6440841,47.5419253,0],[34.6283735,47.5456828,0],[34.61803,47.5443437,0],[34.605993,47.5374148,0],[34.5990354,47.5345232,0],[34.5862444,47.521662,0],[34.544526,47.5325602,0],[34.5331332,47.530312,0],[34.5013916,47.4985407,0],[34.4358354,47.4967662,0],[34.3869447,47.5137279,0],[34.3727547,47.5105284,0],[34.3637954,47.4937434,0],[34.3395698,47.4680202,0],[34.3349084,47.4468546,0],[34.2960988,47.4285407,0],[34.2696759,47.4394016,0],[34.1992864,47.4119572,0],[34.1457219,47.4243196,0],[34.1183426,47.4204195,0],[34.064871,47.4241706,0],[34.0466745,47.4175073,0],[34.0399147,47.40244,0],[34.0196475,47.3578914,0],[33.9826442,47.2281837,0],[33.9098104,47.170099,0],[33.853211,47.1397486,0],[33.8407853,47.0983773,0],[33.8023157,47.0588696,0],[33.7227477,47.0172364,0],[33.6976667,46.9949841,0],[33.6973247,46.9621854,0],[33.6897886,46.9214159,0],[33.6784445,46.9007786,0],[33.6576732,46.9034758,0],[33.6338211,46.8993673,0],[33.6341699,46.8822418,0],[33.634027,46.8661098,0],[33.6022727,46.8277126,0],[33.5234813,46.8230958,0],[33.4642572,46.8182295,0],[33.3896643,46.7674124,0],[33.3600733,46.788969,0],[33.3541072,46.7848776,0],[33.3538689,46.7846426,0],[33.3717889,46.7687613,0],[33.2866486,46.7488393,0],[33.2571281,46.7555432,0],[33.2238335,46.7673909,0],[33.1987715,46.7688835,0],[33.1439158,46.7602052,0],[33.0015038,46.7181504,0],[32.9214055,46.7119792,0],[32.8452095,46.6853376,0],[32.7726654,46.6685904,0],[32.7190419,46.6659356,0],[32.7017968,46.6629134,0],[32.6593406,46.6502431,0],[32.5920645,46.5593734,0],[32.5599058,46.5430545,0],[32.5333866,46.5373243,0],[32.5269454,46.5395429,0],[32.5162168,46.5362093,0],[32.4182721,46.4855706,0],[32.4116422,46.4828862,0],[32.3994021,46.474569,0],[32.3586749,46.4650634,0],[32.3272467,46.4658192,0],[32.2195378,46.484792,0],[32.1819979,46.4972147,0],[32.1535716,46.5158959,0],[32.112488,46.5187237,0],[32.0784139,46.4997641,0],[32.0439949,46.4913924,0],[32.0027152,46.491517,0],[31.9975257,46.5066893,0],[31.9108596,46.5165686,0],[31.915333,46.5264149,0],[31.8837124,46.5356575,0],[31.8780465,46.524559,0],[31.861055,46.5158216,0],[31.8043279,46.5289631,0],[31.754436,46.5477486,0],[31.6976546,46.5448873,0],[31.6690402,46.5362578,0],[31.6315022,46.5403713,0],[31.6003753,46.5377239,0],[31.6559433,46.4717345,0],[31.6918835,46.4686048,0],[31.7413559,46.4890915,0],[31.7987384,46.4796465,0],[31.896928,46.4576286,0],[31.9528268,46.4373359,0],[31.9748472,46.4390845,0],[32.0022459,46.453311,0],[32.0290416,46.4374217,0],[32.0355715,46.4164449,0],[32.0584621,46.3936051,0],[32.0496571,46.3834371,0],[32.0255326,46.3853602,0],[32.0219174,46.382339,0],[32.0090519,46.3639959,0],[31.9757801,46.3480047,0],[31.9439259,46.3427845,0],[31.9052405,46.3394654,0],[31.865532,46.3332886,0],[31.8386435,46.3356205,0],[31.7727132,46.3222846,0],[31.7473096,46.3005071,0],[31.7477416,46.2980208,0],[31.7564105,46.2955366,0],[31.7573225,46.2950781,0],[31.7680193,46.2963985,0],[31.77451,46.2938047,0],[31.7712158,46.28872,0],[31.7755479,46.2853427,0],[31.7751137,46.282147,0],[31.7821317,46.2767197,0],[31.7832911,46.2723916,0],[31.7771998,46.2680096,0],[31.779606,46.2643492,0],[31.7843677,46.2655589,0],[31.7845172,46.2687448,0],[31.7917055,46.2737697,0],[31.7963826,46.2734659,0],[31.8097279,46.2719756,0],[31.8143612,46.2693303,0],[31.8132445,46.2646255,0],[31.8183073,46.2641929,0],[31.8346973,46.26602,0],[31.8331459,46.2696742,0],[31.8351942,46.2727102,0],[31.8477009,46.2682192,0],[31.8507418,46.268136,0],[31.8520181,46.2704616,0],[31.8629835,46.2720247,0],[31.8708344,46.2656555,0],[31.8740047,46.2651386,0],[31.8832914,46.2732981,0],[31.89507,46.2806265,0],[31.9041055,46.2963125,0],[31.9364358,46.2907488,0],[31.9437456,46.2854411,0],[31.9565439,46.2654215,0],[31.9591374,46.2652489,0],[31.9695145,46.2570898,0],[32.0286309,46.245122,0],[32.0514192,46.2496669,0],[32.0777541,46.2388024,0],[32.0878289,46.2213429,0],[32.1264746,46.203027,0],[32.1659661,46.196775,0],[32.1870249,46.175548,0],[32.2061332,46.1720621,0],[32.2067617,46.1753105,0],[32.2081061,46.1866809,0],[32.221812,46.187592,0],[32.2398798,46.1783972,0],[32.2258878,46.1699955,0],[32.2288004,46.1665053,0],[32.2366728,46.1500149,0],[32.2304411,46.1393923,0],[32.226216,46.1324231,0],[32.2477914,46.1244914,0],[32.5346946,46.0652669,0],[32.710194,46.1026938,0],[32.9126426,46.102199,0],[33.1775483,46.1203559,0],[33.2991907,46.0700506,0],[33.4288609,46.0272295,0],[33.5148147,46.0271133,0],[33.4966984,46.0701674,0],[33.5637474,46.0746225,0],[33.5247978,46.1155786,0],[33.5573368,46.1221338,0],[33.5737439,46.1255906,0],[33.6079654,46.1475624,0],[33.6912363,46.2053232,0],[33.7421104,46.2083299,0],[33.7378406,46.2005747,0],[33.7278118,46.2009757,0],[33.7203949,46.1997502,0],[33.7177182,46.2024641,0],[33.7129463,46.2016824,0],[33.71571,46.1979643,0],[33.7112546,46.193492,0],[33.7097972,46.1901163,0],[33.713146,46.1862645,0],[33.7108304,46.1838399,0],[33.7160664,46.1757094,0],[33.7197659,46.1739455,0],[33.7257348,46.174014,0],[33.7299192,46.1709572,0],[33.7292637,46.1690726,0],[33.7261891,46.1667043,0],[33.7253384,46.1649261,0],[33.7262858,46.1616592,0],[33.7265868,46.1578857,0],[33.72811,46.1551668,0],[33.7350502,46.1498824,0],[33.735601,46.1471215,0],[33.7408709,46.1441232,0],[33.7475131,46.1378538,0],[33.7495382,46.1374606,0],[33.7548898,46.1406843,0],[33.8242847,46.1871969,0],[34.0383305,46.1168174,0],[34.1225789,46.1080045,0],[34.1607681,46.0803117,0],[34.2253474,46.0637955,0],[34.3824606,46.0345739,0],[34.4785479,45.9468288,0],[34.5560383,45.9885731,0],[34.6514104,45.97379,0],[34.7008789,45.9590612,0],[34.8400152,45.8737411,0],[34.8158666,45.8357222,0],[34.8250838,45.8112122,0],[34.8674066,45.8291807,0],[34.8707212,45.8467632,0],[34.8751306,45.8555496,0],[34.8855773,45.8632873,0],[34.9004134,45.8580674,0],[34.9353039,45.8054347,0],[34.9403655,45.7872533,0],[34.9456423,45.7803165,0],[34.9554893,45.767389,0],[34.9493387,45.7628178,0],[34.9582138,45.7599193,0],[34.9681019,45.7621984,0],[34.9731755,45.763623,0],[34.9770477,45.7651671,0],[34.8921828,45.8986927,0],[34.852469,46.0090997,0],[34.8346359,46.1154117,0],[34.829315,46.204055,0],[34.8995659,46.2381715,0],[35.021547,46.2584415,0],[35.052167,46.2669443,0],[35.0767677,46.2785357,0],[35.1021348,46.3004517,0],[35.1124432,46.3102126,0],[35.1176084,46.3222025,0],[35.1274123,46.3419438,0],[35.1395419,46.3515709,0],[35.1620938,46.3587479,0],[35.175433,46.3632748,0],[35.1851942,46.3695606,0],[35.1900773,46.3712781,0],[35.1997289,46.3813728,0],[35.2574305,46.375757,0],[35.2630952,46.3656409,0],[35.2663547,46.353511,0],[35.2695223,46.3559538,0],[35.2747139,46.3559584,0],[35.2903127,46.357234,0],[35.3018887,46.3555606,0],[35.3053962,46.3542423,0],[35.3080086,46.3495037,0],[35.3087903,46.3483784,0],[35.3140349,46.3450016,0],[35.3179919,46.3402619,0],[35.318515,46.3350481,0],[35.317497,46.3314708,0],[35.3218364,46.3332078,0],[35.3248693,46.3701253,0]]]}]},"properties":{"name":"Окуповано /// Occupied","styleUrl":"#poly-A52714-1200-77-nodesc","styleHash":"5f0393c8","styleMapHash":{"normal":"#poly-A52714-1200-77-nodesc-normal","highlight":"#poly-A52714-1200-77-nodesc-highlight"},"stroke-opacity":1,"stroke":"#a52714","stroke-width":1.2,"fill-opacity":0.30196078431372547,"fill":"#a52714"}},{"type":"Feature","geometry":{"type":"GeometryCollection","geometries":[{"type":"Polygon","coordinates":[[[32.4432631,46.5749685,0],[32.4264401,46.5750866,0],[32.4267189,46.5745573,0],[32.4432631,46.5749685,0]]]},{"type":"Polygon","coordinates":[[[33.7214016,47.4308333,0],[33.6341916,47.4392032,0],[33.6204514,47.451615,0],[33.6204517,47.4668763,0],[33.5962601,47.4966346,0],[33.5544203,47.5050804,0],[33.5460514,47.5180609,0],[33.4989476,47.5120287,0],[33.5124054,47.4917502,0],[33.4645118,47.4847902,0],[33.4294929,47.4775974,0],[33.3969988,47.4749891,0],[33.3849832,47.4770967,0],[33.37211,47.4735182,0],[33.3689801,47.4691984,0],[33.3641229,47.4611842,0],[33.3700752,47.4554676,0],[33.37657,47.4598049,0],[33.3829077,47.4602323,0],[33.3871853,47.4588026,0],[33.390161,47.4508479,0],[33.3934848,47.4434053,0],[33.3964064,47.4301425,0],[33.4023312,47.4216539,0],[33.3945243,47.4164171,0],[33.376623,47.3971765,0],[33.3662861,47.3746804,0],[33.3235919,47.3589497,0],[33.2823307,47.3614029,0],[33.2206489,47.3516231,0],[33.214177,47.3452219,0],[33.2066095,47.3429937,0],[33.1995579,47.338904,0],[33.1847739,47.3399135,0],[33.1784869,47.3083975,0],[33.162645,47.3056743,0],[33.1564179,47.2996907,0],[33.1587623,47.291329,0],[33.1748368,47.2829665,0],[33.1712759,47.2480739,0],[33.0962683,47.2355339,0],[33.0940611,47.2262445,0],[33.0983722,47.2188302,0],[33.0683483,47.2142046,0],[33.0675684,47.2007253,0],[33.0545197,47.1916379,0],[33.0368182,47.1880265,0],[33.0350061,47.1829845,0],[33.0392019,47.1785258,0],[33.0253114,47.1763194,0],[33.0123568,47.1820104,0],[33.0129162,47.1885883,0],[33.006471,47.1960278,0],[33.0036483,47.196287,0],[33.0013405,47.1957296,0],[33.0004919,47.1943557,0],[33.00033,47.1925152,0],[33.0042314,47.191394,0],[33.0024129,47.1892999,0],[32.9955143,47.190594,0],[32.9915016,47.1893323,0],[32.9906494,47.1800587,0],[32.9961745,47.1674688,0],[32.9936646,47.1656265,0],[32.9874427,47.1680092,0],[32.9907959,47.1581876,0],[32.993207,47.1564565,0],[32.9940822,47.1539285,0],[32.9920568,47.1530744,0],[32.9862885,47.1558002,0],[32.9848809,47.1543642,0],[32.9851572,47.1518429,0],[32.9915458,47.1511212,0],[33.0045515,47.1331367,0],[32.9947847,47.1235486,0],[32.982145,47.1200541,0],[32.96656,47.1159282,0],[32.9513192,47.1167065,0],[32.9507075,47.1140576,0],[32.9573807,47.1103962,0],[32.9724429,47.107514,0],[32.9737284,47.1012827,0],[32.9701208,47.0974668,0],[32.9644544,47.0970392,0],[32.9591312,47.0982475,0],[32.9491681,47.1058823,0],[32.9446918,47.105961,0],[32.9391743,47.1030799,0],[32.9332976,47.0868016,0],[32.9263545,47.0834599,0],[32.9186496,47.0851897,0],[32.9118228,47.0888799,0],[32.9088075,47.0969575,0],[32.9137569,47.1046971,0],[32.9064867,47.1108246,0],[32.8940049,47.1132605,0],[32.8899905,47.1062148,0],[32.8984536,47.0890887,0],[32.8794015,47.0797191,0],[32.8417613,47.0936918,0],[32.8178993,47.0943361,0],[32.7952411,47.0936918,0],[32.7672559,47.0956198,0],[32.7598787,47.0671564,0],[32.7599739,47.0422071,0],[32.5445141,47.0049318,0],[32.4873468,46.9980677,0],[32.4766182,46.9847194,0],[32.422727,46.9589532,0],[32.4069508,46.8466642,0],[32.3071007,46.8007768,0],[32.2435333,46.7860604,0],[32.2176037,46.7495852,0],[32.1874451,46.7471601,0],[32.165908,46.7021234,0],[32.1401294,46.6690766,0],[32.1404504,46.6341938,0],[32.0934669,46.655249,0],[32.080764,46.6625537,0],[32.0423118,46.6408722,0],[32.0146743,46.6386329,0],[32.0023148,46.6407544,0],[32.017419,46.6295343,0],[32.0547225,46.614394,0],[32.0867577,46.6169587,0],[32.102313,46.6133869,0],[32.1198847,46.596745,0],[32.1397974,46.5507238,0],[32.1847725,46.5752733,0],[32.2091483,46.5762173,0],[32.2465703,46.5922626,0],[32.2596165,46.5903752,0],[32.2787663,46.5809827,0],[32.3207067,46.5533911,0],[32.4264401,46.5750866,0],[32.4432631,46.5749685,0],[32.541797,46.5991534,0],[32.5898624,46.6024557,0],[32.6374127,46.638298,0],[32.6545742,46.6529993,0],[32.6619606,46.6566227,0],[32.7172358,46.6728798,0],[32.7190801,46.6654738,0],[32.7221113,46.6656275,0],[32.7214643,46.6749465,0],[32.7554953,46.6732202,0],[32.7791847,46.6762826,0],[32.8091476,46.6850395,0],[32.8524065,46.7019944,0],[32.9423573,46.7396531,0],[33.0137688,46.7420058,0],[33.0460413,46.7467111,0],[33.0950576,46.7689454,0],[33.1561694,46.7884599,0],[33.2299841,46.7865792,0],[33.3058586,46.7802317,0],[33.3294622,46.7799378,0],[33.3537661,46.7843963,0],[33.3597321,46.7884877,0],[33.3807033,46.8051472,0],[33.4123449,46.8296556,0],[33.4419982,46.8417292,0],[33.4699439,46.8467501,0],[33.5087397,46.8580732,0],[33.5906349,46.8537657,0],[33.599212,46.894156,0],[33.595433,46.9345462,0],[33.6552008,46.9850037,0],[33.6621376,46.9998455,0],[33.6575,47.0484019,0],[33.7501043,47.0920155,0],[33.7640987,47.0979765,0],[33.7873764,47.1308085,0],[33.7818284,47.1786881,0],[33.7898423,47.1836219,0],[33.8250784,47.1959862,0],[33.854999,47.2071725,0],[33.8657595,47.2096232,0],[33.9005628,47.230959,0],[33.9116478,47.243441,0],[33.9163973,47.2707333,0],[33.9647811,47.303648,0],[33.9687102,47.3285208,0],[33.9782224,47.3755823,0],[33.9600427,47.4092807,0],[33.8694947,47.389092,0],[33.8440964,47.4089457,0],[33.8355335,47.4338916,0],[33.7757205,47.4239823,0],[33.7233513,47.4201485,0],[33.7214016,47.4308333,0]],[[33.3010724,47.3402999,0],[33.3018538,47.3392287,0],[33.30122,47.3403438,0],[33.3010724,47.3402999,0]]]}]},"properties":{"name":"Окуповано /// Occupied","styleUrl":"#poly-A52714-1200-77-nodesc","styleHash":"5f0393c8","styleMapHash":{"normal":"#poly-A52714-1200-77-nodesc-normal","highlight":"#poly-A52714-1200-77-nodesc-highlight"},"stroke-opacity":1,"stroke":"#a52714","stroke-width":1.2,"fill-opacity":0.30196078431372547,"fill":"#a52714"}},{"type":"Feature","geometry":{"type":"Polygon","coordinates":[[[39.4070999,48.6594287,0],[39.4107046,48.6576711,0],[39.4175046,48.6594284,0],[39.4372422,48.6564862,0],[39.4460828,48.6575634,0],[39.4507018,48.6555733,0],[39.4513185,48.6517234,0],[39.4481269,48.6475215,0],[39.4496766,48.6428633,0],[39.4505778,48.6415305,0],[39.4542256,48.6398007,0],[39.4598046,48.639744,0],[39.4639355,48.6394741,0],[39.4656839,48.6380992,0],[39.4627339,48.6329512,0],[39.4631519,48.6290518,0],[39.4673147,48.6287115,0],[39.4731084,48.6291653,0],[39.4786016,48.6291653,0],[39.4856826,48.6304417,0],[39.4892447,48.6316329,0],[39.4940083,48.6333914,0],[39.4997589,48.6342139,0],[39.5026343,48.6349796,0],[39.5069369,48.6355605,0],[39.5101985,48.6355038,0],[39.5128466,48.6345659,0],[39.5157774,48.6298881,0],[39.5119883,48.6251492,0],[39.5116576,48.6218889,0],[39.5162797,48.6181138,0],[39.5233306,48.6150233,0],[39.5270213,48.6095756,0],[39.523672,48.6061969,0],[39.522483,48.6027083,0],[39.5240154,48.5987048,0],[39.5313968,48.5971154,0],[39.5321819,48.5935127,0],[39.5274486,48.5920064,0],[39.525217,48.5886001,0],[39.5312251,48.5842851,0],[39.5415249,48.5842851,0],[39.5459881,48.587351,0],[39.5458165,48.592347,0],[39.5477047,48.5970019,0],[39.5545712,48.599613,0],[39.561781,48.5985913,0],[39.565656,48.5939668,0],[39.5653858,48.5889407,0],[39.5612786,48.5848264,0],[39.5681324,48.5820139,0],[39.5749257,48.5842586,0],[39.5823073,48.588971,0],[39.5931951,48.5937095,0],[39.6010915,48.5914387,0],[39.6050397,48.5867833,0],[39.6000615,48.5855342,0],[39.5945684,48.5811054,0],[39.5943235,48.5764225,0],[39.6024648,48.5746318,0],[39.6095029,48.5750861,0],[39.6148244,48.5799697,0],[39.6173993,48.5863291,0],[39.622206,48.5868968,0],[39.6304458,48.5809918,0],[39.6409171,48.5830359,0],[39.6505301,48.5854206,0],[39.6694122,48.5892256,0],[39.6773094,48.5875781,0],[39.6863343,48.5869839,0],[39.688006,48.5870856,0],[39.6872754,48.5872501,0],[39.6868029,48.5879142,0],[39.6866952,48.5897082,0],[39.6861477,48.5899949,0],[39.6854877,48.5901241,0],[39.6839131,48.5908983,0],[39.6833832,48.5915976,0],[39.6832255,48.5922737,0],[39.6830393,48.5925691,0],[39.6800065,48.5924756,0],[39.6794984,48.5921165,0],[39.6795878,48.5907873,0],[39.6790746,48.590364,0],[39.6786464,48.5902801,0],[39.6777242,48.5903942,0],[39.6767695,48.590948,0],[39.676378,48.5914662,0],[39.6757316,48.593258,0],[39.6757301,48.5939552,0],[39.6762229,48.5945735,0],[39.6768342,48.5951645,0],[39.6776387,48.5956135,0],[39.6779149,48.5959498,0],[39.6781803,48.5960236,0],[39.6785973,48.5959434,0],[39.6788809,48.5957613,0],[39.679248,48.5956703,0],[39.6795496,48.5956816,0],[39.6799687,48.595893,0],[39.6803177,48.5961903,0],[39.6804708,48.5964595,0],[39.6803005,48.5968709,0],[39.6800867,48.5971795,0],[39.6799046,48.5973515,0],[39.6795024,48.5976043,0],[39.6789633,48.5978938,0],[39.6785811,48.5980315,0],[39.6781647,48.5980649,0],[39.6778878,48.5980841,0],[39.6767115,48.5979648,0],[39.6760269,48.5976072,0],[39.6753949,48.596882,0],[39.6750467,48.5966897,0],[39.6744864,48.5963026,0],[39.6736913,48.5958891,0],[39.6728431,48.5956326,0],[39.6718289,48.5954547,0],[39.6709142,48.5954793,0],[39.6701886,48.5956406,0],[39.6694093,48.5959793,0],[39.6688302,48.5964537,0],[39.6683045,48.5971735,0],[39.6679558,48.5980159,0],[39.6680175,48.5991041,0],[39.6681555,48.5999037,0],[39.6680744,48.6008995,0],[39.6679468,48.6010421,0],[39.6680123,48.6013407,0],[39.6684581,48.6017951,0],[39.668861,48.6022779,0],[39.6698433,48.6026685,0],[39.6707207,48.603247,0],[39.6710736,48.6037633,0],[39.6708078,48.6040911,0],[39.6704389,48.604482,0],[39.6696107,48.604791,0],[39.6685314,48.604988,0],[39.6676806,48.605051,0],[39.666429,48.60504,0],[39.6658489,48.6049564,0],[39.6653357,48.6048175,0],[39.6649486,48.6047603,0],[39.6643473,48.6047507,0],[39.6638909,48.6047873,0],[39.6636117,48.60483,0],[39.6633111,48.6049365,0],[39.6627637,48.605238,0],[39.6625329,48.6053746,0],[39.6622485,48.6054829,0],[39.6615317,48.6057042,0],[39.6612587,48.6058507,0],[39.6610608,48.6060504,0],[39.6609233,48.606839,0],[39.6608663,48.6069536,0],[39.6607448,48.6070754,0],[39.6605074,48.6073722,0],[39.6604401,48.6076039,0],[39.6604237,48.6079397,0],[39.6605759,48.6082486,0],[39.6606583,48.6085291,0],[39.6606313,48.608666,0],[39.6605561,48.608833,0],[39.6605664,48.6090712,0],[39.6605717,48.6091835,0],[39.6606253,48.6092533,0],[39.6608021,48.6095134,0],[39.6609429,48.6097597,0],[39.6611104,48.6101016,0],[39.6612136,48.6106547,0],[39.6613955,48.6108901,0],[39.661674,48.6110474,0],[39.6622201,48.6115466,0],[39.6626054,48.6119606,0],[39.6629565,48.6121643,0],[39.6633184,48.6124815,0],[39.6635959,48.6128343,0],[39.6637339,48.6131303,0],[39.6639954,48.6139832,0],[39.6641904,48.6147927,0],[39.664803,48.6153251,0],[39.6648357,48.6154068,0],[39.6648225,48.6156197,0],[39.6648052,48.6158149,0],[39.6648717,48.6160631,0],[39.6650792,48.6162937,0],[39.6651589,48.6164763,0],[39.6653217,48.6167352,0],[39.6656458,48.6173108,0],[39.6660665,48.617819,0],[39.6661476,48.6179816,0],[39.6661214,48.6183427,0],[39.6663957,48.6189095,0],[39.6665113,48.6194483,0],[39.6669179,48.6200013,0],[39.6671909,48.6205509,0],[39.6678716,48.621448,0],[39.6681779,48.6215936,0],[39.6689778,48.6224625,0],[39.6715373,48.6244945,0],[39.6745905,48.6265264,0],[39.6776182,48.6282003,0],[39.680012,48.6295903,0],[39.6843633,48.6317034,0],[39.6856604,48.6322423,0],[39.6869575,48.6326252,0],[39.687686,48.6328946,0],[39.6884574,48.6333626,0],[39.6901831,48.6352639,0],[39.6905772,48.6354983,0],[39.6911001,48.6356334,0],[39.6928086,48.6361372,0],[39.6934853,48.6365715,0],[39.6939904,48.63702,0],[39.6941358,48.6374533,0],[39.694317,48.637792,0],[39.6943695,48.6382726,0],[39.6943576,48.6388524,0],[39.6942765,48.639192,0],[39.6942896,48.6397659,0],[39.6940494,48.6406341,0],[39.6938971,48.6413093,0],[39.6938745,48.6419234,0],[39.693756,48.6429465,0],[39.6935572,48.6433092,0],[39.6930394,48.6436465,0],[39.6927054,48.6437868,0],[39.6921414,48.6442255,0],[39.6916019,48.6449908,0],[39.6913306,48.6454937,0],[39.6911867,48.6458465,0],[39.6911256,48.6463968,0],[39.6913198,48.6466535,0],[39.6915998,48.6468463,0],[39.6918959,48.647064,0],[39.6920279,48.6473163,0],[39.6920939,48.6475276,0],[39.6921008,48.6478026,0],[39.6922656,48.6478909,0],[39.6924687,48.6480414,0],[39.692707,48.6482992,0],[39.6929362,48.6485645,0],[39.6932063,48.6489559,0],[39.6934058,48.6491215,0],[39.6935811,48.6493703,0],[39.6938888,48.6495643,0],[39.6942278,48.64964,0],[39.6944509,48.6497062,0],[39.6946403,48.6498208,0],[39.694853,48.6500216,0],[39.6949888,48.6500813,0],[39.6952848,48.6502919,0],[39.6957814,48.6505159,0],[39.696534,48.6507944,0],[39.6967597,48.6508862,0],[39.6970176,48.6509532,0],[39.6972759,48.6510659,0],[39.6982559,48.6517675,0],[39.6986337,48.6520173,0],[39.6989835,48.6522556,0],[39.6994696,48.6525449,0],[39.7001096,48.6527179,0],[39.7006871,48.6528221,0],[39.701169,48.6529628,0],[39.7016835,48.6531784,0],[39.7018657,48.6532623,0],[39.7020962,48.6533211,0],[39.7022242,48.6533625,0],[39.702304,48.6534091,0],[39.7029026,48.6540217,0],[39.7034654,48.6546036,0],[39.7039559,48.6549017,0],[39.7042427,48.6551289,0],[39.7045856,48.6555266,0],[39.7046417,48.6557396,0],[39.7047368,48.6559737,0],[39.7050741,48.6563317,0],[39.7051622,48.6564717,0],[39.7052707,48.6566232,0],[39.7054752,48.6567203,0],[39.705749,48.6567262,0],[39.7060201,48.6567895,0],[39.7061986,48.6569451,0],[39.706337,48.6569823,0],[39.7065292,48.656991,0],[39.7067052,48.656929,0],[39.7068791,48.6568235,0],[39.7070304,48.6566857,0],[39.7071651,48.6564822,0],[39.7072746,48.6563268,0],[39.7073652,48.6562137,0],[39.707655,48.6559202,0],[39.7080567,48.6556086,0],[39.7081947,48.6555108,0],[39.7084775,48.6552322,0],[39.7086102,48.6550893,0],[39.708816,48.6548796,0],[39.7090798,48.6547251,0],[39.7093593,48.6546426,0],[39.7095178,48.6546261,0],[39.7096963,48.6546657,0],[39.7099813,48.6546873,0],[39.7101721,48.6547477,0],[39.7103292,48.6548213,0],[39.7105445,48.6549999,0],[39.7106955,48.6551819,0],[39.7107858,48.655303,0],[39.7108873,48.6556931,0],[39.7109541,48.6561964,0],[39.7108385,48.657086,0],[39.710539,48.657624,0],[39.709923,48.6586156,0],[39.7096046,48.6593839,0],[39.7095393,48.6600959,0],[39.7095304,48.6608184,0],[39.7096963,48.6620948,0],[39.7096251,48.6625202,0],[39.7101332,48.6630165,0],[39.7105985,48.6640584,0],[39.7107239,48.6644306,0],[39.7107436,48.6650135,0],[39.7109788,48.6656805,0],[39.7110638,48.6665459,0],[39.7110072,48.6667166,0],[39.7104746,48.6671704,0],[39.7103732,48.6672696,0],[39.7101967,48.6673263,0],[39.709747,48.6675106,0],[39.7091579,48.6675603,0],[39.708477,48.6675851,0],[39.7075198,48.6674239,0],[39.707143,48.6672123,0],[39.7066921,48.667007,0],[39.7062734,48.666947,0],[39.7058213,48.6668674,0],[39.7054229,48.6667984,0],[39.7049842,48.6668215,0],[39.7044341,48.66684,0],[39.7040204,48.6668972,0],[39.7035855,48.6669702,0],[39.7032956,48.6670006,0],[39.702126,48.6681469,0],[39.7025441,48.6688964,0],[39.7030049,48.6705726,0],[39.7118147,48.675226,0],[39.7150357,48.6811681,0],[39.7221627,48.6841631,0],[39.7162439,48.6904449,0],[39.7155159,48.695852,0],[39.7199379,48.6980865,0],[39.7027777,48.7067983,0],[39.7110185,48.7135328,0],[39.7048401,48.7216266,0],[39.7227192,48.7342732,0],[39.7389298,48.7485733,0],[39.7414144,48.7719273,0],[39.7652059,48.7651718,0],[39.7843113,48.7975121,0],[39.7971291,48.8407392,0],[39.8046749,48.8437398,0],[39.8080468,48.8396436,0],[39.8075059,48.8387445,0],[39.8278344,48.8316285,0],[39.8304418,48.8337178,0],[39.886258,48.8211091,0],[39.9383277,48.8000534,0],[39.9522773,48.7976408,0],[39.9582214,48.7980167,0],[39.9761809,48.7938682,0],[40.0788345,48.8700299,0],[40.0712899,48.8771383,0],[40.0554983,48.9102615,0],[40.048499,48.9103496,0],[40.0311984,48.9159646,0],[40.0180663,48.9079545,0],[39.983734,48.8682232,0],[39.9246825,48.8944133,0],[39.871124,48.8944133,0],[39.8409117,48.9025384,0],[39.8244322,48.8908017,0],[39.818939,48.9079545,0],[39.7942197,48.9251014,0],[39.7695006,48.930515,0],[39.7887267,48.9476542,0],[39.7477855,48.9881109,0],[39.7329788,48.9803654,0],[39.729449,48.9780205,0],[39.72705,48.975459,0],[39.7248227,48.9767284,0],[39.7244807,48.9782317,0],[39.7261645,48.9786744,0],[39.7264844,48.9788421,0],[39.7263835,48.9796244,0],[39.7252293,48.9803992,0],[39.7233668,48.9806833,0],[39.7215236,48.981452,0],[39.7205591,48.9816321,0],[39.7189789,48.9817927,0],[39.717625,48.9825178,0],[39.7176931,48.9829104,0],[39.7179258,48.9835407,0],[39.7176199,48.9845264,0],[39.7174157,48.9847517,0],[39.7169001,48.9848644,0],[39.716726,48.9850758,0],[39.7165023,48.9857737,0],[39.716921,48.9864057,0],[39.7169214,48.9867134,0],[39.7167719,48.9872302,0],[39.7157142,48.9881553,0],[39.7155484,48.988389,0],[39.71541,48.9887437,0],[39.7154337,48.9895658,0],[39.7153521,48.9898724,0],[39.7150604,48.9900632,0],[39.7135076,48.9897487,0],[39.7121056,48.9901232,0],[39.7118062,48.9903573,0],[39.7107568,48.9916986,0],[39.7097393,48.9921145,0],[39.7076649,48.9925954,0],[39.7074363,48.993512,0],[39.7074277,48.9942288,0],[39.7069257,48.995228,0],[39.7048401,48.9975657,0],[39.703956,48.9988886,0],[39.7020697,48.9995807,0],[39.699999,49.0006214,0],[39.6989261,49.0008241,0],[39.6969626,49.0000584,0],[39.6933469,48.9992052,0],[39.6911798,48.9968964,0],[39.6912229,48.9962207,0],[39.6769328,48.9897019,0],[39.6634138,49.0010353,0],[39.6702791,49.0033117,0],[39.6792068,49.01305,0],[39.67366,49.0150973,0],[39.6756658,49.0270516,0],[39.6817382,49.0288961,0],[39.683584,49.0370881,0],[39.673155,49.0393385,0],[39.6929395,49.0496906,0],[39.7296797,49.043171,0],[39.7681273,49.0404641,0],[39.7887235,49.0501405,0],[39.8031461,49.0593653,0],[39.8203123,49.0584654,0],[39.8752439,49.0656641,0],[39.9088925,49.0575695,0],[39.9377287,49.0562156,0],[39.9425353,49.0715101,0],[39.9387411,49.0834254,0],[39.9727279,49.1254568,0],[39.997467,49.1474759,0],[40.0315786,49.1804039,0],[40.0761335,49.1869909,0],[40.092763,49.203327,0],[40.1082935,49.211046,0],[40.1217722,49.2308738,0],[40.1365439,49.2393198,0],[40.1768304,49.2370359,0],[40.2096773,49.241941,0],[40.2143748,49.24505,0],[40.2208105,49.2579368,0],[40.2192682,49.2653348,0],[40.1859424,49.2841715,0],[40.1852026,49.3043723,0],[40.1885303,49.3076066,0],[40.1910645,49.318109,0],[40.1968182,49.3453911,0],[40.1918412,49.3484972,0],[40.1755746,49.3567818,0],[40.1701859,49.3565634,0],[40.1599381,49.3656218,0],[40.162049,49.3684196,0],[40.1446026,49.3778304,0],[40.1124401,49.3859148,0],[40.0769127,49.4101205,0],[40.0593828,49.4342537,0],[40.0480333,49.4445379,0],[40.0294508,49.4539432,0],[40.0417638,49.499266,0],[40.0376028,49.5200585,0],[40.168439,49.5690839,0],[40.1395292,49.5964375,0],[40.1352626,49.616417,0],[40.0635416,49.5993965,0],[40.0567326,49.6067367,0],[39.9522262,49.5967124,0],[39.9346043,49.5729464,0],[39.8902275,49.5585223,0],[39.8660267,49.5599494,0],[39.838917,49.5636812,0],[39.8080621,49.5582136,0],[39.7683435,49.585455,0],[39.7502347,49.5968826,0],[39.7127499,49.6060863,0],[39.6967501,49.6044549,0],[39.6869285,49.6117215,0],[39.6599978,49.6149742,0],[39.6383814,49.6352632,0],[39.6131358,49.6905261,0],[39.5919633,49.7197964,0],[39.608395,49.7340727,0],[39.5338368,49.7410113,0],[39.4787628,49.7566381,0],[39.4382028,49.7601697,0],[39.4120639,49.7532744,0],[39.3769644,49.7385876,0],[39.3079251,49.753207,0],[39.2855614,49.7558298,0],[39.2799667,49.7610736,0],[39.2754719,49.7681899,0],[39.2646401,49.7686436,0],[39.2503726,49.7779652,0],[39.2403729,49.7912862,0],[39.2391473,49.7983899,0],[39.2289932,49.8085957,0],[39.2281152,49.8166662,0],[39.2256576,49.8403477,0],[39.1883961,49.8863857,0],[39.1784029,49.8881645,0],[39.1285076,49.8599609,0],[39.1111395,49.8392098,0],[39.0697637,49.8188942,0],[39.0662335,49.8155124,0],[39.0335226,49.8225358,0],[39.0216606,49.8210737,0],[38.9849059,49.8079467,0],[38.9711379,49.8073842,0],[38.9648933,49.8040409,0],[38.9488162,49.7962378,0],[38.9466631,49.7979699,0],[38.9394924,49.8008304,0],[38.9364414,49.8003667,0],[38.9334743,49.7999417,0],[38.9329105,49.7977439,0],[38.930753,49.7973372,0],[38.9278113,49.7987397,0],[38.9274209,49.8015445,0],[38.9286998,49.8040517,0],[38.9259192,49.8043307,0],[38.9203574,49.8051098,0],[38.9191887,49.8091055,0],[38.9161631,49.8128871,0],[38.9190385,49.8140257,0],[38.9182657,49.8149739,0],[38.9122546,49.8181993,0],[38.9098446,49.818447,0],[38.9087993,49.8229304,0],[38.9073926,49.8285757,0],[38.9135076,49.8287931,0],[38.9150943,49.8312222,0],[38.9113985,49.8347523,0],[38.9143071,49.8371634,0],[38.9125681,49.8437592,0],[38.9065346,49.8448203,0],[38.9042772,49.8489807,0],[38.9096701,49.8510128,0],[38.9195192,49.8588046,0],[38.9093377,49.8602664,0],[38.898467,49.8705799,0],[38.8764156,49.8695863,0],[38.8751358,49.8687024,0],[38.8745919,49.8680424,0],[38.874563,49.8668016,0],[38.8693986,49.8646519,0],[38.8668376,49.8650548,0],[38.8653205,49.8661926,0],[38.8627155,49.8660336,0],[38.857162,49.8681771,0],[38.856612,49.8688127,0],[38.8558548,49.8690541,0],[38.8544568,49.8683588,0],[38.8541747,49.8680231,0],[38.8541623,49.867593,0],[38.8538371,49.8672859,0],[38.8520281,49.8666719,0],[38.8514142,49.8663289,0],[38.8506155,49.8660301,0],[38.8491041,49.8652666,0],[38.8467251,49.8656481,0],[38.8461298,49.8658856,0],[38.8456688,49.8659731,0],[38.8439316,49.8653459,0],[38.8432896,49.8653086,0],[38.839345,49.8659252,0],[38.8389657,49.8661901,0],[38.8360183,49.8673006,0],[38.8363462,49.86753,0],[38.8348129,49.8692333,0],[38.8346641,49.8711186,0],[38.8366836,49.8723169,0],[38.835701,49.8739942,0],[38.8349373,49.8745002,0],[38.8344399,49.8747375,0],[38.8329727,49.8749079,0],[38.8277627,49.8773224,0],[38.8270413,49.8779199,0],[38.8260274,49.8785339,0],[38.8244285,49.8790982,0],[38.822432,49.8791478,0],[38.7949573,49.8834734,0],[38.7901495,49.8786734,0],[38.7834874,49.8812766,0],[38.7776826,49.8854834,0],[38.7682313,49.8962076,0],[38.7438463,49.8974706,0],[38.7422824,49.8990847,0],[38.7338452,49.9051884,0],[38.7232467,49.9271688,0],[38.6928998,49.9349292,0],[38.6852993,49.9605072,0],[38.7153145,49.9825472,0],[38.7151361,49.9878734,0],[38.6874851,50.0059999,0],[38.6842834,50.0076541,0],[38.6797088,50.0026886,0],[38.6760534,49.9929773,0],[38.6797305,49.9746573,0],[38.66694,49.9723199,0],[38.6461952,49.9561007,0],[38.6160771,49.9745534,0],[38.5815687,49.9775796,0],[38.5267143,49.9584342,0],[38.5078972,49.9641935,0],[38.4877047,49.9637656,0],[38.4832992,49.9766914,0],[38.4775184,49.9834347,0],[38.4659125,49.9841247,0],[38.4680383,49.9954103,0],[38.4340937,50.0011822,0],[38.4160062,49.9815016,0],[38.3975611,49.9907486,0],[38.349573,50.0066076,0],[38.3541622,50.0192118,0],[38.3511988,50.0349042,0],[38.333974,50.0592563,0],[38.3290971,50.0853707,0],[38.3126358,50.0887484,0],[38.3002939,50.0868375,0],[38.292779,50.0794898,0],[38.277067,50.0731624,0],[38.2463333,50.073278,0],[38.1785123,50.0799603,0],[38.1787129,50.0779467,0],[38.1790851,50.0775856,0],[38.1818461,50.0679673,0],[38.1819179,50.0670335,0],[38.1850642,50.0558559,0],[38.1838248,50.0459954,0],[38.1875573,50.0412139,0],[38.1880066,50.0395606,0],[38.1882308,50.0309501,0],[38.1886697,50.0270257,0],[38.1883888,50.0246357,0],[38.1881572,50.0235735,0],[38.1862519,50.0229387,0],[38.1853811,50.0222343,0],[38.1869788,50.021626,0],[38.1924382,50.0139586,0],[38.1971762,50.0083851,0],[38.2009434,50.0048223,0],[38.200805,50.0037972,0],[38.2026406,50.0018342,0],[38.2050043,50.0009334,0],[38.2046723,49.9984532,0],[38.2050268,49.9969109,0],[38.2077098,49.9916745,0],[38.209814,49.9903611,0],[38.2108496,49.989411,0],[38.2155318,49.9883505,0],[38.2164373,49.9873451,0],[38.255245,49.9096982,0],[38.1769673,49.8424375,0],[38.1879536,49.7395957,0],[38.1330218,49.5973864,0],[38.1687275,49.5546426,0],[38.1083024,49.4440476,0],[38.1440081,49.3886564,0],[38.2341024,49.3694037,0],[38.225176,49.215799,0],[38.1839773,49.2023414,0],[38.1832907,49.1619467,0],[38.1784495,49.133396,0],[38.2280539,49.0639498,0],[38.2675242,49.0403081,0],[38.303659,49.0453153,0],[38.3344555,49.0328516,0],[38.3403623,49.0426207,0],[38.3448782,49.0470349,0],[38.355341,49.0541261,0],[38.4068499,49.0361959,0],[38.419964,49.0293865,0],[38.4241521,49.0156399,0],[38.4417253,49.0008731,0],[38.4355573,48.9951909,0],[38.4241472,48.9814425,0],[38.4467639,48.9715251,0],[38.4605716,48.9671292,0],[38.4688872,48.97648,0],[38.4817435,48.9825621,0],[38.5103456,48.9901372,0],[38.5734667,48.9875912,0],[38.5870647,48.940592,0],[38.5611394,48.9150439,0],[38.563891,48.890253,0],[38.5875831,48.8892704,0],[38.6091748,48.8700926,0],[38.5881143,48.8438926,0],[38.5898741,48.7813493,0],[38.5800002,48.7527129,0],[38.5832177,48.7198696,0],[38.6301672,48.721172,0],[38.6523402,48.7224271,0],[38.6784116,48.723701,0],[38.6745492,48.7293629,0],[38.6917155,48.7293629,0],[38.7535137,48.7184915,0],[38.7670674,48.71432,0],[38.8084379,48.7134138,0],[38.8300673,48.7170382,0],[38.8360755,48.7232671,0],[38.841397,48.7335147,0],[38.8471476,48.7429112,0],[38.8561599,48.7504951,0],[38.8728111,48.753268,0],[38.8920372,48.7508912,0],[38.9047401,48.7506082,0],[38.9198464,48.7456279,0],[38.9330644,48.7482313,0],[38.9361543,48.7437602,0],[38.9317769,48.7364584,0],[38.9446515,48.7354394,0],[38.9571829,48.7394585,0],[38.9595003,48.747156,0],[38.979928,48.743647,0],[38.9884383,48.7350198,0],[38.9965867,48.7243805,0],[38.9977884,48.7197373,0],[38.9943476,48.715849,0],[38.9888619,48.715207,0],[38.9831971,48.7141876,0],[38.9837904,48.7110352,0],[38.9955704,48.7124653,0],[38.9977884,48.7097701,0],[38.9965868,48.706485,0],[38.998475,48.7011605,0],[39.0018149,48.697384,0],[39.0070581,48.6969684,0],[39.0137454,48.6960244,0],[39.0147829,48.6896031,0],[39.0122079,48.6834834,0],[39.0176936,48.679989,0],[39.0192461,48.6767963,0],[39.0192461,48.6721487,0],[39.0235376,48.669428,0],[39.0252542,48.6668205,0],[39.0266275,48.6628524,0],[39.0216493,48.6617186,0],[39.0173578,48.6630791,0],[39.009633,48.6626256,0],[39.0122903,48.6587233,0],[39.0183803,48.6569753,0],[39.0279933,48.6535734,0],[39.0355464,48.6482432,0],[39.0444804,48.6475437,0],[39.0534068,48.648451,0],[39.0649006,48.650398,0],[39.0707446,48.6527605,0],[39.078641,48.6516264,0],[39.0872242,48.6518533,0],[39.0975239,48.6511728,0],[39.104047,48.6518533,0],[39.1108201,48.6560115,0],[39.118974,48.6602636,0],[39.1239597,48.6614351,0],[39.1288521,48.6612083,0],[39.1371702,48.6606038,0],[39.138036,48.6629658,0],[39.1375211,48.6656868,0],[39.1383794,48.6685778,0],[39.1418909,48.6735848,0],[39.1463616,48.6770796,0],[39.1525414,48.6771363,0],[39.1590571,48.6769854,0],[39.1685918,48.6807067,0],[39.1712525,48.6824067,0],[39.175987,48.6851175,0],[39.1797636,48.6927101,0],[39.1832044,48.6979599,0],[39.1861226,48.7007923,0],[39.1886042,48.7022276,0],[39.1908358,48.7051164,0],[39.1917875,48.7071365,0],[39.1936682,48.7076087,0],[39.1959073,48.7066833,0],[39.1965082,48.7033981,0],[39.1999414,48.6995461,0],[39.205349,48.6994197,0],[39.2070655,48.7014023,0],[39.2099837,48.7036114,0],[39.2132454,48.7056506,0],[39.2191677,48.7067834,0],[39.2238025,48.7102384,0],[39.2276649,48.712164,0],[39.2328148,48.7122773,0],[39.2360688,48.7104274,0],[39.2390729,48.7105406,0],[39.245596,48.7137122,0],[39.2473202,48.7177139,0],[39.2483501,48.7209983,0],[39.2486934,48.7243957,0],[39.2538433,48.7324352,0],[39.25144,48.7366243,0],[39.2498951,48.7400207,0],[39.25169,48.7427,0],[39.2651656,48.7431528,0],[39.2663673,48.7455299,0],[39.2658598,48.7486237,0],[39.2650015,48.7515664,0],[39.2683414,48.7545847,0],[39.2742711,48.7541695,0],[39.2749577,48.7499819,0],[39.2806226,48.7503214,0],[39.2848208,48.7518118,0],[39.285164,48.7545281,0],[39.285944,48.7585831,0],[39.288119,48.7610486,0],[39.2931538,48.7625438,0],[39.2983036,48.7653726,0],[39.3013002,48.7686163,0],[39.3024235,48.7714823,0],[39.3043118,48.7737449,0],[39.3091108,48.7754609,0],[39.3142681,48.7758944,0],[39.3193248,48.7769315,0],[39.3254186,48.7756872,0],[39.3259411,48.7722742,0],[39.3259336,48.7686728,0],[39.3309193,48.7676355,0],[39.3377858,48.7672961,0],[39.3435289,48.7694083,0],[39.3487721,48.7696721,0],[39.3530561,48.766806,0],[39.349802,48.7633358,0],[39.3447305,48.7613181,0],[39.3420773,48.7553013,0],[39.3455888,48.7506234,0],[39.3463688,48.7472654,0],[39.3492871,48.742398,0],[39.3546086,48.7404735,0],[39.3575193,48.7360207,0],[39.3561535,48.7322088,0],[39.3530636,48.7289252,0],[39.3534853,48.7262266,0],[39.3601802,48.7226029,0],[39.3667891,48.7212439,0],[39.371332,48.7199549,0],[39.3721773,48.7171104,0],[39.3685058,48.7156377,0],[39.3630126,48.7159209,0],[39.3575193,48.7146184,0],[39.3541526,48.7131462,0],[39.3486595,48.7133727,0],[39.3454172,48.7119566,0],[39.3503095,48.7059529,0],[39.3525411,48.7008549,0],[39.3586158,48.6963798,0],[39.3670274,48.6915075,0],[39.3793142,48.686322,0],[39.3890193,48.6844245,0],[39.3879893,48.6807411,0],[39.3903733,48.6781344,0],[39.3936348,48.6764342,0],[39.4010356,48.6751304,0],[39.4058421,48.6737135,0],[39.4111446,48.6698593,0],[39.4123462,48.6669118,0],[39.4080547,48.6625468,0],[39.4070999,48.6594287,0]]]},"properties":{"name":"Окуповано /// Occupied","styleUrl":"#poly-A52714-1200-77-nodesc","styleHash":"5f0393c8","styleMapHash":{"normal":"#poly-A52714-1200-77-nodesc-normal","highlight":"#poly-A52714-1200-77-nodesc-highlight"},"stroke-opacity":1,"stroke":"#a52714","stroke-width":1.2,"fill-opacity":0.30196078431372547,"fill":"#a52714"}}]}