{"type":"FeatureCollection","name":"deepstatemap_data_20251026","sourceHistoryId":1761509874,"sourceCreatedAt":"2025-10-26T20:17:54.000Z","crs":{"type":"name","properties":{"name":"urn:ogc:def:crs:OGC:1.3:CRS84"}},"features":[{"type":"Feature","properties":{"controlStatus":"russian_occupied"},"geometry":{"type":"MultiPolygon","coordinates":[[[[35.887754,50.437506],[35.890093,50.436741],[35.894492,50.435634],[35.897539,50.43629],[35.904019,50.435005],[35.903332,50.433939],[35.912946,50.431588],[35.924747,50.431643],[35.92758,50.430276],[35.935219,50.428745],[35.941312,50.431151],[35.94363,50.433393],[35.939338,50.433775],[35.937536,50.433393],[35.937622,50.431807],[35.935219,50.430112],[35.9323,50.430932],[35.932214,50.431971],[35.92818,50.433721],[35.927666,50.434869],[35.923889,50.435853],[35.920799,50.437384],[35.919254,50.435798],[35.911701,50.434705],[35.909212,50.435634],[35.907409,50.437876],[35.904749,50.438969],[35.903633,50.438094],[35.901144,50.438149],[35.9002,50.439024],[35.895908,50.438696],[35.894192,50.437821],[35.89196,50.438149],[35.889213,50.438969],[35.887754,50.437506]]],[[[34.930134,51.205724],[34.924254,51.205234],[34.911851,51.206464],[34.904041,51.203411],[34.905629,51.201085],[34.89829,51.193273],[34.883356,51.195747],[34.876427,51.191209],[34.870406,51.193239],[34.862166,51.198994],[34.845772,51.191302],[34.846674,51.189191],[34.833155,51.18256],[34.834786,51.178283],[34.834829,51.169323],[34.815924,51.169392],[34.8134,51.171608],[34.808729,51.172854],[34.808658,51.176424],[34.800175,51.17558],[34.790317,51.180117],[34.789684,51.182124],[34.784296,51.184414],[34.780716,51.180951],[34.779197,51.177273],[34.772528,51.17467],[34.762156,51.17649],[34.753156,51.180891],[34.7519197,51.1678886],[34.7611587,51.16691],[34.766849,51.155389],[34.7830124,51.1583459],[34.7895939,51.1628096],[34.803124,51.1677048],[34.8162799,51.1680223],[34.8243568,51.1643937],[34.833743,51.152828],[34.841071,51.147696],[34.835122,51.144161],[34.837156,51.135457],[34.853052,51.123989],[34.867746,51.122594],[34.878312,51.129412],[34.884882,51.138744],[34.8802952,51.1465667],[34.8847507,51.1485436],[34.8926389,51.1431973],[34.9043824,51.1505388],[34.8950226,51.1575563],[34.9080688,51.1638005],[34.9133894,51.1551877],[34.9330042,51.1495359],[34.957444,51.139628],[34.967132,51.126702],[34.977051,51.124049],[34.970325,51.12082],[34.993038,51.118184],[34.996903,51.11571],[34.998618,51.117247],[35.008659,51.113488],[35.0150745,51.116387],[35.0181509,51.1149444],[35.0193639,51.1167316],[35.0226369,51.1164712],[35.0242903,51.1139569],[35.0133197,51.1123649],[35.0128209,51.1103415],[35.0193974,51.1068814],[35.028294,51.106061],[35.030193,51.108784],[35.030561,51.112242],[35.033296,51.113528],[35.037414,51.110403],[35.03986,51.1103768],[35.04148,51.112248],[35.042838,51.116499],[35.047672,51.115792],[35.047623,51.112815],[35.05505,51.112478],[35.097239,51.127832],[35.115952,51.12453],[35.142092,51.13361],[35.143906,51.13667],[35.144003,51.140592],[35.136644,51.144128],[35.135315,51.1484],[35.140812,51.151182],[35.137498,51.153758],[35.130579,51.156549],[35.126524,51.159224],[35.123213,51.165356],[35.134408,51.170895],[35.13078,51.173706],[35.13024,51.19395],[35.143973,51.20234],[35.142943,51.207073],[35.13642,51.210084],[35.137106,51.215891],[35.149123,51.221052],[35.149981,51.223417],[35.119738,51.231485],[35.11761,51.229647],[35.105143,51.232776],[35.084905,51.230338],[35.074708,51.231963],[35.069043,51.230243],[35.061318,51.222933],[35.063335,51.218498],[35.062949,51.215891],[35.051875,51.209385],[35.039259,51.204061],[35.037886,51.218041],[35.031706,51.219762],[35.028359,51.219493],[35.023467,51.220514],[35.021664,51.223363],[35.012824,51.228685],[35.012308,51.230566],[35.009133,51.231829],[35.004584,51.231802],[34.999949,51.229222],[34.993769,51.2289],[34.982268,51.232017],[34.982783,51.233952],[34.979521,51.235886],[34.976152,51.233775],[34.958137,51.228686],[34.950014,51.227427],[34.950159,51.22497],[34.952708,51.222729],[34.95231,51.219106],[34.944909,51.219115],[34.940082,51.217942],[34.939356,51.211779],[34.936375,51.208321],[34.930134,51.205724]]],[[[36.519242,45.293988],[36.50714,45.295558],[36.518298,45.288856],[36.533319,45.279798],[36.537782,45.273999],[36.54585,45.26808],[36.549112,45.261314],[36.571599,45.250076],[36.578294,45.249048],[36.557012,45.267052],[36.547052,45.279677],[36.531774,45.286199],[36.519242,45.293988]]],[[[39.082891,47.851604],[39.109389,47.851752],[39.109535,47.842747],[39.149682,47.842582],[39.236213,47.853953],[39.241734,47.867014],[39.39045,47.866185],[39.412529,47.830898],[39.437354,47.839834],[39.44625,47.850644],[39.478474,47.859474],[39.520308,47.825141],[39.534491,47.83253],[39.542168,47.824981],[39.565587,47.836556],[39.73791,47.827729],[39.763184,47.846537],[39.762505,47.870145],[39.794941,47.866833],[39.793904,47.915897],[39.806594,47.933666],[39.805888,47.950562],[39.827391,47.950834],[39.819844,47.967762],[39.815408,47.970866],[39.815117,47.973617],[39.817538,47.976646],[39.819849,47.977446],[39.822798,47.979535],[39.823031,47.98354],[39.816717,47.984542],[39.81618,47.992798],[39.817916,47.994778],[39.813771,47.996697],[39.813736,47.998502],[39.816518,48.000116],[39.81672,48.001463],[39.810975,48.004856],[39.804541,48.006459],[39.802998,48.007948],[39.797687,48.009306],[39.795218,48.010703],[39.785081,48.023125],[39.786777,48.025034],[39.779662,48.039336],[39.877208,48.041378],[39.885886,48.047866],[39.832202,48.0665],[39.868584,48.079444],[39.87154,48.116196],[39.907357,48.148152],[39.906952,48.168758],[39.910109,48.179389],[39.936986,48.180352],[39.942623,48.228972],[40.002928,48.223301],[40.009557,48.22457],[40.005778,48.241029],[40.020776,48.25378],[40.012886,48.266136],[40.015704,48.267401],[40.014045,48.270133],[40.00965,48.270112],[39.999745,48.28929],[39.993925,48.30071],[39.993222,48.313596],[39.990989,48.316061],[39.991074,48.316582],[39.990815,48.317082],[39.986949,48.317512],[39.985311,48.317001],[39.98418,48.316207],[39.982518,48.315704],[39.980311,48.315784],[39.9789,48.315713],[39.977623,48.315173],[39.975498,48.31432],[39.974425,48.313471],[39.972492,48.312971],[39.971029,48.311629],[39.97188,48.309716],[39.970793,48.308971],[39.971236,48.307796],[39.971265,48.307302],[39.970808,48.307084],[39.968735,48.307134],[39.967636,48.306805],[39.966383,48.306776],[39.965678,48.306403],[39.965814,48.305656],[39.965441,48.304678],[39.963744,48.303416],[39.956916,48.301479],[39.956822,48.302619],[39.95666,48.303185],[39.955606,48.303746],[39.954057,48.304012],[39.952975,48.303915],[39.951971,48.303551],[39.951721,48.30305],[39.951995,48.302392],[39.951769,48.302131],[39.952219,48.301038],[39.951958,48.300093],[39.949848,48.299401],[39.949619,48.298845],[39.950836,48.297733],[39.950737,48.297222],[39.949037,48.296715],[39.948426,48.2961],[39.948411,48.294295],[39.947227,48.294163],[39.946532,48.293784],[39.945958,48.292741],[39.94481,48.292027],[39.943716,48.29191],[39.941612,48.292849],[39.938521,48.292127],[39.937703,48.292225],[39.936882,48.291565],[39.936615,48.289958],[39.937024,48.288116],[39.93664,48.286887],[39.936215,48.285058],[39.935023,48.28377],[39.934098,48.283479],[39.933277,48.283753],[39.932108,48.28373],[39.930585,48.283285],[39.930156,48.282764],[39.930286,48.28238],[39.932176,48.281213],[39.934112,48.280735],[39.934978,48.27975],[39.934695,48.279066],[39.932875,48.279241],[39.931596,48.277992],[39.929638,48.277779],[39.927869,48.276582],[39.927291,48.275387],[39.925836,48.273969],[39.925628,48.273588],[39.925899,48.272969],[39.925969,48.27216],[39.924907,48.271485],[39.922955,48.271306],[39.921069,48.27166],[39.919657,48.271298],[39.91898,48.270601],[39.917496,48.270094],[39.914829,48.269678],[39.91426,48.269847],[39.91458,48.270755],[39.915049,48.271344],[39.914753,48.271887],[39.914065,48.271958],[39.913076,48.271193],[39.911139,48.27102],[39.910269,48.271645],[39.910589,48.272153],[39.911831,48.27277],[39.912254,48.273746],[39.911385,48.275269],[39.910418,48.276031],[39.909686,48.276012],[39.909508,48.276717],[39.90822,48.277008],[39.908434,48.278133],[39.910064,48.27901],[39.909377,48.280766],[39.910753,48.282907],[39.911103,48.285018],[39.909745,48.287526],[39.910034,48.291057],[39.901336,48.294325],[39.887839,48.304591],[39.88795,48.309434],[39.858898,48.309238],[39.840832,48.310394],[39.841887,48.318824],[39.840394,48.329117],[39.845217,48.329499],[39.845593,48.332774],[39.859703,48.334566],[39.877934,48.334073],[39.918581,48.341692],[39.918603,48.347207],[39.930727,48.348957],[39.943644,48.34812],[39.947507,48.35523],[39.94253,48.354963],[39.944422,48.357166],[39.939451,48.360773],[39.940668,48.365023],[39.93675,48.367136],[39.934751,48.372274],[39.943278,48.383791],[39.941535,48.387072],[39.938309,48.387562],[39.935271,48.384697],[39.93189,48.376929],[39.926845,48.375075],[39.92122,48.375928],[39.917522,48.379228],[39.916306,48.384231],[39.914558,48.386827],[39.907802,48.388712],[39.905962,48.390316],[39.906743,48.392269],[39.917405,48.39481],[39.918644,48.397611],[39.91605,48.40061],[39.908459,48.402052],[39.906312,48.403562],[39.906484,48.407494],[39.912763,48.41558],[39.910297,48.421956],[39.895926,48.429242],[39.888817,48.441993],[39.889864,48.443571],[39.896766,48.44422],[39.898555,48.445972],[39.897326,48.448112],[39.857752,48.463363],[39.846338,48.473712],[39.847753,48.485678],[39.847884,48.495108],[39.846469,48.499306],[39.84871,48.50284],[39.853191,48.503425],[39.856659,48.501636],[39.861877,48.501924],[39.866135,48.504775],[39.866756,48.508883],[39.857486,48.537401],[39.858045,48.545366],[39.854533,48.552999],[39.85763,48.561413],[39.846829,48.572934],[39.821685,48.578332],[39.820604,48.579285],[39.825482,48.581645],[39.826311,48.584207],[39.825051,48.586152],[39.82236,48.586636],[39.812855,48.583855],[39.80861,48.583972],[39.804495,48.585454],[39.800216,48.589553],[39.796119,48.591847],[39.789985,48.593369],[39.773425,48.592326],[39.772062,48.591601],[39.770368,48.587994],[39.754759,48.583],[39.751295,48.58209],[39.75055,48.583338],[39.751054,48.588836],[39.749038,48.590243],[39.746721,48.590673],[39.744319,48.590057],[39.738743,48.586838],[39.734629,48.585851],[39.730178,48.585919],[39.726252,48.586624],[39.723379,48.586216],[39.721237,48.584834],[39.714893,48.585248],[39.702546,48.587778],[39.697765,48.58716],[39.691635,48.586378],[39.687271,48.587084],[39.67699,48.589013],[39.671325,48.58924],[39.633431,48.581263],[39.623602,48.587026],[39.621071,48.586713],[39.619525,48.583023],[39.611029,48.574051],[39.601073,48.574959],[39.596866,48.579502],[39.605878,48.585521],[39.606406,48.588618],[39.600613,48.592875],[39.591386,48.59225],[39.584164,48.588304],[39.57434,48.581738],[39.564086,48.584599],[39.569414,48.591116],[39.563564,48.599089],[39.554981,48.598295],[39.549059,48.595854],[39.549314,48.585973],[39.539875,48.584017],[39.530691,48.585691],[39.529249,48.591218],[39.535012,48.592838],[39.534191,48.596769],[39.526932,48.598541],[39.524524,48.602638],[39.529832,48.609362],[39.528054,48.612874],[39.512924,48.62213],[39.517571,48.626699],[39.518343,48.630272],[39.516579,48.633726],[39.511638,48.635704],[39.494856,48.633064],[39.481982,48.629065],[39.475845,48.629462],[39.467219,48.628555],[39.465427,48.633504],[39.46868,48.63769],[39.465813,48.638665],[39.457562,48.638651],[39.454215,48.639786],[39.45164,48.641033],[39.449575,48.644557],[39.449798,48.650401],[39.451308,48.651708],[39.453385,48.652812],[39.452373,48.65471],[39.450176,48.655672],[39.446501,48.656301],[39.438948,48.65494],[39.432323,48.656749],[39.420746,48.658223],[39.414232,48.656692],[39.410694,48.657656],[39.408033,48.65981],[39.408205,48.661454],[39.413526,48.66684],[39.41387,48.668427],[39.411724,48.670524],[39.405821,48.673812],[39.402645,48.674435],[39.397991,48.674605],[39.390524,48.678799],[39.38917,48.680386],[39.390929,48.683758],[39.389599,48.684749],[39.381702,48.685514],[39.379557,48.686279],[39.377986,48.686237],[39.367316,48.691974],[39.36589,48.692229],[39.360311,48.695798],[39.355953,48.697214],[39.350503,48.707637],[39.348657,48.708713],[39.346855,48.712224],[39.348638,48.713471],[39.354131,48.713244],[39.360159,48.715679],[39.365266,48.71684],[39.370458,48.715962],[39.37208,48.715934],[39.373787,48.717492],[39.374183,48.718652],[39.372604,48.71987],[39.369128,48.720068],[39.361532,48.722304],[39.355224,48.725249],[39.353722,48.726891],[39.354072,48.729646],[39.358875,48.733901],[39.358871,48.736175],[39.358192,48.737005],[39.349266,48.742496],[39.347206,48.745779],[39.347027,48.750212],[39.346176,48.751042],[39.343138,48.757361],[39.343363,48.759209],[39.345528,48.761661],[39.349172,48.762152],[39.351326,48.763094],[39.353893,48.76549],[39.354502,48.766828],[39.352781,48.767941],[39.351063,48.768547],[39.347243,48.768384],[39.340336,48.766301],[39.336134,48.76598],[39.33167,48.766602],[39.326603,48.768309],[39.326084,48.770015],[39.327483,48.772108],[39.327972,48.773692],[39.326256,48.775559],[39.324546,48.776049],[39.31459,48.774804],[39.311844,48.774069],[39.308832,48.771995],[39.303089,48.765414],[39.299913,48.763038],[39.292617,48.760605],[39.291494,48.759436],[39.290643,48.756248],[39.289281,48.753683],[39.28952,48.751514],[39.286434,48.748901],[39.28206,48.748608],[39.278887,48.749339],[39.276658,48.752333],[39.274776,48.753681],[39.272383,48.753887],[39.270809,48.752759],[39.270302,48.751212],[39.271675,48.74776],[39.270809,48.743987],[39.268663,48.741949],[39.264468,48.741252],[39.258535,48.742741],[39.256311,48.74227],[39.255023,48.740685],[39.255282,48.738774],[39.259229,48.733835],[39.256139,48.726872],[39.253962,48.724402],[39.253307,48.722059],[39.2539,48.720153],[39.24978,48.712564],[39.243515,48.709619],[39.239588,48.709125],[39.23599,48.711088],[39.232364,48.711412],[39.226785,48.708977],[39.224897,48.706768],[39.219404,48.705182],[39.207173,48.6983],[39.203182,48.698611],[39.200371,48.699999],[39.199148,48.702265],[39.198354,48.705777],[39.197517,48.706485],[39.196508,48.706513],[39.195106,48.703898],[39.1909,48.69982],[39.185415,48.693399],[39.181638,48.68575],[39.174249,48.680329],[39.163349,48.675739],[39.157434,48.675379],[39.151941,48.676286],[39.148672,48.675285],[39.144512,48.670911],[39.141898,48.66665],[39.141641,48.665063],[39.142671,48.663533],[39.141984,48.660868],[39.139488,48.65964],[39.127307,48.660471],[39.123187,48.660018],[39.116828,48.656748],[39.111936,48.653347],[39.103618,48.649869],[39.098554,48.650889],[39.084907,48.650662],[39.075894,48.651626],[39.07435,48.650436],[39.054866,48.647033],[39.042678,48.646466],[39.038082,48.647185],[39.035546,48.648243],[39.033447,48.651976],[39.032206,48.652874],[39.028508,48.653006],[39.019153,48.656975],[39.012372,48.658336],[39.010316,48.660084],[39.009633,48.662626],[39.01298,48.664043],[39.018559,48.6641],[39.021649,48.662399],[39.025426,48.661974],[39.027486,48.663249],[39.026284,48.667274],[39.023881,48.669882],[39.020534,48.672262],[39.020276,48.675606],[39.019582,48.679139],[39.016367,48.680943],[39.014354,48.683427],[39.015727,48.68864],[39.015548,48.694891],[39.004826,48.696345],[39.001815,48.698007],[38.999848,48.700198],[38.999505,48.703993],[38.998218,48.707674],[38.998986,48.711196],[38.996922,48.711602],[38.991923,48.710002],[38.986923,48.710158],[38.984305,48.711828],[38.984742,48.713621],[38.988862,48.715207],[38.993918,48.716189],[38.998046,48.717472],[38.999333,48.719624],[38.998389,48.724267],[38.991437,48.730608],[38.989541,48.734987],[38.984456,48.73758],[38.982203,48.740286],[38.982332,48.742189],[38.981216,48.743845],[38.978812,48.744892],[38.974997,48.744763],[38.972563,48.743584],[38.969832,48.743746],[38.966946,48.745204],[38.964092,48.746194],[38.961131,48.746137],[38.95993,48.742911],[38.961217,48.739911],[38.961045,48.736515],[38.956946,48.734067],[38.946067,48.734449],[38.943707,48.733854],[38.934009,48.735779],[38.932464,48.736798],[38.934352,48.742911],[38.937957,48.744071],[38.938858,48.745812],[38.938279,48.746682],[38.936959,48.747117],[38.935055,48.746854],[38.933665,48.746024],[38.93065,48.745274],[38.922722,48.745005],[38.921306,48.744609],[38.919967,48.743421],[38.918028,48.742911],[38.914321,48.744383],[38.912572,48.746873],[38.911135,48.748005],[38.908775,48.74925],[38.90474,48.750608],[38.901092,48.750905],[38.898818,48.750184],[38.892037,48.750438],[38.88133,48.750184],[38.880236,48.750608],[38.879077,48.752476],[38.877618,48.752589],[38.871692,48.751305],[38.863879,48.75138],[38.860955,48.750736],[38.860601,48.749788],[38.859378,48.74959],[38.855387,48.749646],[38.847148,48.742911],[38.836076,48.723267],[38.830067,48.717038],[38.808438,48.713414],[38.767067,48.71432],[38.753514,48.718492],[38.691716,48.729363],[38.674549,48.729363],[38.678412,48.723701],[38.630167,48.721172],[38.583218,48.71987],[38.578419,48.70943],[38.577732,48.696742],[38.572231,48.689056],[38.559446,48.686695],[38.548978,48.675294],[38.539451,48.673509],[38.527284,48.674642],[38.516148,48.670562],[38.515247,48.666367],[38.496708,48.663192],[38.480228,48.659111],[38.464428,48.656408],[38.445202,48.655048],[38.431476,48.650492],[38.426326,48.638696],[38.436275,48.629243],[38.441253,48.617271],[38.438793,48.611028],[38.40607,48.60193],[38.402637,48.59194],[38.402637,48.547867],[38.414303,48.520605],[38.411563,48.51058],[38.405377,48.473366],[38.393024,48.436606],[38.389247,48.432278],[38.390964,48.415874],[38.367914,48.402171],[38.354228,48.390346],[38.343578,48.384437],[38.321754,48.371053],[38.290706,48.361631],[38.273689,48.359192],[38.238521,48.386717],[38.18906,48.416533],[38.163094,48.402117],[38.148548,48.414482],[38.135244,48.419039],[38.117477,48.420805],[38.113706,48.408013],[38.068504,48.408673],[38.042123,48.409086],[38.004802,48.393954],[37.978623,48.391275],[37.974959,48.381115],[37.970152,48.380317],[37.958486,48.377104],[37.950083,48.373433],[37.942264,48.362251],[37.944796,48.35967],[37.942023,48.357463],[37.934841,48.360987],[37.931785,48.360573],[37.929296,48.35949],[37.923617,48.352797],[37.918552,48.346527],[37.905496,48.340438],[37.900682,48.323255],[37.901147,48.290882],[37.89434,48.286666],[37.895347,48.268546],[37.89157,48.255061],[37.892943,48.233569],[37.896571,48.215429],[37.88333,48.199712],[37.856208,48.192846],[37.828593,48.17515],[37.824622,48.157818],[37.819855,48.143897],[37.816804,48.132292],[37.808937,48.122079],[37.804106,48.117671],[37.8002,48.114966],[37.792021,48.104528],[37.789283,48.100177],[37.773053,48.092032],[37.756436,48.08667],[37.743087,48.086825],[37.726651,48.079582],[37.725794,48.073324],[37.699702,48.072204],[37.693049,48.069307],[37.687749,48.061894],[37.694294,48.056545],[37.691199,48.053406],[37.68785,48.054754],[37.64781,48.028944],[37.622662,48.019444],[37.616482,48.018095],[37.588566,48.016021],[37.575455,48.013961],[37.573394,48.006899],[37.556143,48.009855],[37.549621,47.997364],[37.558546,47.986451],[37.549941,47.979664],[37.544791,47.977423],[37.541201,47.974587],[37.532003,47.964588],[37.525158,47.957202],[37.521854,47.94582],[37.542839,47.932477],[37.53503,47.918015],[37.5686,47.907768],[37.575907,47.907733],[37.644034,47.886626],[37.634262,47.838423],[37.634549,47.802538],[37.623169,47.77311],[37.637589,47.751994],[37.67268,47.724717],[37.764495,47.684702],[37.775529,47.675427],[37.803977,47.660196],[37.831275,47.656729],[37.852385,47.641694],[37.84586,47.623762],[37.815994,47.585221],[37.819427,47.546303],[37.892555,47.469773],[37.878478,47.441684],[37.863715,47.426588],[37.855819,47.403124],[37.856849,47.392898],[37.850326,47.384298],[37.83831,47.378022],[37.841643,47.369022],[37.851599,47.365534],[37.841743,47.358489],[37.837623,47.352442],[37.848609,47.350116],[37.859152,47.354371],[37.861212,47.347858],[37.856849,47.343603],[37.844489,47.341974],[37.829283,47.342507],[37.827323,47.328479],[37.824577,47.321498],[37.831786,47.314981],[37.834876,47.30823],[37.827666,47.302643],[37.833846,47.285412],[37.833503,47.249301],[37.811187,47.201271],[37.800544,47.173272],[37.818054,47.119099],[37.829283,47.112742],[37.83831,47.099704],[37.862171,47.106248],[37.87958,47.106667],[37.895473,47.110921],[37.983964,47.083576],[37.99023,47.091466],[37.979072,47.09281],[37.975882,47.095683],[37.993063,47.099003],[38.032545,47.08907],[38.040012,47.091875],[38.040785,47.096257],[38.054332,47.108302],[38.062671,47.110804],[38.08885,47.105956],[38.104662,47.095627],[38.122869,47.080622],[38.132826,47.06402],[38.131796,47.053729],[38.106046,47.047179],[38.080408,47.026545],[38.084988,47.020418],[38.163265,47.065455],[38.186556,47.093712],[38.211502,47.107183],[38.230118,47.119406],[38.228451,47.122673],[38.229247,47.127085],[38.231909,47.129692],[38.234068,47.135546],[38.236312,47.139527],[38.23559,47.196129],[38.234781,47.202589],[38.237378,47.208391],[38.239657,47.208713],[38.241055,47.210114],[38.241152,47.210543],[38.240825,47.210855],[38.241222,47.211753],[38.241847,47.212166],[38.241542,47.212529],[38.241893,47.214844],[38.242276,47.215302],[38.24228,47.216212],[38.24279,47.217117],[38.242505,47.217811],[38.241288,47.218482],[38.240507,47.218336],[38.239826,47.218731],[38.239897,47.219924],[38.240083,47.220149],[38.240047,47.221361],[38.23976,47.221618],[38.238759,47.221739],[38.238255,47.222409],[38.238714,47.223216],[38.238517,47.22364],[38.236442,47.224262],[38.236274,47.2245],[38.23641,47.225413],[38.236145,47.225608],[38.234648,47.225407],[38.233869,47.225801],[38.234011,47.227113],[38.233674,47.228017],[38.232862,47.22841],[38.232907,47.22919],[38.234334,47.230986],[38.235123,47.231097],[38.236248,47.230817],[38.237346,47.231216],[38.237809,47.232043],[38.239886,47.232412],[38.240751,47.232146],[38.241649,47.232812],[38.242767,47.232683],[38.246091,47.23411],[38.247703,47.233423],[38.253541,47.233616],[38.260502,47.238316],[38.288189,47.23856],[38.288043,47.2565],[38.324491,47.256821],[38.330785,47.263449],[38.330997,47.264575],[38.329143,47.266503],[38.333286,47.268272],[38.333735,47.268938],[38.33081,47.275932],[38.327633,47.27668],[38.326187,47.277483],[38.327186,47.279544],[38.323394,47.281132],[38.325766,47.284601],[38.328436,47.284808],[38.32969,47.289612],[38.333354,47.292132],[38.333739,47.296253],[38.333288,47.296975],[38.327547,47.297527],[38.327091,47.299009],[38.328204,47.300397],[38.334511,47.301408],[38.336304,47.306408],[38.220978,47.30538],[38.221472,47.327345],[38.227214,47.32971],[38.225794,47.332115],[38.222079,47.332853],[38.230493,47.338902],[38.230693,47.343169],[38.24024,47.346223],[38.246788,47.351445],[38.250461,47.357713],[38.247363,47.361737],[38.245559,47.363193],[38.258732,47.373353],[38.286492,47.37356],[38.286416,47.391477],[38.300409,47.391514],[38.302085,47.39287],[38.302022,47.475121],[38.289402,47.476754],[38.2941,47.490745],[38.295072,47.508064],[38.284908,47.508376],[38.284804,47.544465],[38.305114,47.544851],[38.31115,47.553619],[38.31097,47.576028],[38.350737,47.576206],[38.35012,47.616689],[38.456688,47.617004],[38.456275,47.644253],[38.620087,47.64487],[38.629589,47.653336],[38.629274,47.669278],[38.665887,47.669418],[38.665616,47.697176],[38.6592,47.700057],[38.670796,47.698954],[38.729124,47.698807],[38.730305,47.680361],[38.754069,47.684888],[38.773164,47.685764],[38.770869,47.720629],[38.788943,47.737015],[38.798157,47.77844],[38.788677,47.815974],[38.835102,47.816059],[38.839399,47.864254],[39.082778,47.869927],[39.082891,47.851604]]],[[[35.201458,45.523343],[35.109867,45.599025],[35.050056,45.667202],[34.977053,45.765285],[34.958219,45.760037],[34.800881,45.804735],[34.796134,45.892053],[34.782879,45.904975],[34.752716,45.910231],[34.700883,45.959179],[34.651415,45.973908],[34.556042,45.988691],[34.478552,45.946947],[34.436726,45.968164],[34.382464,46.034692],[34.227754,46.060816],[34.160772,46.08043],[34.122582,46.108122],[34.038334,46.116935],[33.82395,46.187069],[33.740532,46.185128],[33.714554,46.196894],[33.6897,46.204334],[33.60668,46.146878],[33.612528,46.138238],[33.612957,46.129148],[33.616561,46.11536],[33.633038,46.097381],[33.637282,46.081351],[33.623699,46.071722],[33.611338,46.054819],[33.618724,46.01252],[33.622873,45.997617],[33.628543,45.987604],[33.629384,45.977458],[33.629688,45.967426],[33.627758,45.958848],[33.616479,45.949068],[33.617606,45.944243],[33.624497,45.942516],[33.634992,45.941326],[33.642079,45.942885],[33.647501,45.945166],[33.640135,45.949356],[33.659761,45.954586],[33.682856,45.952803],[33.692314,45.95526],[33.722964,45.950158],[33.744939,45.95033],[33.747278,45.946685],[33.751076,45.9488],[33.755784,45.939282],[33.757987,45.934494],[33.756027,45.931109],[33.749506,45.928276],[33.730928,45.930188],[33.720244,45.924636],[33.701995,45.911004],[33.697545,45.911367],[33.691971,45.913471],[33.687773,45.912752],[33.680094,45.90854],[33.676214,45.903954],[33.675115,45.898868],[33.678367,45.885139],[33.679953,45.875048],[33.679077,45.867314],[33.684716,45.858888],[33.684191,45.850098],[33.674126,45.857432],[33.661598,45.86426],[33.662233,45.871524],[33.654663,45.875233],[33.642234,45.876325],[33.634096,45.882614],[33.616272,45.892143],[33.593725,45.885292],[33.581653,45.871206],[33.568716,45.874008],[33.55864,45.86172],[33.551715,45.851628],[33.548213,45.843531],[33.542129,45.840258],[33.537116,45.845796],[33.527171,45.849723],[33.517655,45.846594],[33.507622,45.841072],[33.50089,45.848355],[33.520062,45.857708],[33.544102,45.880335],[33.540593,45.884913],[33.517951,45.867777],[33.482974,45.854396],[33.432207,45.838576],[33.41709,45.830205],[33.373494,45.797187],[33.32241,45.775037],[33.280613,45.76267],[33.23866,45.752804],[33.21192,45.757728],[33.182114,45.773902],[33.172486,45.786603],[33.180625,45.797211],[33.185831,45.807952],[33.182338,45.80993],[33.175838,45.805742],[33.165737,45.78827],[33.159184,45.749182],[33.152919,45.733355],[33.1378,45.719814],[33.127908,45.719842],[33.114638,45.712775],[33.095704,45.715503],[33.077681,45.707393],[33.0691,45.706833],[33.050144,45.696959],[33.017154,45.687009],[33.006337,45.679383],[32.999393,45.681147],[32.908691,45.640338],[32.82504,45.590611],[32.820181,45.586841],[32.820129,45.584393],[32.821299,45.58301],[32.829252,45.583603],[32.837291,45.583354],[32.841008,45.582406],[32.843556,45.576834],[32.843141,45.570597],[32.840648,45.56511],[32.833962,45.560234],[32.825974,45.55733],[32.820317,45.559825],[32.793178,45.56389],[32.772105,45.557869],[32.736877,45.543007],[32.72322,45.533026],[32.691784,45.523882],[32.59058,45.48558],[32.562144,45.470223],[32.538208,45.454884],[32.524271,45.438872],[32.500388,45.424663],[32.48807,45.407956],[32.479703,45.404263],[32.478939,45.389163],[32.488644,45.384988],[32.507445,45.381957],[32.513458,45.372038],[32.510377,45.360884],[32.489453,45.346136],[32.551846,45.332385],[32.569816,45.332888],[32.578538,45.327642],[32.599462,45.325318],[32.622109,45.317634],[32.65299,45.313322],[32.675688,45.320614],[32.685502,45.332102],[32.712159,45.341307],[32.735393,45.354972],[32.76522,45.363836],[32.84671,45.365264],[32.907019,45.359436],[32.966765,45.336694],[32.991848,45.322499],[33.035244,45.29016],[33.062776,45.27566],[33.081231,45.258421],[33.093199,45.248834],[33.107907,45.23151],[33.124087,45.225712],[33.138912,45.216317],[33.143404,45.20709],[33.148825,45.202143],[33.157326,45.198774],[33.165826,45.19347],[33.179821,45.187651],[33.185236,45.183717],[33.201984,45.183225],[33.225292,45.174695],[33.234348,45.168219],[33.245939,45.156938],[33.257295,45.147804],[33.268036,45.145629],[33.27516,45.145901],[33.284289,45.148276],[33.288293,45.154105],[33.296035,45.157719],[33.300138,45.162027],[33.29792,45.165633],[33.298963,45.167787],[33.301221,45.170642],[33.305239,45.17277],[33.310057,45.1741],[33.318394,45.174581],[33.325143,45.174125],[33.331548,45.171883],[33.350015,45.173699],[33.358429,45.178252],[33.37497,45.183679],[33.380282,45.185909],[33.376286,45.18766],[33.376436,45.191845],[33.38275,45.196471],[33.391196,45.197375],[33.400771,45.196065],[33.408547,45.193444],[33.415989,45.191404],[33.432652,45.184093],[33.450854,45.174238],[33.480757,45.155892],[33.509265,45.13445],[33.536378,45.109551],[33.56149,45.081073],[33.58086,45.050881],[33.602595,44.997973],[33.604377,44.980471],[33.597652,44.97655],[33.610962,44.925721],[33.610592,44.899319],[33.606448,44.871702],[33.6052,44.866386],[33.600863,44.857663],[33.594636,44.847578],[33.590643,44.845722],[33.586864,44.847],[33.578964,44.840487],[33.569694,44.838843],[33.561031,44.842318],[33.556915,44.840587],[33.55297,44.841655],[33.548513,44.834598],[33.550231,44.822242],[33.549545,44.810828],[33.547143,44.81013],[33.54552,44.80417],[33.540633,44.802652],[33.533513,44.792608],[33.540722,44.761758],[33.539777,44.744321],[33.547583,44.724445],[33.545774,44.707798],[33.547442,44.698563],[33.546363,44.677979],[33.541864,44.658932],[33.535667,44.64599],[33.531191,44.641107],[33.525691,44.638362],[33.52105,44.640258],[33.512474,44.633149],[33.508271,44.631916],[33.494615,44.617766],[33.450155,44.615946],[33.373305,44.584056],[33.403694,44.553239],[33.46013,44.522891],[33.472733,44.511135],[33.486243,44.494968],[33.506071,44.500846],[33.554048,44.486877],[33.601948,44.491739],[33.627013,44.479579],[33.63834,44.458687],[33.64553,44.421924],[33.673869,44.412807],[33.702892,44.416926],[33.733092,44.383332],[33.759005,44.386932],[33.778737,44.381452],[33.846027,44.401142],[33.882423,44.400268],[33.939412,44.389646],[33.963406,44.38885],[34.034986,44.403674],[34.057232,44.416521],[34.128936,44.427878],[34.171984,44.491011],[34.260362,44.507556],[34.308946,44.552088],[34.320135,44.551094],[34.334843,44.545507],[34.349035,44.546767],[34.349805,44.57185],[34.354354,44.585681],[34.375816,44.591703],[34.377892,44.612309],[34.38342,44.615877],[34.389678,44.628884],[34.403924,44.639751],[34.412176,44.658807],[34.432149,44.682765],[34.474964,44.715071],[34.544614,44.741006],[34.625628,44.773956],[34.677858,44.787856],[34.728811,44.807825],[34.747987,44.807058],[34.763731,44.815057],[34.830931,44.816908],[34.845166,44.813296],[34.912095,44.81577],[34.920318,44.82153],[34.920988,44.828751],[34.935034,44.830042],[34.942529,44.833842],[34.967823,44.838027],[34.980991,44.834465],[34.988701,44.828075],[35.0007,44.83203],[35.029503,44.828249],[35.047274,44.814837],[35.043666,44.799459],[35.064425,44.797108],[35.081062,44.790612],[35.09398,44.801375],[35.111022,44.80702],[35.118455,44.81723],[35.133101,44.822812],[35.130569,44.829311],[35.139391,44.861252],[35.144155,44.867002],[35.156245,44.886911],[35.169311,44.900247],[35.177573,44.900936],[35.190556,44.907887],[35.205602,44.910216],[35.216612,44.909005],[35.243653,44.916792],[35.25652,44.938423],[35.249825,44.952823],[35.258409,44.960904],[35.271282,44.967596],[35.283641,44.96616],[35.294987,44.959711],[35.301518,44.965776],[35.322807,44.966441],[35.322466,44.95921],[35.344315,44.964188],[35.351803,44.954952],[35.382973,44.943891],[35.394038,44.954933],[35.356103,44.97733],[35.358416,44.985552],[35.366739,44.992559],[35.395224,44.999343],[35.428693,45.012912],[35.412652,45.025778],[35.385966,45.035246],[35.389399,45.049444],[35.414638,45.07541],[35.451063,45.097366],[35.541346,45.125861],[35.58496,45.129359],[35.62977,45.122303],[35.692135,45.104626],[35.748793,45.081465],[35.777878,45.066304],[35.785327,45.057628],[35.804886,45.045558],[35.814483,45.033306],[35.810165,45.021418],[35.821947,45.019203],[35.82978,45.014076],[35.834113,45.0091],[35.828278,45.004552],[35.834801,44.999213],[35.842096,44.998366],[35.870587,45.004186],[35.879342,45.009765],[35.900286,45.014189],[35.907658,45.018079],[35.925851,45.019111],[35.954083,45.011219],[35.984215,45.022859],[35.994952,45.03511],[36.012561,45.044932],[36.035405,45.049216],[36.07129,45.048252],[36.160037,45.035925],[36.201045,45.033023],[36.213493,45.02807],[36.225684,45.026816],[36.24793,45.04068],[36.249153,45.047687],[36.282137,45.05499],[36.309329,45.057922],[36.337724,45.058302],[36.372884,45.057475],[36.390978,45.065359],[36.440096,45.083327],[36.456018,45.095623],[36.454606,45.105555],[36.439699,45.116727],[36.43318,45.117691],[36.425628,45.128893],[36.4258,45.134402],[36.422542,45.136938],[36.421428,45.152916],[36.417779,45.164294],[36.407778,45.172889],[36.407734,45.193404],[36.403912,45.214162],[36.412019,45.225877],[36.423049,45.23723],[36.423707,45.245262],[36.435783,45.258066],[36.43962,45.271622],[36.436333,45.276239],[36.426012,45.27864],[36.421663,45.286584],[36.435179,45.295073],[36.484438,45.305478],[36.499502,45.318675],[36.488837,45.324608],[36.47329,45.330744],[36.472041,45.341233],[36.477812,45.349132],[36.483644,45.350864],[36.518286,45.351539],[36.535225,45.349918],[36.534981,45.345637],[36.54435,45.344735],[36.564437,45.347114],[36.592338,45.3465],[36.596554,45.345031],[36.60599,45.347733],[36.612025,45.355938],[36.625643,45.360763],[36.630569,45.360521],[36.633217,45.362811],[36.630106,45.373786],[36.6335,45.375653],[36.643211,45.377813],[36.648733,45.38292],[36.641199,45.390666],[36.634642,45.391737],[36.611273,45.407542],[36.607593,45.412573],[36.611498,45.414921],[36.61553,45.422271],[36.606346,45.42872],[36.598276,45.438662],[36.587036,45.44127],[36.57528,45.442252],[36.565672,45.436625],[36.56594,45.428443],[36.554467,45.424368],[36.547831,45.425611],[36.532672,45.42719],[36.518828,45.433521],[36.506954,45.44226],[36.499746,45.445484],[36.495456,45.450514],[36.482062,45.455771],[36.470548,45.458514],[36.461093,45.456435],[36.447174,45.460135],[36.441535,45.455406],[36.442064,45.453282],[36.43401,45.450676],[36.432474,45.447875],[36.421423,45.446002],[36.415458,45.446825],[36.40184,45.450177],[36.376602,45.463689],[36.372894,45.47138],[36.357563,45.471617],[36.345514,45.480891],[36.344848,45.484307],[36.33933,45.482513],[36.340048,45.477585],[36.336302,45.474221],[36.322868,45.471297],[36.307976,45.475414],[36.293683,45.483861],[36.265345,45.478566],[36.17039,45.472361],[36.12387,45.463618],[36.068785,45.445463],[36.068942,45.404374],[36.04285,45.384009],[35.99701,45.371491],[35.941221,45.380044],[35.886842,45.407774],[35.846507,45.446506],[35.86369,45.45422],[35.87606,45.463856],[35.867831,45.473251],[35.841775,45.474473],[35.823649,45.46632],[35.817747,45.458869],[35.818368,45.451418],[35.826475,45.440129],[35.802358,45.424293],[35.748929,45.396331],[35.745726,45.39066],[35.748889,45.384633],[35.760985,45.381258],[35.753728,45.366548],[35.724851,45.351594],[35.71557,45.338458],[35.632903,45.324584],[35.525825,45.291193],[35.498759,45.306176],[35.467835,45.307544],[35.382064,45.352514],[35.311256,45.411424],[35.201458,45.523343]]],[[[38.691727,48.729363],[38.753516,48.718494],[38.76707,48.714322],[38.80844,48.713416],[38.83007,48.71704],[38.836078,48.723269],[38.84715,48.742913],[38.85539,48.749648],[38.85938,48.749592],[38.860604,48.74979],[38.860958,48.750738],[38.863881,48.751382],[38.871695,48.751308],[38.87762,48.752591],[38.879079,48.752478],[38.880238,48.750611],[38.881332,48.750186],[38.892039,48.750441],[38.89882,48.750186],[38.901094,48.750908],[38.904742,48.75061],[38.908777,48.749252],[38.911137,48.748007],[38.912575,48.746875],[38.914323,48.744385],[38.91803,48.742914],[38.919969,48.743423],[38.921308,48.744611],[38.922724,48.745008],[38.924633,48.745036],[38.930652,48.745276],[38.933667,48.746026],[38.935057,48.746856],[38.936961,48.747119],[38.938281,48.746684],[38.93886,48.745814],[38.937959,48.744074],[38.934354,48.742913],[38.932466,48.7368],[38.934011,48.735781],[38.94371,48.733856],[38.94607,48.734451],[38.956948,48.734069],[38.961048,48.736517],[38.961219,48.739913],[38.959932,48.742913],[38.961133,48.74614],[38.964095,48.746196],[38.966948,48.745206],[38.969834,48.743749],[38.972565,48.743586],[38.974999,48.744765],[38.978814,48.744894],[38.981218,48.743847],[38.982334,48.742192],[38.982205,48.740288],[38.984458,48.737582],[38.989543,48.734989],[38.991439,48.730611],[38.998391,48.724269],[38.999335,48.719626],[38.998048,48.717474],[38.993921,48.716191],[38.988864,48.715209],[38.984744,48.713624],[38.984308,48.71183],[38.986925,48.71016],[38.991925,48.710004],[38.996925,48.711604],[38.998988,48.711198],[38.99822,48.707677],[38.999507,48.703995],[38.99985,48.7002],[39.001817,48.698009],[39.004829,48.696347],[39.01555,48.694894],[39.015729,48.688642],[39.014356,48.683429],[39.016369,48.680945],[39.019584,48.679141],[39.020278,48.675608],[39.020536,48.672264],[39.023883,48.669884],[39.026286,48.667276],[39.027488,48.663251],[39.025428,48.661976],[39.021652,48.662401],[39.018562,48.664102],[39.012982,48.664045],[39.009635,48.662628],[39.010318,48.660086],[39.012374,48.658338],[39.019155,48.656978],[39.02851,48.653009],[39.032209,48.652876],[39.03345,48.651978],[39.035548,48.648245],[39.038084,48.647187],[39.04268,48.646468],[39.054868,48.647036],[39.074352,48.650438],[39.075897,48.651629],[39.084909,48.650665],[39.098556,48.650892],[39.10362,48.649871],[39.111938,48.653349],[39.11683,48.656751],[39.123189,48.66002],[39.127309,48.660474],[39.13949,48.659642],[39.141986,48.66087],[39.142673,48.663535],[39.141643,48.665066],[39.141901,48.666653],[39.144514,48.670914],[39.148674,48.675287],[39.151943,48.676288],[39.157436,48.675382],[39.163351,48.675741],[39.174251,48.680331],[39.18164,48.685752],[39.185417,48.693401],[39.190902,48.699822],[39.195108,48.703901],[39.19651,48.706516],[39.197519,48.706487],[39.198356,48.705779],[39.19915,48.702267],[39.200373,48.700002],[39.203184,48.698614],[39.207175,48.698302],[39.212539,48.70122],[39.219406,48.705184],[39.224899,48.70677],[39.226787,48.708979],[39.232366,48.711415],[39.235993,48.71109],[39.23959,48.709127],[39.243517,48.709622],[39.249782,48.712567],[39.253902,48.720155],[39.253309,48.722061],[39.253965,48.724404],[39.256141,48.726874],[39.259231,48.733838],[39.255284,48.738776],[39.255026,48.740687],[39.256313,48.742272],[39.258537,48.742744],[39.26447,48.741255],[39.268665,48.741951],[39.270811,48.743989],[39.271677,48.747762],[39.270304,48.751214],[39.270811,48.752761],[39.272385,48.753889],[39.274778,48.753683],[39.276661,48.752336],[39.27889,48.749341],[39.282062,48.748611],[39.286436,48.748903],[39.289522,48.751516],[39.289283,48.753686],[39.290645,48.75625],[39.291496,48.759438],[39.29262,48.760607],[39.299915,48.76304],[39.303091,48.765416],[39.308834,48.771998],[39.311846,48.774072],[39.314592,48.774807],[39.324549,48.776051],[39.326258,48.775561],[39.327974,48.773695],[39.327485,48.772111],[39.326086,48.770018],[39.326605,48.768311],[39.331673,48.766604],[39.336136,48.765982],[39.340338,48.766303],[39.347245,48.768387],[39.351063,48.768547],[39.352783,48.767944],[39.354504,48.766831],[39.353895,48.765492],[39.351328,48.763097],[39.349175,48.762154],[39.34553,48.761663],[39.343365,48.759212],[39.343141,48.757363],[39.346178,48.751044],[39.347029,48.750214],[39.347208,48.745781],[39.349268,48.742498],[39.358194,48.737008],[39.358874,48.736178],[39.358877,48.733904],[39.357078,48.732309],[39.354075,48.729648],[39.353724,48.726893],[39.355226,48.725251],[39.361534,48.722307],[39.36913,48.72007],[39.372606,48.719872],[39.374185,48.718655],[39.373789,48.717494],[39.372082,48.715936],[39.370461,48.715964],[39.365268,48.716842],[39.360161,48.715681],[39.354134,48.713246],[39.34864,48.713473],[39.346857,48.712227],[39.34866,48.708715],[39.350505,48.707639],[39.355955,48.697216],[39.360313,48.6958],[39.365892,48.692231],[39.367319,48.691976],[39.377988,48.686239],[39.379559,48.686281],[39.381705,48.685516],[39.389601,48.684752],[39.390931,48.68376],[39.389172,48.680388],[39.390526,48.678801],[39.397993,48.674608],[39.402647,48.674437],[39.405823,48.673814],[39.411726,48.670527],[39.413872,48.668429],[39.413528,48.666842],[39.408207,48.661457],[39.408035,48.659813],[39.410696,48.657658],[39.414234,48.656694],[39.420748,48.658225],[39.432325,48.656751],[39.43895,48.654942],[39.446504,48.656303],[39.450178,48.655674],[39.452375,48.654713],[39.453387,48.652815],[39.45131,48.65171],[39.4498,48.650403],[39.449577,48.64456],[39.451642,48.641036],[39.454217,48.639788],[39.457564,48.638654],[39.465815,48.638667],[39.46868,48.63769],[39.465427,48.633504],[39.467219,48.628555],[39.475845,48.629462],[39.481982,48.629065],[39.494856,48.633064],[39.511638,48.635704],[39.516579,48.633726],[39.518343,48.630272],[39.517571,48.626699],[39.512924,48.62213],[39.528054,48.612874],[39.529832,48.609362],[39.524524,48.602638],[39.526932,48.598541],[39.534191,48.596769],[39.535012,48.592838],[39.529249,48.591218],[39.530691,48.585691],[39.539875,48.584017],[39.549316,48.585976],[39.549059,48.595854],[39.554981,48.598295],[39.563564,48.599089],[39.569414,48.591116],[39.564086,48.584599],[39.57434,48.581738],[39.584164,48.588304],[39.591386,48.59225],[39.600613,48.592875],[39.606406,48.588618],[39.605878,48.585521],[39.596866,48.579502],[39.601073,48.574959],[39.611029,48.574051],[39.619525,48.583023],[39.621071,48.586713],[39.623602,48.587026],[39.633431,48.581263],[39.671325,48.58924],[39.67699,48.589013],[39.687271,48.587084],[39.687101,48.589208],[39.682672,48.592689],[39.679362,48.591808],[39.679467,48.590602],[39.678799,48.590094],[39.676478,48.590863],[39.675839,48.591785],[39.676018,48.594721],[39.678178,48.59586],[39.679654,48.595476],[39.680608,48.596402],[39.678671,48.59812],[39.676001,48.59795],[39.675274,48.59694],[39.671427,48.595451],[39.668806,48.596567],[39.668176,48.598181],[39.668158,48.601311],[39.670944,48.603218],[39.670576,48.604588],[39.667113,48.605231],[39.663374,48.604922],[39.661023,48.606551],[39.660623,48.60909],[39.661447,48.610904],[39.667989,48.621313],[39.671535,48.624331],[39.680063,48.629498],[39.687768,48.632823],[39.69424,48.637614],[39.694362,48.639673],[39.69377,48.643208],[39.69153,48.644962],[39.691241,48.646322],[39.693715,48.649408],[39.699904,48.652604],[39.70227,48.653309],[39.70544,48.656548],[39.706436,48.656887],[39.709238,48.654562],[39.711486,48.655636],[39.709526,48.662254],[39.711308,48.667218],[39.710291,48.668063],[39.704576,48.666624],[39.702902,48.667225],[39.701721,48.669404],[39.704033,48.671485],[39.712113,48.674652],[39.713498,48.676128],[39.714196,48.680225],[39.717084,48.68144],[39.721986,48.682727],[39.722967,48.684162],[39.722546,48.684956],[39.718497,48.687429],[39.716681,48.689934],[39.718827,48.693317],[39.715965,48.695208],[39.720211,48.697203],[39.717876,48.703361],[39.713158,48.700835],[39.704492,48.706805],[39.712561,48.71167],[39.712262,48.715916],[39.704838,48.721463],[39.725463,48.72709],[39.726615,48.729372],[39.722706,48.731886],[39.724062,48.734598],[39.725599,48.737681],[39.725011,48.740452],[39.728882,48.74109],[39.731647,48.742096],[39.732192,48.744333],[39.733628,48.744907],[39.737309,48.743188],[39.739365,48.743631],[39.738736,48.747477],[39.736921,48.748898],[39.736376,48.752183],[39.740082,48.766418],[39.755303,48.767977],[39.76094,48.763862],[39.766204,48.764237],[39.768551,48.76631],[39.76866,48.769329],[39.766036,48.771031],[39.76363,48.771034],[39.765451,48.778079],[39.773495,48.784419],[39.780194,48.786082],[39.785854,48.799158],[39.797126,48.840576],[39.804672,48.843576],[39.808044,48.83948],[39.807503,48.838581],[39.827832,48.831465],[39.830439,48.833554],[39.886255,48.820946],[39.936737,48.800795],[39.976403,48.793903],[40.078831,48.869867],[40.071286,48.876975],[40.055495,48.910098],[40.031195,48.915801],[40.00398,48.900793],[39.99343,48.868286],[39.950652,48.875459],[39.940309,48.886691],[39.924336,48.895717],[39.853161,48.890737],[39.845802,48.902911],[39.836789,48.903052],[39.834653,48.891944],[39.828093,48.887404],[39.818786,48.895506],[39.818635,48.905788],[39.805377,48.914842],[39.782372,48.915745],[39.790097,48.938471],[39.776879,48.946025],[39.775576,48.955491],[39.75779,48.966535],[39.748412,48.979267],[39.75208,48.986592],[39.747268,48.987412],[39.73038,48.978202],[39.717623,48.982354],[39.71677,48.987067],[39.707619,48.99359],[39.705674,48.997642],[39.699288,49.00097],[39.693269,48.999302],[39.691124,48.99629],[39.67693,48.989538],[39.663411,49.000872],[39.670277,49.003148],[39.679204,49.012886],[39.673658,49.014934],[39.675663,49.026888],[39.681736,49.028733],[39.683582,49.036925],[39.673217,49.03933],[39.682089,49.045779],[39.693366,49.05054],[39.74032,49.04222],[39.766623,49.040132],[39.787133,49.049358],[39.803143,49.059202],[39.880305,49.06432],[39.910263,49.057462],[39.937951,49.056277],[39.942532,49.071347],[39.938169,49.082798],[39.958701,49.105564],[39.972108,49.124488],[40.031575,49.180241],[40.07613,49.186828],[40.10829,49.210883],[40.137226,49.239885],[40.188228,49.238626],[40.21437,49.244887],[40.219264,49.265172],[40.185745,49.284288],[40.18404,49.303985],[40.188526,49.307443],[40.196814,49.345228],[40.176429,49.356618],[40.170182,49.3564],[40.159805,49.366018],[40.162603,49.367837],[40.156906,49.372669],[40.129549,49.382381],[40.105631,49.391292],[40.047535,49.444528],[40.02919,49.453599],[40.04176,49.499103],[40.037599,49.519895],[40.168435,49.568921],[40.135258,49.616254],[40.063538,49.599233],[40.056729,49.606573],[39.952223,49.596549],[39.934601,49.572783],[39.890224,49.558359],[39.838914,49.563518],[39.805312,49.55805],[39.750232,49.596719],[39.714635,49.606479],[39.696747,49.604291],[39.686926,49.611558],[39.659995,49.614811],[39.638379,49.6351],[39.613305,49.691362],[39.59136,49.719134],[39.610109,49.733798],[39.533835,49.740848],[39.478761,49.756475],[39.438201,49.760006],[39.412062,49.753111],[39.376963,49.738424],[39.307924,49.753044],[39.28556,49.755666],[39.27547,49.768026],[39.264639,49.76848],[39.250371,49.777802],[39.239146,49.798226],[39.228992,49.808432],[39.228114,49.816503],[39.225656,49.840184],[39.188395,49.886222],[39.178402,49.888001],[39.130738,49.861568],[39.110366,49.837773],[39.069763,49.818731],[39.066233,49.815349],[39.033522,49.822372],[39.02166,49.82091],[38.984906,49.807783],[38.971138,49.807221],[38.949095,49.796102],[38.94035,49.800888],[38.930753,49.797174],[38.927811,49.798576],[38.9287,49.803888],[38.920357,49.804946],[38.916163,49.812724],[38.919124,49.814665],[38.909372,49.81917],[38.907392,49.828412],[38.913507,49.82863],[38.915094,49.831059],[38.911398,49.834589],[38.913878,49.836114],[38.912225,49.844315],[38.906706,49.845044],[38.90505,49.849149],[38.918648,49.8579],[38.916488,49.859925],[38.909338,49.860103],[38.898467,49.870416],[38.876416,49.869423],[38.869398,49.864488],[38.856713,49.869139],[38.849104,49.865103],[38.836346,49.867366],[38.832017,49.876702],[38.794958,49.88331],[38.79015,49.87851],[38.777683,49.88532],[38.768232,49.896044],[38.743847,49.897307],[38.733846,49.905025],[38.723247,49.927005],[38.6929,49.934766],[38.6853,49.960344],[38.715315,49.982384],[38.715136,49.98771],[38.687546,50.008152],[38.679052,50.005448],[38.676054,49.992814],[38.679731,49.974494],[38.666941,49.972156],[38.646196,49.955937],[38.616078,49.97439],[38.58157,49.977416],[38.526715,49.958271],[38.507898,49.96403],[38.487706,49.963602],[38.4833,49.976528],[38.47752,49.983271],[38.465914,49.983961],[38.46804,49.995247],[38.434095,50.001019],[38.416008,49.981338],[38.397563,49.990585],[38.349575,50.006444],[38.354164,50.019048],[38.3512,50.034741],[38.333976,50.059093],[38.329442,50.08551],[38.313196,50.088337],[38.301154,50.087142],[38.291493,50.079436],[38.275781,50.07344],[38.25406,50.072508],[38.178568,50.079969],[38.185066,50.055692],[38.183827,50.045832],[38.187923,50.04072],[38.188245,50.023603],[38.185824,50.022553],[38.217126,49.987182],[38.196332,49.969759],[38.162402,49.951496],[38.171565,49.941901],[38.126682,49.92215],[38.124994,49.942552],[38.056464,49.923247],[38.033921,49.904761],[38.012367,49.918497],[38.043687,49.932897],[38.005373,49.967245],[37.999075,49.963601],[37.980562,49.976794],[37.965809,49.979304],[37.962041,49.982918],[37.939445,50.015581],[37.936751,50.01835],[37.930119,50.027404],[37.926727,50.034251],[37.922215,50.037343],[37.902916,50.046732],[37.891309,50.051096],[37.876589,50.053326],[37.873603,50.048707],[37.852961,50.037493],[37.845367,50.029639],[37.846915,50.023195],[37.841274,50.02268],[37.83995,50.020097],[37.844806,50.019279],[37.839668,50.007438],[37.846345,49.998288],[37.838708,49.982876],[37.8343,49.981386],[37.829504,49.977938],[37.823012,49.977053],[37.821919,49.976061],[37.811868,49.977588],[37.808277,49.979446],[37.787887,49.98564],[37.768273,49.979852],[37.761756,49.969747],[37.75069,49.972173],[37.734732,49.966041],[37.727291,49.961004],[37.734898,49.95601],[37.748912,49.953199],[37.752736,49.93996],[37.773713,49.929327],[37.775018,49.921524],[37.771121,49.913478],[37.76859,49.912578],[37.753528,49.913556],[37.747178,49.91257],[37.749238,49.908269],[37.744348,49.900549],[37.738516,49.897712],[37.732928,49.900517],[37.708232,49.892617],[37.70199,49.890135],[37.696636,49.89027],[37.694024,49.891022],[37.682886,49.888812],[37.677931,49.882439],[37.663524,49.882537],[37.655369,49.889578],[37.649624,49.890778],[37.65001,49.871535],[37.640691,49.868973],[37.63646,49.862767],[37.647907,49.857949],[37.647909,49.851347],[37.634142,49.851668],[37.632287,49.850879],[37.633392,49.840982],[37.629433,49.830529],[37.628233,49.828063],[37.617078,49.824791],[37.61571,49.823452],[37.609756,49.815873],[37.600514,49.811768],[37.600134,49.80926],[37.605246,49.802153],[37.605703,49.795738],[37.612197,49.79171],[37.611246,49.78401],[37.605146,49.77969],[37.602557,49.776221],[37.5932795,49.7721585],[37.5937484,49.7628646],[37.6015122,49.7618303],[37.6037154,49.7583244],[37.591406,49.754171],[37.5793645,49.7563424],[37.5774501,49.7603432],[37.581863,49.769708],[37.579117,49.770539],[37.575855,49.769708],[37.5733513,49.7644092],[37.5722993,49.7591052],[37.5724275,49.754152],[37.584909,49.746154],[37.592028,49.73871],[37.5931682,49.7323972],[37.5828177,49.7246899],[37.5884359,49.7206694],[37.5912888,49.7175277],[37.5906103,49.7124974],[37.5888977,49.7118692],[37.5885584,49.7100755],[37.5934157,49.7091382],[37.6015773,49.7090333],[37.60655,49.7100446],[37.6025047,49.7115344],[37.5981159,49.7115533],[37.5962047,49.712812],[37.5972745,49.7145524],[37.595235,49.7185626],[37.5980879,49.7218649],[37.6020281,49.7235067],[37.6043845,49.7233706],[37.6131402,49.711103],[37.6162008,49.7112961],[37.612219,49.7251862],[37.6190269,49.7262498],[37.6206257,49.732644],[37.6204553,49.7396321],[37.6309298,49.7428469],[37.6455288,49.7546549],[37.6397923,49.7661229],[37.640175,49.772342],[37.650172,49.779226],[37.657945,49.779382],[37.666195,49.774498],[37.67204,49.767174],[37.677727,49.763489],[37.689569,49.763034],[37.694536,49.764733],[37.700237,49.767259],[37.709672,49.764685],[37.717219,49.760289],[37.732414,49.750569],[37.735022,49.747691],[37.75574,49.744589],[37.763958,49.749679],[37.777871,49.747014],[37.785384,49.73968],[37.794385,49.736725],[37.804329,49.735322],[37.81084,49.740881],[37.822931,49.740836],[37.831842,49.740466],[37.843778,49.733858],[37.840488,49.731728],[37.843161,49.728888],[37.840806,49.725637],[37.842632,49.724289],[37.863425,49.714336],[37.8521623,49.6965779],[37.8352333,49.694706],[37.800663,49.6932677],[37.802359,49.6860639],[37.8000699,49.6778064],[37.8038923,49.6749017],[37.8271121,49.6701629],[37.853492,49.679302],[37.873876,49.669887],[37.885536,49.659628],[37.889758,49.658469],[37.890805,49.650614],[37.885241,49.6509],[37.879635,49.649599],[37.878999,49.648504],[37.873369,49.648036],[37.873472,49.647149],[37.870055,49.633506],[37.858781,49.62777],[37.847763,49.607847],[37.808735,49.607885],[37.787941,49.607704],[37.789024,49.603152],[37.803024,49.603214],[37.804075,49.594326],[37.790894,49.594665],[37.790625,49.592201],[37.796328,49.590543],[37.79249,49.580292],[37.772164,49.574912],[37.77057,49.572138],[37.761252,49.569586],[37.753832,49.563496],[37.753838,49.56178],[37.760668,49.559201],[37.759603,49.556177],[37.731829,49.557172],[37.715368,49.556361],[37.701752,49.552933],[37.70085,49.544334],[37.696021,49.541136],[37.695323,49.530318],[37.692828,49.526886],[37.696968,49.525332],[37.700764,49.514862],[37.696716,49.508826],[37.695034,49.502686],[37.697626,49.502403],[37.706303,49.507389],[37.713266,49.513489],[37.723574,49.514624],[37.733753,49.510818],[37.728931,49.501997],[37.748326,49.495202],[37.762557,49.503759],[37.773358,49.505625],[37.799165,49.504629],[37.801594,49.493822],[37.791181,49.477356],[37.781039,49.463842],[37.763298,49.461542],[37.760672,49.455344],[37.772684,49.451631],[37.770946,49.449794],[37.753062,49.448436],[37.727264,49.438306],[37.73827,49.427762],[37.761292,49.429046],[37.766612,49.417846],[37.768932,49.405279],[37.815689,49.390963],[37.82396,49.394644],[37.829959,49.401199],[37.846639,49.386656],[37.847139,49.381273],[37.86223,49.380416],[37.875647,49.377602],[37.890612,49.382054],[37.916373,49.382798],[37.916074,49.378557],[37.93251,49.38069],[37.938519,49.379198],[37.949072,49.362706],[37.954308,49.361588],[37.949573,49.353118],[37.947628,49.351399],[37.941921,49.349687],[37.943867,49.346904],[37.941177,49.344568],[37.942329,49.341848],[37.941789,49.338838],[37.950047,49.337701],[37.953435,49.336622],[37.957295,49.334845],[37.962823,49.334169],[37.964944,49.332475],[37.965519,49.330277],[37.966392,49.322245],[37.961857,49.317318],[37.961584,49.311489],[37.969378,49.311145],[37.969614,49.303038],[37.962008,49.303265],[37.967716,49.286555],[37.979567,49.282252],[37.983734,49.28089],[37.98938,49.283586],[37.997847,49.283115],[37.999277,49.28581],[38.002595,49.288282],[38.008788,49.28801],[38.012922,49.285051],[38.006727,49.273896],[38.014016,49.268431],[38.009803,49.261509],[37.997876,49.252128],[37.989852,49.250015],[37.974389,49.24002],[37.967335,49.24046],[37.96147,49.239671],[37.95753,49.23408],[37.935564,49.239305],[37.919478,49.245847],[37.915586,49.242748],[37.91873,49.226813],[37.898306,49.224458],[37.895111,49.226009],[37.887527,49.226464],[37.876396,49.226102],[37.878299,49.221606],[37.884149,49.220472],[37.883474,49.213581],[37.88074,49.208092],[37.892682,49.200398],[37.8839,49.192806],[37.842278,49.1906],[37.839223,49.186051],[37.814419,49.185799],[37.805966,49.180848],[37.794786,49.183885],[37.79455,49.185673],[37.783937,49.188134],[37.780561,49.185225],[37.776544,49.182906],[37.759911,49.185634],[37.755336,49.181574],[37.749046,49.178692],[37.756876,49.176006],[37.766078,49.168439],[37.764481,49.163179],[37.756269,49.155672],[37.74892,49.14743],[37.745681,49.142893],[37.747495,49.137986],[37.7536,49.136166],[37.74635,49.128045],[37.737428,49.122473],[37.7313337,49.1205206],[37.7075211,49.1186571],[37.7024815,49.1165462],[37.7122354,49.1132999],[37.7164959,49.1098833],[37.7166597,49.1063778],[37.7141076,49.1022527],[37.7102995,49.1015666],[37.7111264,49.0989699],[37.7049064,49.0951302],[37.7069264,49.0892393],[37.7140733,49.0890198],[37.7217351,49.0883787],[37.720738,49.0823946],[37.7259205,49.0816947],[37.7318226,49.0888391],[37.7432839,49.0905351],[37.753763,49.080457],[37.7462437,49.0709098],[37.7606369,49.0662002],[37.783585,49.071062],[37.815077,49.084488],[37.824705,49.098272],[37.823518,49.101376],[37.837699,49.106082],[37.860801,49.098761],[37.878769,49.087311],[37.893096,49.089335],[37.894424,49.085961],[37.879434,49.08152],[37.86619,49.074126],[37.866655,49.072194],[37.869523,49.071161],[37.883844,49.077528],[37.900901,49.081013],[37.917712,49.081798],[37.935568,49.073383],[37.955772,49.067824],[37.968105,49.060994],[37.966102,49.048272],[37.95489,49.038881],[37.961283,49.033357],[37.951235,49.024341],[37.940268,49.023416],[37.94156,49.019807],[37.938389,49.019295],[37.940453,49.013688],[37.945692,49.009082],[37.956422,49.009206],[37.967442,49.002176],[37.9806398,48.9899033],[37.9758289,48.986475],[37.9654414,48.9845902],[37.9705477,48.9795412],[37.9683802,48.9765379],[37.9715884,48.972811],[37.9756528,48.9635623],[37.9846667,48.957519],[37.976331,48.951916],[37.98611,48.945366],[38.0051571,48.9461422],[38.0137483,48.9418249],[38.0257721,48.9382004],[38.0393405,48.9398741],[38.0444295,48.9489697],[38.057672,48.947523],[38.056779,48.942489],[38.0645183,48.9422561],[38.063786,48.937182],[38.080396,48.940016],[38.090655,48.94048],[38.094208,48.93876],[38.095529,48.935208],[38.107729,48.933221],[38.110449,48.933291],[38.1159488,48.9312999],[38.1176687,48.9271466],[38.1267853,48.9270103],[38.1301083,48.9260747],[38.132843,48.924137],[38.136904,48.926181],[38.139536,48.931827],[38.142769,48.933357],[38.152507,48.931555],[38.160013,48.931049],[38.1644095,48.9301332],[38.183631,48.929371],[38.195775,48.928016],[38.222726,48.934585],[38.23259,48.940945],[38.23465,48.944666],[38.234227,48.946566],[38.233873,48.95314],[38.237048,48.956521],[38.244862,48.956245],[38.258858,48.969268],[38.241062,49.005535],[38.262698,49.024532],[38.284528,49.026568],[38.299791,49.024992],[38.691727,48.729363]]],[[[38.114411,48.765763],[38.108832,48.765336],[38.092482,48.767893],[38.082247,48.771194],[38.070639,48.77178],[38.069562,48.769335],[38.069968,48.765454],[38.074149,48.76112],[38.068867,48.756066],[38.060568,48.749069],[38.058238,48.748224],[38.053961,48.747843],[38.051358,48.748509],[38.048427,48.747183],[38.042234,48.747044],[38.034627,48.750284],[38.029467,48.750722],[38.028426,48.749363],[38.027522,48.74731],[38.027763,48.745535],[38.026323,48.741013],[38.022599,48.740876],[38.013382,48.739464],[37.998693,48.738288],[37.99097,48.725148],[37.988396,48.716876],[37.979729,48.707306],[37.962794,48.7011],[37.93865,48.702072],[37.934579,48.703062],[37.929521,48.702656],[37.919066,48.697536],[37.912389,48.695675],[37.911874,48.693012],[37.910612,48.69161],[37.910438,48.690366],[37.915522,48.688725],[37.910775,48.684626],[37.911087,48.683402],[37.901281,48.679053],[37.887105,48.678506],[37.883278,48.675242],[37.865103,48.671647],[37.861776,48.669412],[37.855883,48.672342],[37.838295,48.660332],[37.814656,48.6454],[37.817853,48.635957],[37.821488,48.634534],[37.822763,48.629034],[37.816384,48.62371],[37.810094,48.622159],[37.807735,48.61321],[37.783298,48.611646],[37.780687,48.619304],[37.77902,48.619189],[37.779034,48.611865],[37.76508,48.610661],[37.766901,48.602],[37.782024,48.599128],[37.804326,48.59899],[37.813393,48.597669],[37.813675,48.595394],[37.808559,48.593604],[37.808635,48.592126],[37.817543,48.593017],[37.818144,48.590592],[37.821106,48.58816],[37.820656,48.584733],[37.82467,48.581572],[37.832281,48.580757],[37.8344,48.578295],[37.837734,48.578143],[37.837702,48.571583],[37.841239,48.570267],[37.854594,48.568472],[37.853233,48.55549],[37.858394,48.554579],[37.85702,48.547242],[37.864638,48.547155],[37.865217,48.543091],[37.879422,48.537403],[37.889102,48.529644],[37.89824,48.529817],[37.9104604,48.5140228],[37.8819287,48.5138549],[37.8767623,48.5061526],[37.8804919,48.500019],[37.8960647,48.4984343],[37.915023,48.5042482],[37.922846,48.503458],[37.922798,48.501308],[37.913603,48.495616],[37.913785,48.494049],[37.9172254,48.483381],[37.9078339,48.4782895],[37.893644,48.4795881],[37.8654514,48.4880924],[37.8495126,48.4896442],[37.846691,48.486778],[37.83975,48.483001],[37.832435,48.485475],[37.829497,48.48317],[37.830919,48.472528],[37.834365,48.453136],[37.840558,48.445467],[37.8292915,48.4394779],[37.8167109,48.4417518],[37.8083433,48.4408847],[37.8019607,48.4373523],[37.7997566,48.4334497],[37.8097601,48.4239026],[37.8381325,48.4132865],[37.84291,48.4088422],[37.839589,48.404623],[37.836173,48.405427],[37.834493,48.40553],[37.831681,48.40683],[37.829577,48.405898],[37.826654,48.404166],[37.824615,48.404636],[37.824241,48.404834],[37.82225,48.403864],[37.81875,48.40675],[37.818701,48.4072],[37.817208,48.40977],[37.816402,48.409434],[37.817879,48.406967],[37.817309,48.406587],[37.817607,48.404658],[37.816232,48.404007],[37.809966,48.405953],[37.805546,48.402741],[37.807156,48.399451],[37.803282,48.390491],[37.79964,48.390836],[37.800613,48.386654],[37.804819,48.382094],[37.851891,48.364657],[37.870527,48.35431],[37.905496,48.340438],[37.918552,48.346527],[37.923617,48.352797],[37.929296,48.35949],[37.931785,48.360573],[37.934841,48.360987],[37.942023,48.357463],[37.944796,48.35967],[37.942264,48.362251],[37.950083,48.373433],[37.958486,48.377104],[37.970152,48.380317],[37.974959,48.381115],[37.978623,48.391275],[38.00477,48.393954],[38.042123,48.409086],[38.113706,48.408013],[38.117477,48.420805],[38.135244,48.419039],[38.148548,48.414482],[38.163094,48.402117],[38.18906,48.416533],[38.238521,48.386717],[38.273689,48.359192],[38.290706,48.361631],[38.321754,48.371053],[38.343578,48.384437],[38.354228,48.390346],[38.367914,48.402171],[38.390964,48.415874],[38.389247,48.432278],[38.393024,48.436606],[38.405377,48.473366],[38.411566,48.510568],[38.414303,48.520605],[38.402637,48.547867],[38.402637,48.59194],[38.40607,48.60193],[38.438793,48.611028],[38.441253,48.617271],[38.436275,48.629243],[38.426326,48.638696],[38.431476,48.650492],[38.445202,48.655048],[38.464428,48.656408],[38.480228,48.659111],[38.496708,48.663192],[38.515247,48.666367],[38.516148,48.670562],[38.527284,48.674642],[38.539451,48.673509],[38.548978,48.675294],[38.559446,48.686695],[38.572231,48.689056],[38.577732,48.696742],[38.578419,48.70943],[38.583218,48.71987],[38.630135,48.721172],[38.678412,48.723701],[38.674549,48.729363],[38.691727,48.729363],[38.299791,49.024992],[38.284528,49.026568],[38.262698,49.024532],[38.241062,49.005535],[38.258858,48.969268],[38.244862,48.956245],[38.237048,48.956521],[38.233873,48.95314],[38.234227,48.946566],[38.23465,48.944666],[38.23259,48.940945],[38.222726,48.934585],[38.195775,48.928016],[38.183631,48.929371],[38.1644095,48.9301332],[38.1639758,48.9272563],[38.1629346,48.9252927],[38.1640366,48.9231933],[38.1643014,48.920433],[38.1656884,48.9174798],[38.1640715,48.9123347],[38.16035,48.913478],[38.155292,48.913993],[38.154355,48.910729],[38.166464,48.904362],[38.178399,48.900702],[38.174909,48.883318],[38.166521,48.869644],[38.165202,48.861697],[38.176364,48.857596],[38.183518,48.814314],[38.1838001,48.8085839],[38.175348,48.8108963],[38.1660999,48.8097538],[38.1706069,48.8041951],[38.1758537,48.7954672],[38.1684741,48.7900128],[38.1768014,48.7832012],[38.1776629,48.7802664],[38.1751807,48.7799392],[38.1765961,48.7778728],[38.143346,48.7720248],[38.1246895,48.771521],[38.114411,48.765763]]],[[[31.518518,46.312396],[31.523327,46.3019],[31.54049,46.282745],[31.562127,46.266905],[31.590959,46.251238],[31.637322,46.234212],[31.673753,46.227354],[31.70108,46.221792],[31.860308,46.195154],[31.904302,46.188215],[31.966135,46.180063],[31.986536,46.178304],[32.022212,46.174043],[32.07982,46.165498],[32.08271,46.166345],[32.082855,46.16737],[32.077824,46.166905],[32.067755,46.168159],[32.059059,46.170244],[32.053882,46.17053],[32.05025,46.1726],[32.046073,46.172892],[32.040981,46.172443],[32.040351,46.173599],[32.032856,46.175489],[32.007135,46.176861],[31.974889,46.180603],[31.914504,46.188302],[31.849782,46.19973],[31.768221,46.212319],[31.711017,46.222028],[31.697744,46.223741],[31.677116,46.229168],[31.664569,46.230217],[31.655626,46.232572],[31.651727,46.235745],[31.655932,46.239308],[31.663227,46.241802],[31.674235,46.245022],[31.67975,46.244443],[31.680824,46.248864],[31.671382,46.249933],[31.64589,46.244773],[31.62778,46.245188],[31.609842,46.246668],[31.592767,46.25302],[31.576891,46.260557],[31.56367,46.268092],[31.552335,46.278237],[31.541864,46.2901],[31.535857,46.305635],[31.532852,46.319332],[31.536371,46.33729],[31.53577,46.347421],[31.536029,46.356367],[31.534548,46.361535],[31.535128,46.367947],[31.532692,46.369628],[31.527681,46.369473],[31.521523,46.366971],[31.516114,46.360752],[31.511479,46.349257],[31.513711,46.330179],[31.514742,46.321287],[31.518518,46.312396]]],[[[36.400835,50.30717],[36.373927,50.30029],[36.378047,50.293766],[36.389385,50.27628],[36.405358,50.261131],[36.415918,50.259725],[36.418364,50.256871],[36.423299,50.25399],[36.443985,50.248337],[36.448247,50.253593],[36.466356,50.251404],[36.481032,50.241639],[36.485493,50.242206],[36.505396,50.238677],[36.532801,50.242425],[36.569199,50.24454],[36.559931,50.250796],[36.56865,50.257768],[36.574008,50.255268],[36.577894,50.258635],[36.575109,50.260672],[36.580365,50.262584],[36.573943,50.275045],[36.592604,50.275718],[36.592663,50.278079],[36.589552,50.279346],[36.588033,50.281698],[36.588574,50.283269],[36.585614,50.285885],[36.582933,50.286282],[36.571219,50.285748],[36.560789,50.284236],[36.556128,50.281366],[36.523917,50.286424],[36.522815,50.289145],[36.525136,50.290731],[36.525286,50.29206],[36.526091,50.29249],[36.526607,50.293474],[36.516363,50.295165],[36.515658,50.295914],[36.512759,50.295767],[36.511151,50.295369],[36.500702,50.299248],[36.492712,50.30452],[36.489689,50.307838],[36.489951,50.309924],[36.487653,50.311665],[36.472289,50.313161],[36.440317,50.31098],[36.433698,50.330681],[36.425543,50.32827],[36.409299,50.312446],[36.400835,50.30717]]],[[[36.760703,50.289948],[36.75466,50.290517],[36.747943,50.288235],[36.748032,50.287217],[36.750267,50.286309],[36.750696,50.283002],[36.749837,50.2809],[36.748778,50.280207],[36.744987,50.280684],[36.744887,50.281818],[36.742326,50.281619],[36.739936,50.282955],[36.728862,50.27733],[36.720128,50.277444],[36.727123,50.267794],[36.739773,50.265659],[36.755456,50.260293],[36.772227,50.255269],[36.789252,50.2458],[36.808508,50.248072],[36.821833,50.249554],[36.823421,50.249979],[36.829558,50.254164],[36.833142,50.256469],[36.837605,50.258828],[36.837776,50.261353],[36.8443,50.264233],[36.854299,50.266332],[36.8860772,50.2779083],[36.8860989,50.2797326],[36.898287,50.289932],[36.907771,50.291303],[36.912578,50.288561],[36.916676,50.2862435],[36.9215793,50.2823018],[36.92549,50.2822503],[36.9285428,50.2882317],[36.9352155,50.2895477],[36.93528,50.292317],[36.936589,50.292673],[36.934465,50.297814],[36.946095,50.299938],[36.945322,50.302495],[36.948842,50.30379],[36.953948,50.3012],[36.95764,50.304513],[36.973993,50.306923],[36.978668,50.309649],[36.98712,50.308099],[36.991581,50.308083],[37.002137,50.312891],[37.009701,50.30935],[37.01241,50.309854],[37.016751,50.314196],[37.022439,50.3192],[37.038597,50.320203],[37.043667,50.317522],[37.053025,50.319278],[37.053801,50.322568],[37.04059,50.32723],[37.038706,50.33107],[37.031315,50.33909],[37.032995,50.348824],[36.957421,50.34918],[36.937645,50.350224],[36.915294,50.346287],[36.882156,50.336552],[36.872241,50.335704],[36.862628,50.331786],[36.851943,50.327594],[36.833358,50.313138],[36.828485,50.31283],[36.820803,50.313566],[36.803938,50.309832],[36.800333,50.306023],[36.768364,50.30188],[36.764275,50.291966],[36.760703,50.289948]]],[[[36.594232,50.232573],[36.586776,50.23514],[36.584642,50.230021],[36.587388,50.227714],[36.590564,50.227536],[36.59522,50.229856],[36.598847,50.229815],[36.594232,50.232573]]],[[[37.856208,48.192846],[37.88333,48.199712],[37.896571,48.215429],[37.892943,48.233569],[37.89157,48.255061],[37.895347,48.268546],[37.89434,48.286666],[37.901147,48.290882],[37.900682,48.323255],[37.905496,48.340438],[37.870527,48.35431],[37.851891,48.364657],[37.804819,48.382094],[37.800613,48.386654],[37.782171,48.386372],[37.76963,48.3918129],[37.7635106,48.398177],[37.7627526,48.4054359],[37.759763,48.4146333],[37.7455262,48.4133468],[37.7455865,48.4121709],[37.7365062,48.4111373],[37.7385165,48.3988714],[37.7255447,48.3972447],[37.7050936,48.3964082],[37.6866201,48.3975801],[37.6863444,48.4029974],[37.675497,48.403831],[37.675375,48.41925],[37.668871,48.419294],[37.665126,48.42544],[37.660796,48.427283],[37.650826,48.423929],[37.620842,48.423717],[37.61323,48.432405],[37.600011,48.429838],[37.598337,48.432091],[37.59147,48.431472],[37.577564,48.442639],[37.516756,48.435284],[37.4917416,48.4341747],[37.4740549,48.4590094],[37.4629013,48.4646189],[37.4522652,48.4729905],[37.4348524,48.4744189],[37.4320513,48.456108],[37.429519,48.453964],[37.4288679,48.4433308],[37.4117106,48.4410411],[37.4130161,48.4368029],[37.4026172,48.4352238],[37.3960251,48.4347259],[37.3892614,48.4345693],[37.3849014,48.4143787],[37.3689339,48.4124769],[37.34733,48.4199559],[37.3331435,48.4236649],[37.322046,48.423771],[37.314775,48.425291],[37.300604,48.419252],[37.2964719,48.421469],[37.2942059,48.4215224],[37.294651,48.4197761],[37.2872856,48.4204791],[37.2763202,48.4236188],[37.2729298,48.4280187],[37.2687454,48.4277125],[37.2688662,48.4249545],[37.2667554,48.4245887],[37.2641979,48.4261289],[37.2594946,48.4259033],[37.2569547,48.4240849],[37.2576171,48.4213814],[37.2626732,48.4215398],[37.2633896,48.4187685],[37.2598146,48.4182757],[37.2550063,48.4162741],[37.2513579,48.4172671],[37.2405,48.4183617],[37.238805,48.4192222],[37.2381702,48.4180692],[37.2402061,48.4166708],[37.2407613,48.4154006],[37.2355242,48.4121306],[37.247883,48.4094702],[37.2569365,48.4101263],[37.2704531,48.407934],[37.2712967,48.4032994],[37.2685364,48.397981],[37.269727,48.3896019],[37.287219,48.3874842],[37.2989311,48.3843394],[37.3006818,48.3808408],[37.2814391,48.3772143],[37.2648453,48.3693369],[37.262915,48.362609],[37.252675,48.360217],[37.252276,48.353518],[37.257866,48.348645],[37.267054,48.349283],[37.276767,48.352749],[37.293906,48.348702],[37.3100714,48.3434829],[37.3141203,48.3460643],[37.305466,48.350243],[37.309143,48.364003],[37.323857,48.363924],[37.324664,48.351755],[37.329786,48.349616],[37.341267,48.339246],[37.3436234,48.3331012],[37.3301789,48.3311799],[37.3348724,48.3252547],[37.3469467,48.3277749],[37.352501,48.321364],[37.386828,48.304999],[37.386931,48.295568],[37.3711034,48.2976476],[37.3389858,48.2951469],[37.3319028,48.2929648],[37.333597,48.2911315],[37.3423293,48.2932953],[37.3648989,48.2950969],[37.3684086,48.2904191],[37.372197,48.287936],[37.3681638,48.2827709],[37.3593732,48.2788295],[37.346807,48.2738026],[37.3457256,48.271723],[37.347047,48.258479],[37.340404,48.253876],[37.336049,48.257305],[37.331521,48.25759],[37.329933,48.253247],[37.32511,48.252745],[37.322913,48.254352],[37.317258,48.253964],[37.317392,48.25247],[37.315344,48.250296],[37.316386,48.24675],[37.312032,48.245318],[37.313355,48.23635],[37.308294,48.234945],[37.309199,48.231683],[37.308284,48.230975],[37.306123,48.232211],[37.304911,48.231363],[37.306317,48.230057],[37.302665,48.223928],[37.285704,48.220692],[37.286599,48.21684],[37.277615,48.216354],[37.267687,48.219871],[37.261307,48.22073],[37.259477,48.215929],[37.250846,48.211522],[37.236386,48.213725],[37.231607,48.210969],[37.222108,48.210387],[37.217786,48.214998],[37.217426,48.216406],[37.219791,48.216692],[37.219801,48.217449],[37.21731,48.21732],[37.216597,48.21676],[37.216937,48.214898],[37.211254,48.213927],[37.207526,48.216379],[37.196031,48.216773],[37.18636,48.217739],[37.1859,48.225242],[37.198553,48.22706],[37.197865,48.22921],[37.183829,48.228557],[37.181336,48.23131],[37.175498,48.228885],[37.174209,48.23172],[37.169226,48.233732],[37.169291,48.235408],[37.161204,48.23697],[37.15211,48.237263],[37.14543,48.236852],[37.1355502,48.2443094],[37.1352562,48.2473538],[37.143796,48.2506731],[37.1721065,48.249759],[37.1757938,48.2523451],[37.1770367,48.2558669],[37.1774865,48.2615135],[37.1717031,48.2621651],[37.1727006,48.2552741],[37.1581886,48.2559886],[37.1490637,48.259075],[37.1459201,48.2568476],[37.1372832,48.2577345],[37.1287691,48.2521773],[37.1198405,48.2556471],[37.1134442,48.2550595],[37.099658,48.2564806],[37.0871268,48.2600806],[37.078463,48.26085],[37.07261,48.264997],[37.05763,48.263759],[37.0503241,48.2616321],[37.0511652,48.2551443],[37.046086,48.252084],[37.046332,48.249762],[37.040486,48.246641],[37.03835,48.244378],[37.029007,48.242907],[37.018077,48.241751],[37.017581,48.242844],[37.0131971,48.2451659],[36.9922591,48.2461037],[36.980041,48.2432037],[36.9798515,48.2412536],[36.9741186,48.2407458],[36.9739116,48.2378738],[36.967008,48.237403],[36.96024,48.227655],[36.960689,48.218997],[36.951069,48.202482],[36.952057,48.194972],[36.941715,48.188125],[36.93585,48.18601],[36.915983,48.166689],[36.907008,48.164655],[36.906103,48.143382],[36.90663,48.139399],[36.904532,48.134801],[36.912218,48.129688],[36.915912,48.113831],[36.903059,48.113533],[36.90497,48.103836],[36.914122,48.102286],[36.912075,48.100645],[36.9119121,48.0922911],[36.9015349,48.0905887],[36.9017421,48.0658789],[36.8931487,48.0593644],[36.8855878,48.0495221],[36.8764813,48.0475693],[36.8658308,48.0531316],[36.8582776,48.0541645],[36.8531278,48.0524431],[36.8551891,48.0453032],[36.8603413,48.0416036],[36.87622,48.039136],[36.929174,48.018008],[37.011852,48.005883],[37.071043,48.006485],[37.094593,48.011965],[37.13538,48.025524],[37.247009,48.026722],[37.521854,47.94582],[37.525158,47.957202],[37.541201,47.974587],[37.544791,47.977423],[37.549941,47.979664],[37.558546,47.986451],[37.549621,47.997364],[37.556143,48.009855],[37.573394,48.006899],[37.575455,48.013961],[37.588566,48.016021],[37.616482,48.018095],[37.622662,48.019444],[37.64781,48.028944],[37.68785,48.054754],[37.691199,48.053406],[37.694294,48.056545],[37.687749,48.061894],[37.693049,48.069307],[37.699702,48.072204],[37.725794,48.073324],[37.726651,48.079582],[37.743087,48.086825],[37.756436,48.08667],[37.773053,48.092032],[37.789283,48.100177],[37.792021,48.104528],[37.8002,48.114966],[37.803832,48.117289],[37.808937,48.122079],[37.816804,48.132292],[37.819855,48.143897],[37.824622,48.157818],[37.828593,48.17515],[37.856208,48.192846]]],[[[35.162895,51.109577],[35.154484,51.110223],[35.150535,51.106397],[35.154655,51.103002],[35.156458,51.103756],[35.164354,51.100738],[35.164097,51.10505],[35.166672,51.10575],[35.163753,51.107367],[35.162895,51.109577]]],[[[37.639132,50.178726],[37.626257,50.176417],[37.62763,50.167402],[37.615614,50.165312],[37.604885,50.159264],[37.597847,50.148155],[37.589951,50.14656],[37.595272,50.139574],[37.617846,50.137814],[37.626944,50.137374],[37.631064,50.132422],[37.626257,50.130442],[37.626257,50.12593],[37.63072,50.124609],[37.637329,50.123399],[37.637673,50.120317],[37.645483,50.11674],[37.656813,50.116574],[37.663508,50.115584],[37.665568,50.113162],[37.677069,50.113602],[37.6964664,50.1019323],[37.7257272,50.0869773],[37.7363302,50.0761739],[37.755685,50.078479],[37.7440646,50.0937019],[37.7337023,50.1028541],[37.7262557,50.1067205],[37.713289,50.121528],[37.707625,50.127691],[37.708826,50.133963],[37.700758,50.134183],[37.694407,50.140345],[37.684794,50.145955],[37.668829,50.152665],[37.657328,50.164323],[37.647028,50.174548],[37.643423,50.174328],[37.639132,50.178726]]],[[[36.5076922,47.9048152],[36.5041133,47.9120215],[36.5018947,47.9112517],[36.5030236,47.9005863],[36.4972278,47.9005487],[36.4941053,47.9094],[36.4914974,47.9087003],[36.4855954,47.9173108],[36.4815571,47.91689],[36.4830999,47.9012321],[36.4807824,47.9012321],[36.467472,47.9154735],[36.4644602,47.9123879],[36.4666142,47.8957246],[36.4601092,47.8951175],[36.4555501,47.8845611],[36.4505601,47.8869194],[36.4477894,47.8866857],[36.4322449,47.8788399],[36.4226556,47.8796235],[36.3895488,47.8799467],[36.387041,47.8729592],[36.3893386,47.8649334],[36.3692644,47.8640395],[36.338541,47.8774195],[36.3340864,47.8756211],[36.3694732,47.8552154],[36.371132,47.8436957],[36.3508467,47.8393759],[36.3518622,47.8374469],[36.3741632,47.8370147],[36.4176445,47.8464596],[36.4118851,47.834114],[36.4132222,47.8286288],[36.4234609,47.829361],[36.4334402,47.8266922],[36.4436203,47.8246984],[36.4449844,47.8156345],[36.4501666,47.8140627],[36.4509239,47.8073075],[36.4408056,47.807235],[36.4314902,47.8110319],[36.4219094,47.8173703],[36.4143872,47.8185207],[36.4168231,47.8106221],[36.4276685,47.8036453],[36.4351317,47.7904851],[36.4215503,47.7840167],[36.4314964,47.7780717],[36.4364645,47.7785282],[36.4396786,47.7759293],[36.4379144,47.7745994],[36.4443035,47.7726062],[36.4505208,47.7745929],[36.4531705,47.7726542],[36.4515285,47.7704847],[36.4594914,47.7633076],[36.4558652,47.7597646],[36.4562639,47.7540925],[36.4597083,47.7507529],[36.4608923,47.7482681],[36.4610334,47.7424374],[36.4496884,47.7398393],[36.4429863,47.7351926],[36.4433599,47.7339009],[36.4476817,47.7334174],[36.4479051,47.7321401],[36.4538787,47.7216533],[36.4616192,47.722188],[36.4645024,47.7124531],[36.4597432,47.7031115],[36.4606317,47.6925706],[36.4471735,47.6868177],[36.4500974,47.6746503],[36.4439457,47.6615456],[36.448273,47.6489681],[36.417049,47.63785],[36.403082,47.643679],[36.39142,47.641648],[36.386104,47.641154],[36.385252,47.640369],[36.386071,47.636121],[36.376723,47.635141],[36.372782,47.632743],[36.373645,47.629057],[36.367813,47.628263],[36.362513,47.631886],[36.349994,47.64079],[36.342619,47.637722],[36.346058,47.633036],[36.340819,47.626658],[36.338205,47.618398],[36.310331,47.605718],[36.270766,47.595041],[36.222591,47.587522],[36.224363,47.578084],[36.215387,47.577164],[36.213363,47.576649],[36.210516,47.577125],[36.204652,47.58213],[36.186966,47.580843],[36.133198,47.575124],[36.128116,47.574827],[36.116706,47.57794],[36.105724,47.578503],[36.087362,47.573854],[36.08291,47.551831],[36.073734,47.532932],[36.067136,47.526256],[36.031684,47.526124],[36.03001,47.522289],[36.020784,47.515904],[36.018983,47.511316],[35.99517,47.512605],[35.9755,47.51024],[35.971276,47.510066],[35.960504,47.513776],[35.949274,47.514615],[35.940888,47.511993],[35.941642,47.493887],[35.932591,47.493496],[35.924055,47.494728],[35.921493,47.475232],[35.911615,47.468917],[35.896111,47.46596],[35.895732,47.463472],[35.887118,47.462917],[35.855421,47.46178],[35.849034,47.459394],[35.846408,47.455432],[35.819438,47.458363],[35.801941,47.458572],[35.802804,47.468193],[35.799375,47.473519],[35.790682,47.480885],[35.782257,47.485668],[35.745142,47.486822],[35.746391,47.489885],[35.731603,47.490714],[35.71853,47.494788],[35.711504,47.505541],[35.699524,47.506848],[35.687063,47.509761],[35.670484,47.502209],[35.654663,47.500962],[35.634628,47.500488],[35.632903,47.502978],[35.640841,47.507493],[35.636935,47.510964],[35.623629,47.505846],[35.621182,47.507665],[35.616503,47.506237],[35.616157,47.504308],[35.613134,47.504301],[35.592551,47.519323],[35.590302,47.528366],[35.571915,47.538567],[35.5549371,47.5445062],[35.5372545,47.5436815],[35.5361804,47.5462177],[35.509647,47.544231],[35.50827,47.546912],[35.504748,47.546631],[35.504532,47.544173],[35.494554,47.544102],[35.493777,47.545417],[35.488364,47.547775],[35.486299,47.547351],[35.48561,47.544909],[35.47711,47.543683],[35.460844,47.540686],[35.449143,47.542409],[35.431521,47.537583],[35.419282,47.535041],[35.402973,47.537641],[35.397308,47.540278],[35.397757,47.546647],[35.400989,47.55864],[35.38895,47.558321],[35.378542,47.554642],[35.376159,47.557772],[35.3752382,47.5681638],[35.3626279,47.5676964],[35.3449054,47.5722469],[35.3366449,47.5698028],[35.3246898,47.5692112],[35.3279538,47.5639106],[35.331903,47.547142],[35.337152,47.530162],[35.334722,47.525284],[35.326426,47.516816],[35.313504,47.512683],[35.299381,47.510983],[35.280896,47.503398],[35.273654,47.493721],[35.280796,47.472193],[35.264423,47.473907],[35.202642,47.445003],[35.148662,47.445686],[35.102228,47.451038],[35.062432,47.448694],[35.046158,47.437757],[35.02882,47.418144],[34.968692,47.389233],[34.935443,47.391632],[34.883713,47.406118],[34.863371,47.420884],[34.874741,47.437558],[34.874183,47.449528],[34.859923,47.451254],[34.825201,47.464803],[34.792304,47.467747],[34.749153,47.492601],[34.708981,47.490582],[34.689413,47.494893],[34.680198,47.510731],[34.642071,47.544419],[34.628377,47.54583],[34.618034,47.544491],[34.599039,47.53467],[34.586248,47.521809],[34.544529,47.532707],[34.533137,47.530459],[34.500622,47.499673],[34.435839,47.496913],[34.405218,47.500758],[34.386948,47.513875],[34.374131,47.507196],[34.338371,47.467761],[34.334911,47.447001],[34.296102,47.428688],[34.269679,47.439549],[34.199289,47.412104],[34.145724,47.424467],[34.118345,47.420566],[34.064873,47.424317],[34.046677,47.417654],[34.042234,47.410429],[33.982732,47.230662],[33.96786,47.211277],[33.944844,47.197252],[33.929814,47.177216],[33.903126,47.159977],[33.849951,47.137794],[33.840787,47.098524],[33.802317,47.059017],[33.697668,46.995131],[33.69561,46.95542],[33.688159,46.920449],[33.678446,46.900926],[33.656816,46.904678],[33.633822,46.899514],[33.634028,46.866257],[33.63746,46.847176],[33.620298,46.829034],[33.563472,46.818209],[33.470266,46.820961],[33.402938,46.773597],[33.38953,46.782727],[33.377184,46.776306],[33.373373,46.776487],[33.37247,46.776123],[33.371408,46.777142],[33.37056,46.776837],[33.371611,46.775729],[33.357445,46.767035],[33.358896,46.764016],[33.340157,46.757042],[33.313396,46.751477],[33.286306,46.749398],[33.254381,46.752574],[33.239884,46.76354],[33.19787,46.767502],[33.153349,46.762795],[33.141455,46.759367],[33.140191,46.756687],[33.137166,46.755756],[33.132062,46.755128],[33.104047,46.747501],[33.090411,46.743645],[33.081979,46.73801],[33.073312,46.7384],[33.06219,46.732265],[33.054173,46.731432],[33.048438,46.737604],[33.044173,46.738481],[33.043353,46.737227],[33.04052,46.729226],[33.024894,46.724573],[33.01958,46.717745],[32.991091,46.714538],[32.979847,46.710469],[32.954231,46.711542],[32.942776,46.713303],[32.933393,46.717207],[32.928559,46.718374],[32.923355,46.718326],[32.905306,46.711285],[32.891767,46.698237],[32.891023,46.693202],[32.885731,46.68905],[32.879959,46.686474],[32.875045,46.686842],[32.87011,46.682514],[32.845933,46.663276],[32.833632,46.65495],[32.817026,46.645891],[32.803575,46.64089],[32.79871,46.632116],[32.784392,46.628019],[32.767524,46.635578],[32.751121,46.630308],[32.719988,46.631762],[32.684459,46.621245],[32.678738,46.614152],[32.689077,46.606416],[32.691777,46.601258],[32.666501,46.582534],[32.582333,46.555126],[32.553804,46.541271],[32.537546,46.538063],[32.531855,46.536868],[32.520688,46.540356],[32.514585,46.54101],[32.50899,46.540014],[32.505695,46.537963],[32.500265,46.533445],[32.489129,46.527383],[32.464782,46.50806],[32.457067,46.503811],[32.448322,46.502869],[32.437721,46.503362],[32.432689,46.494759],[32.431676,46.489187],[32.428259,46.485388],[32.417841,46.485038],[32.417638,46.479462],[32.401301,46.471994],[32.34392,46.462486],[32.302096,46.467799],[32.256442,46.477196],[32.236933,46.480278],[32.208497,46.478155],[32.164698,46.489533],[32.126377,46.498662],[32.078878,46.499234],[32.046395,46.488939],[31.999388,46.488028],[31.910906,46.511556],[31.90491,46.517962],[31.898754,46.518606],[31.881562,46.518298],[31.864914,46.517622],[31.807071,46.529464],[31.756921,46.547955],[31.697651,46.545034],[31.662856,46.536405],[31.631498,46.540518],[31.581672,46.537248],[31.554083,46.545465],[31.530518,46.557632],[31.513416,46.580829],[31.511296,46.57669],[31.52162,46.561607],[31.54695,46.538732],[31.614245,46.501946],[31.65675,46.468916],[31.6943,46.440337],[31.724946,46.414472],[31.74521,46.386432],[31.773838,46.371159],[31.776887,46.37412],[31.737666,46.426222],[31.720264,46.433355],[31.706976,46.445455],[31.697124,46.447264],[31.696917,46.457512],[31.704264,46.466577],[31.716453,46.478678],[31.742039,46.485338],[31.770904,46.484579],[31.797018,46.478139],[31.892118,46.456829],[31.952823,46.437483],[31.974844,46.439231],[32.002243,46.453458],[32.029038,46.437569],[32.035568,46.416592],[32.009049,46.364143],[31.969769,46.348389],[31.868275,46.334384],[31.823448,46.337131],[31.772538,46.327173],[31.745589,46.30605],[31.747738,46.298168],[31.758091,46.294869],[31.768016,46.296545],[31.774506,46.293952],[31.771212,46.288867],[31.775544,46.28549],[31.77511,46.282294],[31.782128,46.276867],[31.783287,46.272539],[31.777196,46.268157],[31.779602,46.264496],[31.784407,46.265113],[31.784514,46.268892],[31.791702,46.273917],[31.809724,46.272123],[31.814358,46.269477],[31.813241,46.264773],[31.818304,46.26434],[31.834694,46.266167],[31.833142,46.269821],[31.835191,46.272857],[31.847697,46.267951],[31.850738,46.268283],[31.86122,46.272172],[31.870831,46.265803],[31.874001,46.265286],[31.883288,46.273445],[31.895066,46.280773],[31.904488,46.297468],[31.936819,46.292171],[31.943742,46.285588],[31.955596,46.265925],[31.969511,46.257237],[32.028542,46.245625],[32.051416,46.249814],[32.077751,46.238949],[32.087826,46.22149],[32.12115,46.204421],[32.165963,46.196922],[32.187022,46.175695],[32.20613,46.172209],[32.208103,46.186828],[32.221809,46.187739],[32.239877,46.178544],[32.227939,46.168376],[32.238387,46.149805],[32.226041,46.131886],[32.389221,46.094552],[32.546537,46.065294],[32.574897,46.063727],[32.637881,46.053703],[32.739615,46.033613],[32.912066,46.010401],[32.968043,46.012572],[33.036377,46.008034],[33.070055,46.014197],[33.049658,46.027752],[33.017451,46.025675],[32.972882,46.030736],[32.941407,46.046089],[32.936279,46.039686],[32.926517,46.031197],[32.908036,46.026622],[32.878574,46.025916],[32.795279,46.03031],[32.719364,46.039073],[32.620055,46.0604],[32.55212,46.068282],[32.541847,46.068187],[32.539628,46.073498],[32.544276,46.080477],[32.596141,46.095849],[32.646659,46.107865],[32.67705,46.099817],[32.703745,46.106234],[32.732848,46.109787],[32.758447,46.119028],[32.828978,46.111371],[32.863717,46.115723],[32.913276,46.106793],[33.029605,46.113243],[33.031475,46.149726],[33.062645,46.155591],[33.101575,46.131873],[33.14047,46.127642],[33.181455,46.147562],[33.195306,46.170137],[33.222893,46.157038],[33.208021,46.127029],[33.256658,46.138651],[33.284009,46.12504],[33.308611,46.114316],[33.302996,46.093595],[33.278039,46.094525],[33.288547,46.074961],[33.318234,46.076303],[33.318315,46.099114],[33.349946,46.093137],[33.366461,46.07525],[33.407575,46.040962],[33.437087,46.040165],[33.460422,46.046034],[33.491141,46.03224],[33.51018,46.028452],[33.493142,46.052719],[33.496699,46.070314],[33.515116,46.08243],[33.561688,46.074055],[33.513984,46.107515],[33.545372,46.12331],[33.580572,46.157178],[33.60668,46.146878],[33.6897,46.204334],[33.714554,46.196894],[33.740532,46.185128],[33.82395,46.187069],[34.038334,46.116935],[34.122582,46.108122],[34.160772,46.08043],[34.227754,46.060816],[34.382464,46.034692],[34.436726,45.968164],[34.478552,45.946947],[34.556042,45.988691],[34.651415,45.973908],[34.700883,45.959179],[34.752716,45.910231],[34.782879,45.904975],[34.796134,45.892053],[34.800881,45.804735],[34.958219,45.760037],[34.977053,45.765285],[34.895963,45.89884],[34.852473,46.009247],[34.83464,46.115559],[34.833782,46.200162],[34.903003,46.236419],[35.024814,46.256333],[35.079862,46.276666],[35.11777,46.314272],[35.138002,46.348282],[35.178357,46.362948],[35.193173,46.370951],[35.218273,46.430405],[35.211759,46.447041],[35.246448,46.446405],[35.268036,46.432201],[35.254946,46.404982],[35.266102,46.355554],[35.289804,46.356581],[35.307895,46.348318],[35.31792,46.337862],[35.331193,46.331158],[35.317442,46.317067],[35.300092,46.314492],[35.294302,46.306424],[35.298987,46.299007],[35.253203,46.248701],[35.209023,46.190401],[35.136833,46.162033],[35.029347,46.145017],[35.030825,46.127364],[34.991294,46.104591],[34.978187,46.076659],[35.066419,46.099387],[35.133606,46.119545],[35.18863,46.151465],[35.265869,46.250892],[35.360236,46.354693],[35.457829,46.441261],[35.565718,46.47543],[35.624266,46.504336],[35.723987,46.586842],[35.873938,46.645662],[35.993615,46.666059],[36.11469,46.656638],[36.189885,46.66706],[36.229044,46.650535],[36.259896,46.61865],[36.19085,46.534705],[36.166514,46.527707],[36.155067,46.527954],[36.143142,46.503306],[36.171704,46.498177],[36.2328,46.555902],[36.332203,46.677034],[36.414958,46.726012],[36.536636,46.758576],[36.711062,46.781413],[36.7761,46.754256],[36.810878,46.730372],[36.818292,46.70213],[36.787614,46.66415],[36.749226,46.643047],[36.750355,46.631181],[36.769768,46.63222],[36.804988,46.659181],[36.838054,46.70579],[36.86852,46.76572],[36.897491,46.810934],[37.006126,46.869295],[37.036174,46.870651],[37.23816,46.951031],[37.282845,46.937346],[37.316173,46.914271],[37.324006,46.891819],[37.297854,46.872763],[37.284176,46.872546],[37.285569,46.866901],[37.308923,46.870123],[37.341892,46.895048],[37.478068,47.03143],[37.528548,47.077529],[37.574156,47.085359],[37.620463,47.086602],[37.627378,47.09413],[37.675812,47.077916],[37.684033,47.076706],[37.685886,47.080525],[37.71388,47.079862],[37.774395,47.087579],[37.794085,47.083807],[37.821989,47.09092],[37.83831,47.099704],[37.829283,47.112742],[37.818054,47.119099],[37.800544,47.173272],[37.811187,47.201271],[37.833503,47.249301],[37.833846,47.285412],[37.827666,47.302643],[37.834876,47.30823],[37.831786,47.314981],[37.824577,47.321498],[37.827323,47.328479],[37.829283,47.342507],[37.844489,47.341974],[37.856849,47.343603],[37.861212,47.347858],[37.859152,47.354371],[37.848609,47.350116],[37.837623,47.352442],[37.841743,47.358489],[37.851599,47.365534],[37.841643,47.369022],[37.83831,47.378022],[37.850326,47.384298],[37.856849,47.392898],[37.855819,47.403124],[37.863715,47.426588],[37.878478,47.441684],[37.892555,47.469773],[37.819427,47.546303],[37.815994,47.585221],[37.84586,47.623762],[37.852385,47.641694],[37.831275,47.656729],[37.803977,47.660196],[37.775529,47.675427],[37.764495,47.684702],[37.67268,47.724717],[37.637589,47.751994],[37.623169,47.77311],[37.634549,47.802538],[37.634262,47.838423],[37.644034,47.886626],[37.575907,47.907733],[37.5686,47.907768],[37.53503,47.918015],[37.542839,47.932477],[37.521854,47.94582],[37.247009,48.026722],[37.13538,48.025524],[37.094593,48.011965],[37.071043,48.006485],[37.011852,48.005883],[36.929174,48.018008],[36.87622,48.039136],[36.8603413,48.0416036],[36.856099,48.039367],[36.8527347,48.0349506],[36.844229,48.039084],[36.8395,48.037995],[36.8366797,48.0359728],[36.8335285,48.0356107],[36.8303773,48.0363964],[36.8268215,48.0359589],[36.82398,48.038471],[36.819321,48.040215],[36.812257,48.040638],[36.807673,48.046728],[36.804178,48.047593],[36.80389,48.051239],[36.800512,48.0519],[36.794859,48.048632],[36.785258,48.049724],[36.784595,48.0464],[36.774001,48.047094],[36.773643,48.049058],[36.767474,48.052285],[36.76491,48.055512],[36.762001,48.055927],[36.76029,48.052979],[36.758063,48.052556],[36.751839,48.049054],[36.744332,48.049896],[36.74281,48.053817],[36.743862,48.059229],[36.74876,48.060456],[36.748255,48.062908],[36.740598,48.068507],[36.7276184,48.0722722],[36.7281498,48.0780783],[36.7448182,48.0772316],[36.7457506,48.0790139],[36.7360395,48.0813694],[36.7355,48.0837867],[36.7313983,48.083853],[36.7297856,48.0847219],[36.7289995,48.0865924],[36.7226202,48.086434],[36.719511,48.08454],[36.715523,48.084652],[36.712697,48.080289],[36.707387,48.080506],[36.706381,48.082317],[36.698874,48.082727],[36.6840262,48.0884158],[36.669607,48.0947914],[36.664587,48.0927965],[36.6481504,48.0932671],[36.6437758,48.0930851],[36.6429232,48.0896823],[36.6459476,48.0848434],[36.6549376,48.0777294],[36.6544,48.070613],[36.652959,48.067573],[36.648016,48.066482],[36.652036,48.058276],[36.664206,48.059482],[36.666686,48.050637],[36.677882,48.051264],[36.679221,48.050187],[36.678329,48.048766],[36.684818,48.04726],[36.685712,48.03938],[36.691428,48.038715],[36.689565,48.031898],[36.683484,48.032162],[36.683926,48.036444],[36.673387,48.036837],[36.674485,48.026701],[36.670998,48.02553],[36.671593,48.024299],[36.681294,48.021995],[36.682051,48.012119],[36.680455,48.007166],[36.663017,48.005044],[36.639364,47.999044],[36.63974,47.997067],[36.659513,47.999455],[36.660988,47.994096],[36.66428,47.99406],[36.666572,47.987097],[36.660032,47.985974],[36.644644,47.984832],[36.630416,47.981248],[36.630823,47.979997],[36.63507,47.980337],[36.638286,47.971599],[36.643816,47.970748],[36.646786,47.964472],[36.6471236,47.9604942],[36.62885,47.957946],[36.630145,47.950712],[36.614981,47.951683],[36.56849,47.959585],[36.5514635,47.9615484],[36.5488543,47.9708675],[36.5466398,47.9707705],[36.5422988,47.962875],[36.5339135,47.957856],[36.5293991,47.9523144],[36.5325705,47.9490405],[36.5377609,47.9478345],[36.5429518,47.9533544],[36.550708,47.954003],[36.5919356,47.9500012],[36.5914945,47.9440551],[36.5890046,47.9421162],[36.579519,47.941816],[36.573339,47.946476],[36.561321,47.947226],[36.550333,47.940962],[36.544887,47.937224],[36.5347286,47.9375256],[36.5350569,47.9343413],[36.542938,47.932307],[36.544421,47.927275],[36.552414,47.927276],[36.5528843,47.9235263],[36.5493359,47.9198802],[36.5348828,47.9186295],[36.5187587,47.9051187],[36.5076922,47.9048152]]],[[[37.2910702,48.4415609],[37.2976297,48.4438232],[37.2978195,48.445182],[37.31,48.4461868],[37.3098135,48.4450511],[37.3090335,48.4436577],[37.3103602,48.4425909],[37.3118389,48.4428261],[37.3118916,48.4438262],[37.3130338,48.444184],[37.3128885,48.4461074],[37.3153628,48.4462385],[37.3299037,48.4496346],[37.3291793,48.4568636],[37.3196919,48.4559054],[37.3146676,48.4532963],[37.30465,48.4516334],[37.3030934,48.4583482],[37.3135905,48.4621518],[37.3122553,48.4653303],[37.3068672,48.4681857],[37.3099333,48.474712],[37.2941636,48.4739085],[37.2889509,48.471455],[37.2903583,48.4638349],[37.2924855,48.4516122],[37.2910702,48.4415609]]],[[[35.3279976,51.0711103],[35.3258518,51.0741304],[35.3279976,51.0770425],[35.3123764,51.0773121],[35.3116898,51.078768],[35.3043083,51.0788759],[35.3031925,51.0774739],[35.304995,51.0762875],[35.3037933,51.0742383],[35.2868929,51.0675402],[35.2952961,51.0634513],[35.3056816,51.0621567],[35.3215603,51.0669573],[35.3279976,51.0711103]]]]}},{"type":"Feature","properties":{"controlStatus":"kursk_incursion","areaKm2":16.883286202961443},"geometry":{"type":"MultiPolygon","coordinates":[[[[34.2856958,51.3210943],[34.2848972,51.3205877],[34.2833093,51.3199306],[34.282215,51.3195015],[34.281464,51.3187237],[34.280516,51.3177982],[34.2810945,51.3133152],[34.2821878,51.3106562],[34.2772508,51.3109448],[34.2772675,51.3128016],[34.2721343,51.3146584],[34.2697647,51.3059248],[34.2662283,51.2985435],[34.2581395,51.3025206],[34.2551014,51.301277],[34.2547615,51.2990762],[34.2498297,51.298861],[34.2497046,51.2967138],[34.2451165,51.2962705],[34.2446484,51.2941634],[34.2416054,51.2933174],[34.239569,51.2935922],[34.237876,51.2924714],[34.2435334,51.2845465],[34.2545272,51.2820675],[34.2605642,51.282635],[34.2802462,51.2937062],[34.2998425,51.3070753],[34.3038384,51.3198622],[34.3055179,51.3222945],[34.3119171,51.3262166],[34.309967,51.334943],[34.3042296,51.3360878],[34.2993505,51.3342295],[34.2907805,51.3386448],[34.2868447,51.3388773],[34.2814564,51.3346262],[34.2897191,51.3219593],[34.2881849,51.3217916],[34.2856958,51.3210943]]],[[[35.1739384,51.0873709],[35.1557815,51.0909234],[35.1480353,51.0828067],[35.1504252,51.0826147],[35.1532509,51.0815482],[35.1541882,51.0800502],[35.1576077,51.0817182],[35.1594035,51.0808267],[35.1636884,51.0833321],[35.1665515,51.0806048],[35.1657512,51.0775156],[35.1679544,51.0756379],[35.1708441,51.0747307],[35.1730183,51.0716222],[35.1766849,51.0706908],[35.1780523,51.0674779],[35.1830241,51.0630783],[35.1824964,51.0619384],[35.1887104,51.057001],[35.1904161,51.0564513],[35.1903192,51.0537436],[35.1968956,51.0511976],[35.1962784,51.0504372],[35.197249,51.0499195],[35.2006532,51.0524191],[35.2037141,51.0512498],[35.2052729,51.048394],[35.2083265,51.0480722],[35.2095529,51.0467781],[35.2134399,51.0465092],[35.2109307,51.0506361],[35.2074481,51.0546207],[35.2021139,51.0571072],[35.1909301,51.0675811],[35.1877862,51.0790328],[35.1739384,51.0873709]]]]}},{"type":"Feature","properties":{"controlStatus":"kursk_contested","areaKm2":31.650052668059104},"geometry":{"type":"MultiPolygon","coordinates":[[[[35.1739384,51.0873709],[35.1877862,51.0790328],[35.1909301,51.0675811],[35.2021139,51.0571072],[35.2074481,51.0546207],[35.2109307,51.0506361],[35.2134399,51.0465092],[35.2278071,51.0550789],[35.2420696,51.0602416],[35.2436343,51.0638161],[35.2488469,51.0643706],[35.2524054,51.061493],[35.2584471,51.0587527],[35.2745569,51.058616],[35.2762611,51.065128],[35.2868929,51.0675402],[35.3037933,51.0742383],[35.304995,51.0762875],[35.3031925,51.0774739],[35.3043083,51.0788759],[35.2909592,51.0815731],[35.2806854,51.0762201],[35.2667942,51.0728969],[35.2461734,51.0681431],[35.2240063,51.0583713],[35.2103637,51.0672328],[35.1981824,51.0675163],[35.1953324,51.0786167],[35.1868161,51.0885805],[35.1739384,51.0873709]]],[[[34.2605642,51.282635],[34.2545272,51.2820675],[34.2508498,51.2755004],[34.246523,51.2762976],[34.2355759,51.2750405],[34.2308093,51.27185],[34.2248822,51.2652541],[34.2438041,51.2635631],[34.2567174,51.2586148],[34.2577662,51.2570133],[34.2616471,51.256459],[34.263487,51.2633398],[34.2582887,51.2697371],[34.2649594,51.2738479],[34.2736048,51.2738238],[34.2784995,51.2727736],[34.2813344,51.2758042],[34.281423,51.2808749],[34.2722411,51.2827242],[34.275341,51.2872217],[34.2814456,51.2883371],[34.2880654,51.2889153],[34.2944582,51.2936391],[34.3026337,51.2952225],[34.3096948,51.3037817],[34.3115831,51.3157465],[34.3173337,51.3259919],[34.3154052,51.3291837],[34.309967,51.334943],[34.3119171,51.3262166],[34.3055179,51.3222945],[34.3038384,51.3198622],[34.2998425,51.3070753],[34.2802462,51.2937062],[34.2605642,51.282635]]],[[[34.345692,51.2500796],[34.368008,51.2645826],[34.3547901,51.2736044],[34.3280109,51.2728526],[34.3214878,51.2656567],[34.345692,51.2500796]]],[[[34.4979999,51.2432135],[34.512677,51.2419776],[34.52332,51.2529378],[34.5408294,51.2531527],[34.555249,51.2445567],[34.5804832,51.2335946],[34.5976494,51.2462761],[34.6019409,51.2461686],[34.6012542,51.2539048],[34.6050308,51.254442],[34.6098373,51.2515411],[34.6188495,51.2507352],[34.6155021,51.2561609],[34.607949,51.2601358],[34.5976494,51.2565906],[34.5966194,51.2504666],[34.5720718,51.2468133],[34.554219,51.2529378],[34.5504425,51.2579872],[34.5353363,51.2597061],[34.5296714,51.2590615],[34.5289848,51.2559461],[34.5185135,51.2558386],[34.5162819,51.2516485],[34.4984291,51.2504666],[34.4979999,51.2432135]]]]}}]}
