{"type":"FeatureCollection","name":"deepstatemap_data_20220522","sourceHistoryId":1653244377,"sourceCreatedAt":"2022-05-22T18:32:57.000Z","crs":{"type":"name","properties":{"name":"urn:ogc:def:crs:OGC:1.3:CRS84"}},"features":[{"type":"Feature","properties":{"controlStatus":"russian_occupied"},"geometry":{"type":"MultiPolygon","coordinates":[[[[29.187071,47.2160354],[29.18701,47.2131299],[29.1897565,47.2077658],[29.1911298,47.2014681],[29.195593,47.1944698],[29.2007429,47.1895704],[29.2093259,47.1821039],[29.2223722,47.17697],[29.217909,47.1650669],[29.2337018,47.1526941],[29.2405683,47.159231],[29.2409116,47.1711355],[29.2411156,47.1714053],[29.2394525,47.1727546],[29.2264492,47.1769846],[29.2222435,47.1785306],[29.2167503,47.1800766],[29.2062789,47.1868143],[29.2044765,47.1880976],[29.2003137,47.1921806],[29.1979534,47.1943969],[29.1957218,47.196963],[29.1937047,47.1991792],[29.1907436,47.2065413],[29.1904217,47.2080281],[29.1899711,47.2100835],[29.1893918,47.2119346],[29.188748,47.2138003],[29.1879112,47.2157826],[29.1872206,47.2161193],[29.187071,47.2160354]]],[[[29.187071,47.2160354],[29.1870743,47.2161906],[29.1872206,47.2161193],[29.1895849,47.2174441],[29.1931039,47.2197759],[29.2024595,47.2244393],[29.197653,47.2307343],[29.2155057,47.2372616],[29.2141325,47.2425062],[29.2191106,47.2518286],[29.2312986,47.2529938],[29.2385084,47.2618483],[29.250868,47.2634793],[29.2608243,47.254858],[29.2776472,47.267207],[29.2941267,47.2604503],[29.3020231,47.2674399],[29.3092329,47.2662751],[29.3428785,47.2914305],[29.3610746,47.2849099],[29.3442518,47.2592853],[29.3305189,47.2571882],[29.3126661,47.2397091],[29.2954999,47.239476],[29.2810804,47.2117306],[29.2852003,47.2038006],[29.2601377,47.1954029],[29.249838,47.2012348],[29.2433149,47.2000685],[29.2532712,47.1874706],[29.2411156,47.1714053],[29.244774,47.1684368],[29.2476923,47.1639435],[29.2700511,47.151804],[29.275716,47.1483016],[29.2885906,47.1438651],[29.2952854,47.1400119],[29.2968303,47.1313706],[29.2940837,47.1224942],[29.2915088,47.1154855],[29.2935688,47.1092937],[29.3011219,47.1056718],[29.3083594,47.103346],[29.3143676,47.1028786],[29.3196891,47.1032292],[29.3286155,47.1054492],[29.3371986,47.1075523],[29.3457816,47.1057997],[29.3500732,47.1005416],[29.354193,47.0953999],[29.3586562,47.0840629],[29.3602012,47.077166],[29.3650077,47.0714375],[29.366896,47.0699175],[29.3741057,47.062785],[29.3777106,47.0614987],[29.3832038,47.0604462],[29.3895553,47.060797],[29.3924735,47.0590429],[29.3880103,47.0569379],[29.3830321,47.0560023],[29.3802856,47.0524937],[29.3790839,47.048283],[29.3795989,47.0434872],[29.3804572,47.0391588],[29.3837188,47.0360001],[29.3880103,47.0329582],[29.3873237,47.02898],[29.3837188,47.0258206],[29.3778823,47.0257036],[29.3725608,47.0264057],[29.3656943,47.0282779],[29.3627761,47.0317881],[29.3615745,47.0381059],[29.3589995,47.0406796],[29.3545364,47.0392758],[29.3545364,47.0356491],[29.3565963,47.0312031],[29.3591712,47.0267568],[29.3617461,47.0233632],[29.3655227,47.0172778],[29.3689559,47.0135325],[29.3722175,47.0082653],[29.3763373,47.0029976],[29.3761657,46.9963244],[29.3739341,46.9937486],[29.3614028,46.9926948],[29.3462966,46.9922264],[29.3310187,46.992929],[29.3178008,46.9959732],[29.3088744,46.9959732],[29.3083594,46.9904701],[29.3081878,46.9849664],[29.3040679,46.98239],[29.2990897,46.9853177],[29.3006347,46.9896504],[29.3033813,46.9933973],[29.3061278,46.9980806],[29.3021796,47.0007733],[29.2953132,46.9984318],[29.2920516,46.9950365],[29.291365,46.988011],[29.2930816,46.9800477],[29.2987464,46.97548],[29.3054412,46.9714975],[29.3100761,46.9662262],[29.312136,46.9642346],[29.3155692,46.9598999],[29.3224357,46.9524011],[29.3299888,46.9495887],[29.3402885,46.9430261],[29.3489595,46.9385073],[29.3605445,46.9345872],[29.3722175,46.933415],[29.3811439,46.9345872],[29.3928168,46.9378691],[29.4003699,46.9444324],[29.4065497,46.9495887],[29.4141028,46.9556819],[29.4199393,46.9615401],[29.4271491,46.9655233],[29.4384788,46.965289],[29.4494651,46.9617744],[29.4518684,46.9584939],[29.4580482,46.9526354],[29.463198,46.9502918],[29.4714377,46.9505262],[29.4752143,46.9441981],[29.4764159,46.9363454],[29.4755576,46.9298984],[29.4736693,46.9253263],[29.4729827,46.9193469],[29.4680045,46.9106698],[29.464743,46.9062134],[29.4480918,46.9018739],[29.4546149,46.8908478],[29.4635413,46.8881495],[29.4673179,46.8809927],[29.4848273,46.8843952],[29.4846557,46.8762991],[29.4841407,46.8706664],[29.4837974,46.8649156],[29.4884322,46.8555253],[29.4891832,46.8537645],[29.4792269,46.8531188],[29.4744633,46.8469846],[29.4706867,46.8508002],[29.4692276,46.8536177],[29.4681118,46.8562003],[29.4657086,46.8572568],[29.4593571,46.8576089],[29.4550655,46.855496],[29.4529198,46.8547329],[29.4484566,46.8544395],[29.4379852,46.8598392],[29.4333504,46.8614825],[29.4321488,46.8596044],[29.4357536,46.8529133],[29.4357536,46.8493914],[29.4103478,46.8466911],[29.4048546,46.8462214],[29.4041679,46.8328351],[29.4050263,46.8158038],[29.3978165,46.8185057],[29.3964432,46.8068749],[29.3969582,46.8046425],[29.4069145,46.8033499],[29.4084595,46.7766701],[29.4024513,46.774554],[29.4014214,46.7584451],[29.4120644,46.7590331],[29.414296,46.7551521],[29.4582413,46.7592683],[29.4621895,46.773731],[29.4697426,46.7716148],[29.4754074,46.7803144],[29.4839905,46.7824303],[29.4875954,46.781725],[29.4891403,46.7781984],[29.5059631,46.7799618],[29.5081947,46.7846637],[29.5104263,46.7883075],[29.5123146,46.7888951],[29.5148895,46.784076],[29.5251892,46.7805495],[29.5349739,46.777258],[29.5418404,46.7781984],[29.5340298,46.7746716],[29.5366905,46.7709093],[29.5410679,46.767676],[29.5499943,46.7669705],[29.5586632,46.7557402],[29.5598648,46.7420961],[29.5567749,46.7353903],[29.5586632,46.7242123],[29.5562599,46.7173867],[29.5629547,46.7142089],[29.5825241,46.7138559],[29.5742844,46.72433],[29.5718811,46.7325666],[29.5727394,46.7403315],[29.5811508,46.7432724],[29.5935104,46.7431548],[29.6070717,46.7409197],[29.6273277,46.7412726],[29.6426056,46.7431548],[29.6573685,46.7443311],[29.6573685,46.7358609],[29.6693848,46.7330373],[29.6697281,46.7212703],[29.6635483,46.7123258],[29.6669815,46.7036151],[29.6583126,46.7014373],[29.6486137,46.7010841],[29.6483563,46.6953741],[29.6549652,46.6953152],[29.6511887,46.6910764],[29.6599434,46.6897812],[29.6547936,46.6856597],[29.6527336,46.6822446],[29.6551369,46.6767093],[29.6635483,46.6752959],[29.6676682,46.6754137],[29.6741913,46.6763559],[29.6779678,46.6755315],[29.6814011,46.673058],[29.6858643,46.6717623],[29.6912716,46.6727635],[29.6943615,46.6741769],[29.6952198,46.6790059],[29.6993397,46.678417],[29.7013996,46.6760615],[29.7008846,46.6708789],[29.6984814,46.666756],[29.7000263,46.6649889],[29.7063778,46.6642821],[29.7091244,46.6620437],[29.7147892,46.6589806],[29.7182224,46.6576846],[29.722514,46.6589806],[29.7268055,46.6613369],[29.7254322,46.6652246],[29.721999,46.6681696],[29.7244022,46.6718212],[29.7292088,46.6718212],[29.7357319,46.6700543],[29.7369335,46.667345],[29.7400234,46.6646355],[29.7434567,46.6659314],[29.7451733,46.6682874],[29.754958,46.6688764],[29.7619961,46.668523],[29.7649143,46.6651068],[29.7592495,46.656742],[29.7547863,46.6514397],[29.7561596,46.6473153],[29.7654293,46.6516754],[29.7734974,46.6556816],[29.774699,46.6502613],[29.7643993,46.6479045],[29.7595928,46.645312],[29.7673176,46.6376513],[29.7729824,46.6411871],[29.7786472,46.6364727],[29.7781323,46.633408],[29.7649143,46.6337617],[29.7585629,46.6338795],[29.7515247,46.6306969],[29.7597645,46.6259815],[29.7630261,46.6227984],[29.7626827,46.619733],[29.7585629,46.6212657],[29.7546146,46.6237415],[29.7482632,46.6262173],[29.7424267,46.625392],[29.7425984,46.6232699],[29.7455166,46.6204404],[29.7522114,46.6172569],[29.7558163,46.615842],[29.7504948,46.614427],[29.7479199,46.614427],[29.7496365,46.6117149],[29.7472332,46.6079413],[29.7420834,46.6061724],[29.7374485,46.6098282],[29.7338436,46.6057006],[29.731097,46.6007472],[29.7232006,46.6021625],[29.722514,46.5990959],[29.731097,46.5948496],[29.7389935,46.5931982],[29.7513531,46.5898952],[29.7602795,46.5901311],[29.7671459,46.5894233],[29.7664593,46.5856481],[29.7760723,46.5814008],[29.7843121,46.578569],[29.7925518,46.5823447],[29.795985,46.5804569],[29.7983883,46.5851762],[29.7946117,46.5896592],[29.795985,46.5948496],[29.8042248,46.5922545],[29.806628,46.5870639],[29.8107479,46.5894233],[29.807658,46.5943778],[29.8055981,46.6016907],[29.7977017,46.6021625],[29.8018215,46.6059365],[29.8090313,46.6040495],[29.8176144,46.6014548],[29.8134945,46.5962651],[29.8138378,46.5856481],[29.8207043,46.590603],[29.8237942,46.5969728],[29.8217342,46.6026343],[29.828944,46.6016907],[29.8306606,46.5974446],[29.8323773,46.5953215],[29.8399304,46.5969728],[29.8368404,46.5891874],[29.828944,46.586356],[29.8258541,46.5817547],[29.8311756,46.579631],[29.8394154,46.5817547],[29.8457668,46.5860021],[29.8495434,46.5891874],[29.8531483,46.586474],[29.8533199,46.5822267],[29.8560665,46.579513],[29.8625897,46.578333],[29.8713444,46.578687],[29.8718594,46.5822267],[29.8713444,46.5875358],[29.8770092,46.5861201],[29.8780392,46.5825806],[29.8752926,46.578333],[29.8685978,46.5760911],[29.8625897,46.5737311],[29.861388,46.571253],[29.8670528,46.5706629],[29.8734043,46.5704269],[29.8716877,46.5686567],[29.8596714,46.5696008],[29.8598431,46.5666504],[29.8631046,46.564408],[29.8696278,46.5626376],[29.8794125,46.5624016],[29.8808287,46.5608524],[29.8961494,46.5560719],[29.8944113,46.5530101],[29.8941539,46.5487086],[29.9260165,46.5530801],[29.9452634,46.5551922],[29.9455168,46.5561097],[29.9454611,46.5564578],[29.9455218,46.5568384],[29.9454073,46.5572371],[29.9454385,46.5575268],[29.9456146,46.5579531],[29.9462166,46.5585454],[29.9470385,46.5594403],[29.9471803,46.5595479],[29.9474157,46.5596268],[29.9482619,46.5601681],[29.9485074,46.5607979],[29.9485249,46.5612525],[29.9483721,46.5614572],[29.9481951,46.5614574],[29.9463235,46.5607745],[29.9458038,46.5605269],[29.9450856,46.5600009],[29.9447376,46.5597736],[29.9438926,46.5596206],[29.943143,46.5593822],[29.942388,46.55907],[29.9419079,46.558999],[29.9408913,46.5589962],[29.9402449,46.5591317],[29.9400339,46.5592697],[29.940032,46.5594335],[29.9402429,46.5597224],[29.9405788,46.560053],[29.9409449,46.5602641],[29.9419226,46.5605472],[29.9422324,46.5607436],[29.9423691,46.5610368],[29.942466,46.561842],[29.9426702,46.5628243],[29.9426279,46.5630036],[29.9425535,46.5638505],[29.9425756,46.56469],[29.942907,46.5653438],[29.9435897,46.5660068],[29.9439206,46.5661753],[29.944391,46.5663807],[29.9447766,46.5664614],[29.9452258,46.56649],[29.9454713,46.5664089],[29.9459581,46.566195],[29.9462263,46.5662042],[29.946642,46.5663388],[29.9475204,46.5670294],[29.9482084,46.5679025],[29.9483614,46.568476],[29.94818,46.5688494],[29.9477733,46.5691638],[29.9473193,46.5692579],[29.9464335,46.5690219],[29.9457945,46.5687011],[29.9446552,46.5678289],[29.9442616,46.5676427],[29.9430667,46.5678161],[29.9411892,46.5683029],[29.9389415,46.5683766],[29.9385701,46.5694054],[29.9383864,46.5709137],[29.9378365,46.571725],[29.9377641,46.5725215],[29.9372947,46.5741588],[29.9368601,46.5744096],[29.9365328,46.5755011],[29.9363681,46.5762533],[29.9364573,46.5769318],[29.9363104,46.5773596],[29.9356372,46.5781859],[29.9355782,46.5788576],[29.9350311,46.579884],[29.9352671,46.580462],[29.9351382,46.5807774],[29.9352668,46.5817474],[29.9369833,46.5820718],[29.9378846,46.5839669],[29.935889,46.5889514],[29.9375097,46.5898516],[29.9406562,46.5889042],[29.9395539,46.5869689],[29.9450926,46.5853284],[29.9462526,46.5872436],[29.9534421,46.5851179],[29.9549438,46.5848965],[29.963312,46.5847633],[29.9645991,46.5914873],[29.9669164,46.5947145],[29.9679035,46.5974994],[29.9673887,46.5989702],[29.9661873,46.600585],[29.9624432,46.6045138],[29.9618746,46.6054499],[29.9612521,46.6069095],[29.9551366,46.6173748],[29.9540503,46.6200497],[29.9541441,46.621516],[29.9550614,46.6264823],[29.955437,46.6284277],[29.9552653,46.6329879],[29.9549434,46.634454],[29.954171,46.6356181],[29.9483134,46.6419237],[29.946575,46.644104],[29.9457167,46.6462839],[29.9456951,46.6483756],[29.9458452,46.6497012],[29.9465316,46.6509681],[29.9479263,46.6526473],[29.9528295,46.656035],[29.9539616,46.6572132],[29.9547289,46.6583105],[29.9553457,46.6594066],[29.9560377,46.6611287],[29.9569388,46.6641456],[29.9577435,46.6669012],[29.9577973,46.6703267],[29.9574001,46.6747693],[29.9590148,46.6775133],[29.9605732,46.6791061],[29.9627219,46.6806695],[29.964272,46.6816116],[29.9670212,46.6829144],[29.9698336,46.6847434],[29.9702903,46.6852457],[29.9705539,46.6857333],[29.9706425,46.686642],[29.9705595,46.6895967],[29.9689124,46.7011576],[29.9663727,46.7080934],[29.9661541,46.7097736],[29.9662359,46.7113655],[29.9676306,46.7164484],[29.967695,46.7183979],[29.9680383,46.7206336],[29.9681671,46.7300477],[29.9691755,46.7331435],[29.9707205,46.7377541],[29.9735101,46.7461799],[29.973931,46.7491477],[29.9745665,46.7520861],[29.9735796,46.7521817],[29.9742663,46.7539349],[29.9707365,46.7544881],[29.9663589,46.7555998],[29.9657421,46.7580548],[29.9663268,46.7707102],[29.9594003,46.7800135],[29.9462797,46.7928043],[29.9419759,46.7960156],[29.9436286,46.7967499],[29.9348948,46.8059304],[29.96294,46.8185746],[29.9783895,46.8164307],[29.9794195,46.819485],[29.971523,46.8240953],[29.9705791,46.8286465],[29.968004,46.8320525],[29.9606443,46.8346949],[29.9584554,46.8373371],[29.9565834,46.8378876],[29.9537671,46.8392013],[29.9518841,46.8386655],[29.9494861,46.8418286],[29.9393251,46.8384092],[29.9256037,46.834827],[29.9302814,46.8284411],[29.9050901,46.8201604],[29.8843222,46.849253],[29.8835466,46.8516322],[29.8917005,46.853804],[29.8838899,46.8861359],[29.8468111,46.8821469],[29.8486994,46.8753412],[29.7486208,46.8614926],[29.7311193,46.9193799],[29.7213696,46.9183311],[29.7183506,46.9321667],[29.7179134,46.9320764],[29.7089599,46.9281331],[29.7100653,46.924153],[29.7011959,46.9234039],[29.7004966,46.9249408],[29.6742446,46.9222912],[29.6587162,46.9206637],[29.648038,46.9197968],[29.6400879,46.9553406],[29.5714931,46.9401355],[29.5561132,46.957889],[29.595885,46.9636297],[29.6024082,47.0417134],[29.6195525,47.0438636],[29.628887,47.0446086],[29.6120411,47.1003117],[29.5812854,47.0971351],[29.5475233,47.0938296],[29.549889,47.075935],[29.5303016,47.0754487],[29.5296066,47.0815008],[29.5293134,47.0816843],[29.5154709,47.1125726],[29.499442,47.1092867],[29.4972323,47.1206317],[29.4955367,47.1319183],[29.5054159,47.1285538],[29.5801872,47.1356261],[29.5519918,47.2514575],[29.5875888,47.2556834],[29.5988554,47.257487],[29.5926088,47.284703],[29.5872146,47.3118022],[29.5816233,47.3412563],[29.5740505,47.3705356],[29.4856876,47.3609318],[29.4815678,47.3274326],[29.4856876,47.3069505],[29.430756,47.2911179],[29.4183964,47.3069505],[29.408011,47.296427],[29.3970247,47.341114],[29.4074101,47.3637224],[29.3868107,47.3823229],[29.3428654,47.3711634],[29.3140263,47.4483016],[29.2426151,47.4185749],[29.2426151,47.464087],[29.1863102,47.4260082],[29.1849369,47.4464442],[29.1986698,47.4631586],[29.1588444,47.4520162],[29.1519779,47.4668722],[29.1835636,47.4733704],[29.1904301,47.499355],[29.1849369,47.5188351],[29.1464848,47.5058492],[29.1148991,47.5512857],[29.1657108,47.5707465],[29.1904301,47.5707465],[29.1863102,47.5911262],[29.2034715,47.5969504],[29.2003816,47.6034324],[29.2161745,47.6122283],[29.2106813,47.6293527],[29.2196077,47.6272703],[29.2336839,47.642308],[29.2072481,47.6427706],[29.2110246,47.6587289],[29.219951,47.6584976],[29.2196077,47.6802301],[29.2312807,47.6843906],[29.2028008,47.7194487],[29.215847,47.7383851],[29.2515526,47.7522367],[29.2803917,47.8039167],[29.2481194,47.8122176],[29.2316399,47.7979208],[29.2165337,47.798382],[29.1973076,47.818673],[29.2051277,47.8377647],[29.2254601,47.8546238],[29.239193,47.8661413],[29.2784185,47.886026],[29.217907,47.8859453],[29.2234977,47.8901741],[29.2185195,47.8955839],[29.2143997,47.8925913],[29.212683,47.8875265],[29.2099365,47.8854544],[29.2013534,47.8844184],[29.1977485,47.8963896],[29.1846835,47.9660878],[29.1771304,47.9656281],[29.1750704,47.9913683],[29.1249453,47.9941254],[29.1304385,47.9817172],[29.1070925,47.9835557],[29.0878665,47.9780401],[29.0995394,47.9610302],[29.081,47.972524],[29.0871798,47.9467744],[29.0658938,47.9430948],[29.0446078,47.9458545],[29.026755,47.9458545],[29.0116488,47.9545926],[28.9986025,47.9596508],[28.9766299,47.9706852],[28.9622103,47.9784998],[28.9271914,47.9612601],[28.8784396,48.0003284],[28.8880526,48.0058415],[28.8835894,48.0088276],[28.8890826,48.0115838],[28.8938891,48.0088276],[28.9021289,48.0102057],[28.9010989,48.0129618],[28.8870226,48.0141101],[28.8815295,48.0111244],[28.8677966,48.0173253],[28.8695132,48.0196218],[28.8595568,48.0219182],[28.8547503,48.0189329],[28.8564669,48.0278882],[28.8379627,48.0356595],[28.8544422,48.0618237],[28.8420826,48.068248],[28.8516956,48.0728363],[28.8407093,48.0769654],[28.8565022,48.1012744],[28.8448292,48.1251136],[28.8283497,48.1278636],[28.8132435,48.1237386],[28.8050037,48.1333631],[28.7919575,48.1274053],[28.7741047,48.1260303],[28.7548786,48.1374873],[28.7274128,48.1310717],[28.7033802,48.1274053],[28.6889607,48.1241969],[28.678661,48.141153],[28.6841541,48.1480255],[28.6436421,48.1439021],[28.6477619,48.1530648],[28.6264759,48.1571874],[28.6086231,48.1581035],[28.5928303,48.1718431],[28.5756641,48.1663477],[28.5703035,48.1738358],[28.5433918,48.1663477],[28.5351521,48.1571874],[28.5262257,48.154439],[28.5071321,48.153684],[28.5200459,48.1379456],[28.5001331,48.1260303],[28.4997898,48.1209884],[28.4956338,48.1191235],[28.4946789,48.1195604],[28.4945287,48.119367],[28.4918894,48.1188442],[28.4987773,48.1152413],[28.4995311,48.1154671],[28.5091442,48.1216554],[28.5218471,48.1209679],[28.5410732,48.1182175],[28.5640758,48.1101949],[28.5784954,48.1044636],[28.5939449,48.0980439],[28.611111,48.0955216],[28.6255306,48.0925406],[28.632397,48.0881835],[28.6354869,48.0796974],[28.633427,48.0702922],[28.621754,48.0643271],[28.6128276,48.064786],[28.6059612,48.0774036],[28.5990947,48.0760273],[28.5960048,48.0668509],[28.5891384,48.056755],[28.5884517,48.0482637],[28.5750621,48.0425256],[28.5530895,48.0393119],[28.5441631,48.0358685],[28.5427898,48.0271442],[28.5362667,48.021863],[28.5283702,48.0129066],[28.5318035,48.0034893],[28.5390132,47.9984354],[28.5465663,47.9972867],[28.5599559,47.9922321],[28.5750621,47.9984354],[28.578152,48.0078536],[28.5877651,48.0172702],[28.590855,48.0276034],[28.5932582,48.0349503],[28.6087127,48.0370175],[28.6207241,48.0298994],[28.6368602,48.0276034],[28.6509365,48.0257665],[28.6773723,48.0276034],[28.7024349,48.0234704],[28.7048381,48.0129066],[28.7027782,48.0032596],[28.7141078,47.9959082],[28.730244,47.9812024],[28.7460369,47.9761463],[28.7563365,47.9754568],[28.7625163,47.9784446],[28.773846,47.9848792],[28.7882656,47.9864878],[28.7944454,47.9812024],[28.7927288,47.9713195],[28.8013118,47.963274],[28.8157314,47.9506284],[28.8298076,47.9441895],[28.8353008,47.9347596],[28.8284343,47.925558],[28.8201946,47.9117527],[28.8250011,47.9016264],[28.8356441,47.8974832],[28.8528102,47.897253],[28.8730663,47.8947209],[28.8867992,47.890347],[28.9080852,47.8857425],[28.925938,47.8843611],[28.9424175,47.8848216],[28.9503139,47.8811376],[28.9571804,47.8811376],[28.9702266,47.8783744],[28.9815563,47.876302],[28.9901393,47.8737689],[28.9987224,47.8701992],[29.0061038,47.8658233],[29.0191501,47.8559184],[29.0251583,47.8486612],[29.02327,47.841864],[29.0177768,47.8323002],[29.0107387,47.8253855],[29.0078205,47.8160493],[29.0016406,47.8087866],[28.9937442,47.8002545],[28.9884227,47.7905677],[28.9870494,47.782494],[28.9834445,47.7688813],[28.9803546,47.757573],[28.9810413,47.7455698],[28.9734882,47.7303309],[28.967995,47.7199382],[28.9721149,47.7044608],[28.979668,47.6924453],[28.9861911,47.6718738],[28.991341,47.6584634],[28.9958042,47.6503692],[28.9927143,47.6390352],[28.9855045,47.6263105],[28.9831012,47.6133512],[28.9937442,47.6013147],[29.0088504,47.5902017],[29.0270465,47.5723695],[29.0273899,47.5512874],[29.0208667,47.536687],[29.0253299,47.518373],[29.0414661,47.5102571],[29.0606922,47.4995886],[29.0768283,47.4928617],[29.0967411,47.4831177],[29.1080707,47.4712834],[29.1180271,47.4585179],[29.1060108,47.4450527],[29.0909046,47.4369255],[29.0788883,47.4241516],[29.0778583,47.4141626],[29.0915912,47.4048688],[29.1077274,47.3927844],[29.1321033,47.3816271],[29.1492694,47.3695374],[29.1588825,47.3590729],[29.1640323,47.3474433],[29.1605991,47.337905],[29.1468662,47.3306921],[29.13176,47.3288305],[29.1276401,47.3255726],[29.1228336,47.3167287],[29.1245502,47.3102111],[29.1338199,47.3090472],[29.1475528,47.3104439],[29.163689,47.3167287],[29.1726154,47.3207435],[29.1822284,47.325398],[29.1957038,47.3292377],[29.2094367,47.3331353],[29.2205947,47.3256889],[29.2394775,47.3395336],[29.2484039,47.346978],[29.2616218,47.3526769],[29.2707199,47.3629101],[29.2829078,47.3724438],[29.288401,47.37814],[29.2983573,47.3841842],[29.3129486,47.3799998],[29.3227333,47.3695374],[29.3235916,47.360352],[29.2957824,47.3481411],[29.2727798,47.3383703],[29.2532104,47.334764],[29.224028,47.3137028],[29.2075485,47.296708],[29.1946739,47.3039256],[29.1744178,47.2963588],[29.1596549,47.2939139],[29.1455787,47.2930989],[29.1277259,47.2880922],[29.1143363,47.2819205],[29.1272109,47.2733022],[29.1342541,47.2674838],[29.1418072,47.2609602],[29.1467854,47.2540863],[29.1478153,47.2481437],[29.1497036,47.2446478],[29.1567417,47.2394034],[29.1612049,47.2329929],[29.1632648,47.227048],[29.1670414,47.2198199],[29.1706463,47.2152726],[29.179401,47.214573],[29.1861516,47.2155202],[29.187071,47.2160354]]],[[[38.355341,49.0541261],[38.3448782,49.0470349],[38.3403623,49.0426207],[38.3344555,49.0328516],[38.3315352,49.024416],[38.3377475,49.0177882],[38.3386376,49.0160011],[38.3419272,49.0109707],[38.3460135,49.0073975],[38.3452163,49.0056545],[38.3438042,49.0042337],[38.3425647,49.0019117],[38.3412099,49.0007319],[38.3479288,48.9979985],[38.3506876,48.9957869],[38.352711,48.993583],[38.3537226,48.9915236],[38.3568033,48.9906629],[38.3579958,48.9897456],[38.3595878,48.9892533],[38.3628729,48.989007],[38.3665755,48.9874194],[38.3691135,48.9852172],[38.3693526,48.9814122],[38.3767081,48.9773065],[38.3824886,48.9730844],[38.3843308,48.9713668],[38.3863445,48.9698746],[38.3920489,48.9661283],[38.3930558,48.9654525],[38.3942888,48.9649456],[38.3955919,48.9640159],[38.3968013,48.9628466],[38.3976635,48.961783],[38.3991246,48.9607157],[38.3997693,48.9591113],[38.4017225,48.9618876],[38.4030854,48.9623741],[38.4039385,48.9625892],[38.4041505,48.9629221],[38.4026257,48.9645256],[38.403022,48.9655245],[38.4043359,48.9662212],[38.4060872,48.9661751],[38.4079928,48.9664901],[38.4089885,48.9669857],[38.4093019,48.9675886],[38.4097289,48.9677744],[38.410333,48.9675941],[38.4108329,48.9670222],[38.4115856,48.9665164],[38.4128416,48.9662354],[38.4131907,48.9660526],[38.4134297,48.9661303],[38.4132916,48.9668593],[38.4141667,48.9669844],[38.4150239,48.9668412],[38.4157698,48.9661752],[38.4169612,48.9659703],[38.4174558,48.9660394],[38.4177582,48.9663466],[38.4175478,48.9667074],[38.4167488,48.9669111],[38.4163096,48.9676566],[38.4164612,48.9681334],[38.4180611,48.9681805],[38.4188242,48.968453],[38.4193204,48.9685472],[38.4199943,48.9681834],[38.4199602,48.9677914],[38.4203209,48.9676272],[38.4209995,48.9675806],[38.4221422,48.9679662],[38.4222067,48.9683537],[38.4225932,48.9687907],[38.4222505,48.9690447],[38.4253319,48.9764644],[38.4241472,48.9814425],[38.4336636,48.99327],[38.4443002,49.0031254],[38.4325798,49.0104879],[38.4241521,49.0156399],[38.419964,49.0293865],[38.4068499,49.0361959],[38.355341,49.0541261]]],[[[36.603887,50.1882098],[36.6436937,50.1984968],[36.6639935,50.2223046],[36.6479893,50.2177626],[36.6404371,50.222102],[36.6400448,50.2226019],[36.6360536,50.2236727],[36.619141,50.2269951],[36.6159111,50.227192],[36.6147727,50.2269816],[36.6134849,50.2237342],[36.5952246,50.2299114],[36.603887,50.1882098]]],[[[30.1991118,45.2687362],[30.1845198,45.2535108],[30.2092406,45.2428748],[30.2241755,45.2570137],[30.1991118,45.2687362]]],[[[37.8562077,48.1928465],[37.8833302,48.1997121],[37.8965706,48.2154292],[37.8929432,48.2335689],[37.89157,48.2550609],[37.8953466,48.268546],[37.8881602,48.2836394],[37.8618482,48.2709071],[37.8250056,48.2571634],[37.7968006,48.2729172],[37.7898231,48.2712524],[37.7821594,48.2705012],[37.7497154,48.2609023],[37.7562384,48.2384982],[37.8125434,48.2380409],[37.8228431,48.230723],[37.8290229,48.2041871],[37.8077741,48.1849014],[37.8103277,48.1553785],[37.8094909,48.1524009],[37.8198549,48.1438969],[37.824622,48.1578177],[37.8285927,48.1751503],[37.8562077,48.1928465]]],[[[38.4024861,48.5572586],[38.4019504,48.5615018],[38.4019712,48.5747527],[38.402637,48.5810386],[38.402637,48.5919397],[38.4060702,48.6019302],[38.4048036,48.6090985],[38.4046894,48.6169314],[38.4088093,48.62964],[38.4143025,48.6382619],[38.4198032,48.6450485],[38.4314762,48.6504924],[38.4452016,48.6550476],[38.3805477,48.6901899],[38.3763077,48.6989115],[38.2626809,48.7175936],[38.1915124,48.6824634],[38.1787507,48.6672633],[38.1834193,48.6587625],[38.2903526,48.6261934],[38.2749109,48.6138203],[38.2804238,48.5900856],[38.3409444,48.5743575],[38.3600858,48.5543044],[38.368648,48.5285446],[38.371738,48.5010259],[38.4005771,48.5051206],[38.4115634,48.5105796],[38.4143026,48.5206053],[38.402637,48.5478669],[38.4024861,48.5572586]]],[[[35.3437946,46.3499966],[35.3436927,46.3480045],[35.3317342,46.33646],[35.3160624,46.3209513],[35.3036032,46.3162461],[35.2968251,46.314997],[35.2914211,46.3094791],[35.2898861,46.2920402],[35.2552582,46.2509872],[35.2210622,46.226781],[35.2090177,46.1902543],[35.1356268,46.1662851],[35.0331183,46.1498649],[35.0184613,46.1301914],[34.9894016,46.1100372],[34.9806129,46.0890477],[34.9769809,46.0709154],[35.0708774,46.0956694],[35.1517979,46.1215406],[35.1954912,46.1472745],[35.2224023,46.183933],[35.3475835,46.3402912],[35.3695662,46.3643297],[35.3787593,46.3732672],[35.3825458,46.378947],[35.3712877,46.3709968],[35.3437946,46.3499966]]],[[[35.3248693,46.3701253],[35.3438379,46.3508437],[35.3465581,46.3535643],[35.3578365,46.3614933],[35.3712877,46.3709968],[35.3767538,46.3751693],[35.4348206,46.4153201],[35.6146465,46.4996998],[35.7703286,46.6017937],[35.9364159,46.6584769],[36.0834399,46.6583764],[36.189877,46.6669129],[36.2290356,46.6503884],[36.2695222,46.6055646],[36.3871263,46.7169171],[36.4958057,46.7474907],[36.6155915,46.7732454],[36.6471828,46.7805555],[36.7055593,46.7775047],[36.7464163,46.7655031],[36.7810734,46.7487854],[36.8105257,46.7278719],[36.8221063,46.7017771],[36.8013332,46.7070255],[36.790687,46.674682],[36.7783344,46.6635319],[36.7610057,46.6656911],[36.7423499,46.637243],[36.7592718,46.618538],[36.8027463,46.6606838],[36.8380441,46.7056437],[36.8458325,46.7240424],[36.8556796,46.7419657],[36.8685104,46.7655733],[36.8859437,46.7892661],[36.9043474,46.8056174],[36.9295237,46.8284428],[36.9588917,46.8475083],[36.9930695,46.8623412],[37.0193409,46.866749],[37.2356347,46.9509504],[37.2972003,46.9272088],[37.3189084,46.8961806],[37.2925383,46.8745361],[37.2886283,46.8705214],[37.3077203,46.8658027],[37.4814542,47.0322115],[37.5122169,47.0645024],[37.5376339,47.0818253],[37.5836711,47.0874048],[37.5805383,47.0817496],[37.5861599,47.0785491],[37.5993048,47.0830288],[37.608257,47.0840406],[37.6195065,47.087157],[37.6243159,47.0909649],[37.6268941,47.0944221],[37.6295827,47.0948063],[37.6321854,47.0946061],[37.6336795,47.0931637],[37.6345118,47.0931437],[37.6352283,47.09401],[37.6664429,47.086291],[37.6709319,47.0852044],[37.6705154,47.0817678],[37.6757999,47.0777699],[37.6821324,47.0770565],[37.685084,47.0781024],[37.6872037,47.0810509],[37.6983358,47.0798491],[37.7138251,47.0802705],[37.7394664,47.0834014],[37.7676875,47.0886009],[37.7939862,47.0847127],[37.8148639,47.0894884],[37.8176104,47.1011748],[37.8163369,47.109753],[37.8180535,47.1190987],[37.8256066,47.1333479],[37.8297265,47.1461922],[37.8365929,47.1569323],[37.8445029,47.1658129],[37.8499825,47.1742053],[37.8513558,47.198938],[37.8472359,47.2138654],[37.8413995,47.2269234],[37.833503,47.249301],[37.8334033,47.2603213],[37.8341897,47.2760952],[37.8338464,47.2854117],[37.8300698,47.2958908],[37.8276665,47.3026429],[37.8348763,47.3082302],[37.8317864,47.3149807],[37.8245766,47.3214977],[37.8273232,47.3284792],[37.8279101,47.3355277],[37.8292834,47.3425074],[37.8444894,47.3419742],[37.856849,47.3436027],[37.8612124,47.3478578],[37.8591525,47.3543707],[37.8486092,47.3501161],[37.8376229,47.3524422],[37.8421,47.3587327],[37.8515994,47.3655338],[37.841643,47.3690218],[37.8383096,47.3780216],[37.8503258,47.3842983],[37.856849,47.3928985],[37.855819,47.403124],[37.8637154,47.4265885],[37.8784784,47.4416839],[37.8925547,47.4697729],[37.8194267,47.5463034],[37.8084403,47.5618278],[37.7823477,47.5859162],[37.7771978,47.6157796],[37.7686147,47.6354478],[37.801917,47.6423879],[37.8039769,47.6601962],[37.7644947,47.6847015],[37.7184895,47.7072316],[37.6726795,47.7247168],[37.6375888,47.7519939],[37.623169,47.7731102],[37.6345486,47.8025384],[37.6342622,47.838423],[37.6330023,47.8460097],[37.6348905,47.8525768],[37.6348904,47.8558021],[37.6355771,47.860179],[37.6389066,47.8677882],[37.640944,47.8706227],[37.6424889,47.8737318],[37.6440338,47.8809854],[37.6440338,47.8866264],[37.6299576,47.8930725],[37.5963118,47.9032005],[37.5759066,47.9077328],[37.5774254,47.8640615],[37.527145,47.8441906],[37.4904102,47.8278261],[37.5091712,47.7831628],[37.4517363,47.768482],[37.3893471,47.7480704],[37.3578097,47.7496297],[37.3353861,47.7554435],[37.2971554,47.7625229],[37.2693887,47.7538461],[37.2203358,47.7626974],[37.1740207,47.7682553],[37.0827142,47.78255],[37.0171095,47.792633],[37.001195,47.7814697],[36.9700053,47.7719618],[36.9360853,47.8000133],[36.8214507,47.8103429],[36.7860272,47.8122106],[36.776104,47.8015359],[36.6906088,47.8014977],[36.6238353,47.8043162],[36.5936802,47.8006522],[36.6065248,47.7737352],[36.5375439,47.7166252],[36.5552456,47.6729186],[36.5140996,47.6635349],[36.4448315,47.6501219],[36.3683191,47.6314425],[36.287964,47.6052585],[36.1065648,47.5890677],[36.078782,47.5252906],[36.0333639,47.5162955],[36.0139109,47.5102118],[35.9733233,47.5156869],[35.9254508,47.5093625],[35.867972,47.5090433],[35.7979092,47.5154458],[35.6995213,47.5285243],[35.643254,47.5138651],[35.5074008,47.5135746],[35.504764,47.5503543],[35.4581154,47.5440296],[35.3950215,47.5208021],[35.3950087,47.5208101],[35.3603365,47.4994552],[35.310061,47.4922519],[35.2789589,47.5011779],[35.274292,47.4940961],[35.2839651,47.4711179],[35.2732113,47.4557986],[35.2649108,47.454382],[35.2711132,47.4718601],[35.2663264,47.4731508],[35.2492229,47.467476],[35.2026366,47.4448564],[35.1486561,47.4455391],[35.0775036,47.4531547],[35.0589931,47.4472408],[35.0446075,47.4376096],[35.0165413,47.411376],[34.9686877,47.3890866],[34.9284011,47.392589],[34.8808768,47.4087593],[34.8619081,47.4207375],[34.8723335,47.436482],[34.8717751,47.4494395],[34.8599184,47.4511069],[34.8251973,47.4646556],[34.7922996,47.4676001],[34.7472176,47.492976],[34.7356684,47.4908156],[34.7089772,47.4904348],[34.6864051,47.4928325],[34.6801944,47.5105837],[34.6594778,47.526596],[34.6440841,47.5419253],[34.6283735,47.5456828],[34.61803,47.5443437],[34.605993,47.5374148],[34.5990354,47.5345232],[34.5862444,47.521662],[34.544526,47.5325602],[34.5331332,47.530312],[34.5013916,47.4985407],[34.4358354,47.4967662],[34.3869447,47.5137279],[34.3727547,47.5105284],[34.3637954,47.4937434],[34.3395698,47.4680202],[34.3349084,47.4468546],[34.2960988,47.4285407],[34.2696759,47.4394016],[34.1992864,47.4119572],[34.1457219,47.4243196],[34.1183426,47.4204195],[34.064871,47.4241706],[34.0466745,47.4175073],[34.0399147,47.40244],[34.0196475,47.3578914],[33.9826442,47.2281837],[33.9098104,47.170099],[33.853211,47.1397486],[33.8407853,47.0983773],[33.8023157,47.0588696],[33.7227477,47.0172364],[33.6976667,46.9949841],[33.6973247,46.9621854],[33.6897886,46.9214159],[33.6784445,46.9007786],[33.6576732,46.9034758],[33.6338211,46.8993673],[33.6341699,46.8822418],[33.634027,46.8661098],[33.6022727,46.8277126],[33.5234813,46.8230958],[33.4642572,46.8182295],[33.3896643,46.7674124],[33.3600733,46.788969],[33.3541072,46.7848776],[33.3538689,46.7846426],[33.3717889,46.7687613],[33.2866486,46.7488393],[33.2571281,46.7555432],[33.2238335,46.7673909],[33.1987715,46.7688835],[33.1439158,46.7602052],[33.0015038,46.7181504],[32.9214055,46.7119792],[32.8452095,46.6853376],[32.7726654,46.6685904],[32.7190419,46.6659356],[32.7017968,46.6629134],[32.6593406,46.6502431],[32.5920645,46.5593734],[32.5599058,46.5430545],[32.5333866,46.5373243],[32.5162168,46.5362093],[32.4182721,46.4855706],[32.4116422,46.4828862],[32.3994021,46.474569],[32.3586749,46.4650634],[32.3272467,46.4658192],[32.2593632,46.4776997],[32.1866986,46.4860454],[32.156592,46.4927241],[32.1216254,46.4983778],[32.0784139,46.4997641],[32.0439949,46.4913924],[32.0027152,46.491517],[31.9108596,46.5165686],[31.8777032,46.5191256],[31.861055,46.5158216],[31.8043279,46.5289631],[31.754436,46.5477486],[31.6976546,46.5448873],[31.6690402,46.5362578],[31.6315022,46.5403713],[31.6003753,46.5377239],[31.6559433,46.4717345],[31.6918835,46.4686048],[31.7413559,46.4890915],[31.7987384,46.4796465],[31.896928,46.4576286],[31.9528268,46.4373359],[31.9748472,46.4390845],[32.0022459,46.453311],[32.0290416,46.4374217],[32.0355715,46.4164449],[32.0584621,46.3936051],[32.0496571,46.3834371],[32.0255326,46.3853602],[32.0219174,46.382339],[32.0090519,46.3639959],[31.9757801,46.3480047],[31.9439259,46.3427845],[31.9052405,46.3394654],[31.865532,46.3332886],[31.8386435,46.3356205],[31.7727132,46.3222846],[31.7473096,46.3005071],[31.7477416,46.2980208],[31.7564105,46.2955366],[31.7573225,46.2950781],[31.7680193,46.2963985],[31.77451,46.2938047],[31.7712158,46.28872],[31.7755479,46.2853427],[31.7751137,46.282147],[31.7821317,46.2767197],[31.7832911,46.2723916],[31.7771998,46.2680096],[31.779606,46.2643492],[31.7843677,46.2655589],[31.7845172,46.2687448],[31.7917055,46.2737697],[31.7963826,46.2734659],[31.8097279,46.2719756],[31.8143612,46.2693303],[31.8132445,46.2646255],[31.8183073,46.2641929],[31.8346973,46.26602],[31.8331459,46.2696742],[31.8351942,46.2727102],[31.8477009,46.2682192],[31.8507418,46.268136],[31.8520181,46.2704616],[31.8629835,46.2720247],[31.8708344,46.2656555],[31.8740047,46.2651386],[31.8832914,46.2732981],[31.89507,46.2806265],[31.9041055,46.2963125],[31.9364358,46.2907488],[31.9437456,46.2854411],[31.9565439,46.2654215],[31.9591374,46.2652489],[31.9695145,46.2570898],[32.0286309,46.245122],[32.0514192,46.2496669],[32.0777541,46.2388024],[32.0878289,46.2213429],[32.1264746,46.203027],[32.1659661,46.196775],[32.1870249,46.175548],[32.2061332,46.1720621],[32.2067617,46.1753105],[32.2081061,46.1866809],[32.221812,46.187592],[32.2398798,46.1783972],[32.2258878,46.1699955],[32.2288004,46.1665053],[32.2366728,46.1500149],[32.2304411,46.1393923],[32.226216,46.1324231],[32.2477914,46.1244914],[32.5346946,46.0652669],[32.710194,46.1026938],[32.9126426,46.102199],[33.1775483,46.1203559],[33.2991907,46.0700506],[33.4288609,46.0272295],[33.5148147,46.0271133],[33.4966984,46.0701674],[33.5637474,46.0746225],[33.5247978,46.1155786],[33.5573368,46.1221338],[33.5737439,46.1255906],[33.6079654,46.1475624],[33.6912363,46.2053232],[33.7421104,46.2083299],[33.7378406,46.2005747],[33.7278118,46.2009757],[33.7203949,46.1997502],[33.7177182,46.2024641],[33.7129463,46.2016824],[33.71571,46.1979643],[33.7112546,46.193492],[33.7097972,46.1901163],[33.713146,46.1862645],[33.7108304,46.1838399],[33.7160664,46.1757094],[33.7197659,46.1739455],[33.7257348,46.174014],[33.7299192,46.1709572],[33.7292637,46.1690726],[33.7261891,46.1667043],[33.7253384,46.1649261],[33.7262858,46.1616592],[33.7265868,46.1578857],[33.72811,46.1551668],[33.7350502,46.1498824],[33.735601,46.1471215],[33.7408709,46.1441232],[33.7475131,46.1378538],[33.7495382,46.1374606],[33.7548898,46.1406843],[33.8242847,46.1871969],[34.0383305,46.1168174],[34.1225789,46.1080045],[34.1607681,46.0803117],[34.2253474,46.0637955],[34.3824606,46.0345739],[34.4785479,45.9468288],[34.5560383,45.9885731],[34.6514104,45.97379],[34.7008789,45.9590612],[34.8400152,45.8737411],[34.8158666,45.8357222],[34.8250838,45.8112122],[34.8674066,45.8291807],[34.8707212,45.8467632],[34.8751306,45.8555496],[34.8855773,45.8632873],[34.9004134,45.8580674],[34.9353039,45.8054347],[34.9403655,45.7872533],[34.9456423,45.7803165],[34.9554893,45.767389],[34.9493387,45.7628178],[34.9582138,45.7599193],[34.9681019,45.7621984],[34.9731755,45.763623],[34.9770477,45.7651671],[34.8921828,45.8986927],[34.852469,46.0090997],[34.8346359,46.1154117],[34.829315,46.204055],[34.8995659,46.2381715],[35.021547,46.2584415],[35.052167,46.2669443],[35.0767677,46.2785357],[35.1021348,46.3004517],[35.1124432,46.3102126],[35.1176084,46.3222025],[35.1274123,46.3419438],[35.1395419,46.3515709],[35.1620938,46.3587479],[35.175433,46.3632748],[35.1851942,46.3695606],[35.1900773,46.3712781],[35.1997289,46.3813728],[35.2574305,46.375757],[35.2630952,46.3656409],[35.2663547,46.353511],[35.2695223,46.3559538],[35.2747139,46.3559584],[35.2903127,46.357234],[35.3018887,46.3555606],[35.3053962,46.3542423],[35.3080086,46.3495037],[35.3087903,46.3483784],[35.3140349,46.3450016],[35.3179919,46.3402619],[35.318515,46.3350481],[35.317497,46.3314708],[35.3218364,46.3332078],[35.3248693,46.3701253]]],[[[32.4243802,46.5677111],[32.4243735,46.5677046],[32.4243743,46.5676981],[32.4243802,46.5677111]]],[[[33.7214016,47.4308333],[33.6341916,47.4392032],[33.6204514,47.451615],[33.6204517,47.4668763],[33.5962601,47.4966346],[33.5544203,47.5050804],[33.5460514,47.5180609],[33.4989476,47.5120287],[33.5124054,47.4917502],[33.4645118,47.4847902],[33.4294929,47.4775974],[33.3969988,47.4749891],[33.3849832,47.4770967],[33.3596646,47.4865121],[33.3351389,47.4856869],[33.3422009,47.4751161],[33.3641229,47.4611842],[33.3700752,47.4554676],[33.37657,47.4598049],[33.3829077,47.4602323],[33.3871853,47.4588026],[33.390161,47.4508479],[33.3934848,47.4434053],[33.3964064,47.4301425],[33.4023312,47.4216539],[33.3945243,47.4164171],[33.376623,47.3971765],[33.3662861,47.3746804],[33.3235919,47.3589497],[33.2823307,47.3614029],[33.248458,47.3474361],[33.2459291,47.3306019],[33.2408203,47.325276],[33.2322795,47.3215788],[33.2348495,47.3140049],[33.244622,47.3078188],[33.2538647,47.3055728],[33.2609789,47.3049835],[33.2699816,47.3071873],[33.2744253,47.3042613],[33.2742585,47.2967548],[33.263702,47.2889762],[33.2587261,47.2875417],[33.2522714,47.288994],[33.2355289,47.2899172],[33.2278821,47.2922358],[33.2197929,47.290219],[33.2031609,47.2765613],[33.1940806,47.2597557],[33.1846655,47.2428299],[33.0962683,47.2355339],[33.0940611,47.2262445],[33.0983722,47.2188302],[33.0683483,47.2142046],[33.0675684,47.2007253],[33.0545197,47.1916379],[33.0368182,47.1880265],[33.0350061,47.1829845],[33.0392019,47.1785258],[33.0253114,47.1763194],[33.0123568,47.1820104],[33.0129162,47.1885883],[33.006471,47.1960278],[33.0036483,47.196287],[33.0013405,47.1957296],[33.0004919,47.1943557],[33.00033,47.1925152],[33.0042314,47.191394],[33.0024129,47.1892999],[32.9955143,47.190594],[32.9915016,47.1893323],[32.9906494,47.1800587],[32.9961745,47.1674688],[32.9936646,47.1656265],[32.9874427,47.1680092],[32.9907959,47.1581876],[32.993207,47.1564565],[32.9940822,47.1539285],[32.9920568,47.1530744],[32.9862885,47.1558002],[32.9848809,47.1543642],[32.9851572,47.1518429],[32.9915458,47.1511212],[33.0045515,47.1331367],[32.9947847,47.1235486],[32.982145,47.1200541],[32.96656,47.1159282],[32.9513192,47.1167065],[32.9507075,47.1140576],[32.9573807,47.1103962],[32.9724429,47.107514],[32.9737284,47.1012827],[32.9701208,47.0974668],[32.9644544,47.0970392],[32.9591312,47.0982475],[32.9491681,47.1058823],[32.9446918,47.105961],[32.9391743,47.1030799],[32.9332976,47.0868016],[32.9263545,47.0834599],[32.9186496,47.0851897],[32.9118228,47.0888799],[32.9088075,47.0969575],[32.9137569,47.1046971],[32.9064867,47.1108246],[32.8940049,47.1132605],[32.8899905,47.1062148],[32.8984536,47.0890887],[32.8794015,47.0797191],[32.8417613,47.0936918],[32.8178993,47.0943361],[32.7952411,47.0936918],[32.7672559,47.0956198],[32.7598787,47.0671564],[32.7231235,47.067586],[32.6952602,47.0677757],[32.6858281,47.0678403],[32.6696726,47.0668375],[32.6531296,47.0665461],[32.6530769,47.0675251],[32.640493,47.066896],[32.5973886,47.0580018],[32.6051179,47.0239138],[32.5948317,47.0221767],[32.5955581,47.0137893],[32.5445141,47.0049318],[32.4873468,46.9980677],[32.4766182,46.9847194],[32.422727,46.9589532],[32.4069508,46.8466642],[32.3071007,46.8007768],[32.2435333,46.7860604],[32.2176037,46.7495852],[32.1874451,46.7471601],[32.165908,46.7021234],[32.185769,46.6011796],[32.1198847,46.596745],[32.1387674,46.5568622],[32.1847725,46.5752733],[32.2091483,46.5762173],[32.2465703,46.5922626],[32.2596165,46.5903752],[32.2787663,46.5809827],[32.3207067,46.5533911],[32.4243802,46.5677111],[32.4303885,46.5602164],[32.4489224,46.5632228],[32.4681467,46.571183],[32.4768966,46.5829711],[32.5115735,46.5963907],[32.541797,46.5991534],[32.5898624,46.6024557],[32.6374127,46.638298],[32.6545742,46.6529993],[32.6619606,46.6566227],[32.7172358,46.6728798],[32.7190801,46.6654738],[32.7221113,46.6656275],[32.7214643,46.6749465],[32.7554953,46.6732202],[32.7778114,46.673338],[32.8091476,46.6850395],[32.8524065,46.7019944],[32.9423573,46.7396531],[33.0137688,46.7420058],[33.0460413,46.7467111],[33.0950576,46.7689454],[33.1561694,46.7884599],[33.2299841,46.7865792],[33.3058586,46.7802317],[33.3294622,46.7799378],[33.3537661,46.7843963],[33.3597321,46.7884877],[33.3807033,46.8051472],[33.4123449,46.8296556],[33.4419982,46.8417292],[33.4699439,46.8467501],[33.5087397,46.8580732],[33.5906349,46.8537657],[33.599212,46.894156],[33.595433,46.9345462],[33.6552008,46.9850037],[33.6621376,46.9998455],[33.6575,47.0484019],[33.7501043,47.0920155],[33.7640987,47.0979765],[33.7873764,47.1308085],[33.7818284,47.1786881],[33.7898423,47.1836219],[33.8250784,47.1959862],[33.854999,47.2071725],[33.8657595,47.2096232],[33.9005628,47.230959],[33.9116478,47.243441],[33.9163973,47.2707333],[33.9647811,47.303648],[33.9687102,47.3285208],[33.9782224,47.3755823],[33.9600427,47.4092807],[33.8694947,47.389092],[33.8440964,47.4089457],[33.8355335,47.4338916],[33.7757205,47.4239823],[33.7233513,47.4201485],[33.7214016,47.4308333]],[[33.248438,47.3474353],[33.2484422,47.3474337],[33.2484375,47.3474314],[33.248438,47.3474353]]],[[[38.4241518,49.0154741],[38.4442998,49.0029596],[38.4336632,48.9931042],[38.4241469,48.9812767],[38.4253316,48.9762986],[38.4612395,48.9834551],[38.4846543,48.9860053],[38.4943034,48.9777515],[38.5105595,48.9721144],[38.5150216,48.9546155],[38.5413653,48.957452],[38.5764209,48.9298262],[38.5344414,48.9203973],[38.5278414,48.9111891],[38.539347,48.9074763],[38.5553151,48.9089518],[38.5875822,48.8891046],[38.6091738,48.8699268],[38.5881134,48.8437268],[38.5898732,48.7811835],[38.5475555,48.7463219],[38.5333719,48.7243497],[38.5457643,48.7019808],[38.5594447,48.6865289],[38.5722305,48.6888898],[38.5777312,48.696576],[38.5784179,48.7092645],[38.5832168,48.7197038],[38.6301662,48.7210062],[38.6523391,48.7222613],[38.6784104,48.7235352],[38.674548,48.7291971],[38.6917143,48.7291971],[38.7535123,48.7183257],[38.7670659,48.7141542],[38.8084363,48.713248],[38.8300656,48.7168724],[38.8360738,48.7231013],[38.8413953,48.7333489],[38.8471459,48.7427454],[38.8561581,48.7503293],[38.8728093,48.7531022],[38.8920353,48.7507254],[38.9047382,48.7504424],[38.9198444,48.7454621],[38.9330624,48.7480655],[38.9361523,48.7435944],[38.9317749,48.7362926],[38.9446494,48.7352736],[38.9571808,48.7392927],[38.9594982,48.7469902],[38.9799258,48.7434812],[38.9884361,48.734854],[38.9965845,48.7242147],[38.9977862,48.7195715],[38.9943454,48.7156832],[38.9888597,48.7150412],[38.9831949,48.7140218],[38.9837882,48.7108694],[38.9955682,48.7122995],[38.9977862,48.7096043],[38.9965846,48.7063192],[38.9984728,48.7009947],[39.0018127,48.6972182],[39.0070558,48.6968026],[39.0137431,48.6958586],[39.0147806,48.6894373],[39.0122056,48.6833176],[39.0176913,48.6798232],[39.0192438,48.6766305],[39.0192438,48.6719829],[39.0235353,48.6692622],[39.0252519,48.6666547],[39.0266252,48.6626866],[39.021647,48.6615528],[39.0173555,48.6629133],[39.0096307,48.6624598],[39.012288,48.6585575],[39.018378,48.6568095],[39.027991,48.6534076],[39.0355441,48.6480774],[39.044478,48.6473779],[39.0534044,48.6482852],[39.0648982,48.6502322],[39.0707421,48.6525947],[39.0786385,48.6514606],[39.0872217,48.6516875],[39.0975214,48.651007],[39.1040444,48.6516875],[39.1108175,48.6558457],[39.1189714,48.6600978],[39.1239571,48.6612693],[39.1288494,48.6610425],[39.1371675,48.660438],[39.1380333,48.6628],[39.1375184,48.665521],[39.1383767,48.668412],[39.1418882,48.673419],[39.1463589,48.6769138],[39.1525387,48.6769705],[39.1590543,48.6768196],[39.168589,48.6805409],[39.1712497,48.6822409],[39.1759842,48.6849517],[39.1797608,48.6925443],[39.1832016,48.6977941],[39.1861198,48.7006265],[39.1886013,48.7020618],[39.1908329,48.7049506],[39.1917846,48.7069707],[39.1936653,48.7074429],[39.1959044,48.7065175],[39.1965053,48.7032323],[39.1999385,48.6993803],[39.2053461,48.6992539],[39.2070626,48.7012365],[39.2099808,48.7034456],[39.2132425,48.7054848],[39.2191647,48.7066176],[39.2237995,48.7100726],[39.2276619,48.7119982],[39.2328118,48.7121115],[39.2360658,48.7102616],[39.2390699,48.7103748],[39.245593,48.7135464],[39.2473172,48.7175481],[39.248347,48.7208325],[39.2486903,48.7242299],[39.2538402,48.7322694],[39.2514369,48.7364585],[39.249892,48.7398549],[39.2516869,48.7425342],[39.2651625,48.742987],[39.2663642,48.7453641],[39.2658567,48.7484579],[39.2649984,48.7514006],[39.2683383,48.7544189],[39.274268,48.7540037],[39.2749546,48.7498161],[39.2806194,48.7501556],[39.2848176,48.751646],[39.2851608,48.7543623],[39.2859408,48.7584173],[39.2881158,48.7608828],[39.2931506,48.762378],[39.2983004,48.7652068],[39.301297,48.7684505],[39.3024203,48.7713165],[39.3043086,48.7735791],[39.3091075,48.7752951],[39.3142648,48.7757286],[39.3193215,48.7767657],[39.3254153,48.7755214],[39.3259378,48.7721084],[39.3259303,48.768507],[39.330916,48.7674697],[39.3377824,48.7671303],[39.3435255,48.7692425],[39.3487687,48.7695063],[39.3530527,48.7666402],[39.3497986,48.76317],[39.3447271,48.7611523],[39.3420739,48.7551355],[39.3455854,48.7504576],[39.3463654,48.7470996],[39.3492837,48.7422322],[39.3546052,48.7403077],[39.3575159,48.7358549],[39.3561501,48.732043],[39.3530602,48.7287594],[39.3534819,48.7260608],[39.3601768,48.7224371],[39.3667857,48.7210781],[39.3713285,48.7197891],[39.3721738,48.7169446],[39.3685024,48.7154719],[39.3630092,48.7157551],[39.3575159,48.7144526],[39.3541492,48.7129804],[39.3486561,48.7132069],[39.3454138,48.7117908],[39.3503061,48.7057871],[39.3525377,48.7006891],[39.3586124,48.696214],[39.367024,48.6913417],[39.3793107,48.6861562],[39.3890158,48.6842587],[39.3879858,48.6805753],[39.3903698,48.6779686],[39.3936313,48.6762684],[39.401032,48.6749646],[39.4058385,48.6735477],[39.411141,48.6696935],[39.4123426,48.666746],[39.4080511,48.662381],[39.4070963,48.6592629],[39.410701,48.6575053],[39.417501,48.6592626],[39.4372385,48.6563204],[39.4460791,48.6573976],[39.4506981,48.6554075],[39.4513148,48.6515576],[39.4481232,48.6473557],[39.4496729,48.6426975],[39.4505741,48.6413647],[39.4542219,48.6396349],[39.4598009,48.6395782],[39.4639317,48.6393083],[39.4656801,48.6379334],[39.4627302,48.6327854],[39.4631482,48.628886],[39.4673109,48.6285457],[39.4731046,48.6289995],[39.4785978,48.6289995],[39.4856788,48.6302759],[39.4892409,48.6314671],[39.4940044,48.6332256],[39.499755,48.6340481],[39.5026304,48.6348138],[39.506933,48.6353947],[39.5101946,48.635338],[39.5128427,48.6344001],[39.5157735,48.6297223],[39.5119844,48.6249834],[39.5116537,48.6217231],[39.5162758,48.617948],[39.5233267,48.6148575],[39.5270173,48.6094098],[39.5236681,48.6060311],[39.5224791,48.6025425],[39.5240115,48.598539],[39.5313928,48.5969496],[39.5321779,48.5933469],[39.5274446,48.5918406],[39.5252131,48.5884343],[39.5312211,48.5841193],[39.5415209,48.5841193],[39.5459841,48.5871852],[39.5458125,48.5921812],[39.5477007,48.5968361],[39.5545672,48.5994472],[39.5617769,48.5984255],[39.5656519,48.593801],[39.5653817,48.5887749],[39.5612745,48.5846606],[39.5681283,48.5818481],[39.5749216,48.5840928],[39.5823032,48.5888052],[39.5931909,48.5935437],[39.6010873,48.5912729],[39.6050355,48.5866175],[39.6000573,48.5853684],[39.5945642,48.5809396],[39.5943193,48.5762567],[39.6024606,48.574466],[39.6094987,48.5749203],[39.6148202,48.5798039],[39.6173951,48.5861633],[39.6222017,48.586731],[39.6304415,48.580826],[39.6409128,48.5828701],[39.6505257,48.5852548],[39.669902,48.5889868],[39.677305,48.5874123],[39.6863298,48.5868181],[39.6880015,48.5869198],[39.6872709,48.5870843],[39.6867984,48.5877484],[39.6866907,48.5895424],[39.6861432,48.5898291],[39.6854832,48.5899583],[39.6839086,48.5907325],[39.6833787,48.5914318],[39.683221,48.5921079],[39.6830348,48.5924033],[39.680002,48.5923098],[39.6794939,48.5919507],[39.6795833,48.5906215],[39.6790701,48.5901982],[39.6786419,48.5901143],[39.6777198,48.5902284],[39.6767651,48.5907822],[39.6763736,48.5913004],[39.6757272,48.5930922],[39.6757257,48.5937894],[39.6762185,48.5944077],[39.6768298,48.5949987],[39.6776343,48.5954477],[39.6779105,48.595784],[39.6781759,48.5958578],[39.6785928,48.5957776],[39.6788764,48.5955955],[39.6792435,48.5955045],[39.6795451,48.5955158],[39.6799642,48.5957272],[39.6803132,48.5960245],[39.6804663,48.5962937],[39.680296,48.5967051],[39.6800822,48.5970137],[39.6799001,48.5971857],[39.6794979,48.5974385],[39.6789588,48.597728],[39.6785766,48.5978657],[39.6781602,48.5978991],[39.6778834,48.5979183],[39.6767071,48.597799],[39.6760225,48.5974414],[39.6753905,48.5967162],[39.6750423,48.5965239],[39.674482,48.5961368],[39.6736869,48.5957233],[39.6728387,48.5954668],[39.6718245,48.5952889],[39.6709098,48.5953135],[39.6701842,48.5954748],[39.6694049,48.5958135],[39.6688258,48.5962879],[39.6683001,48.5970077],[39.6679514,48.5978501],[39.6680131,48.5989383],[39.6681511,48.5997379],[39.66807,48.6007337],[39.6679424,48.6008763],[39.6680079,48.6011749],[39.6684537,48.6016293],[39.6688566,48.6021121],[39.6698389,48.6025027],[39.6707163,48.6030812],[39.6710692,48.6035975],[39.6708034,48.6039253],[39.6704345,48.6043162],[39.6696063,48.6046252],[39.668527,48.6048222],[39.6676762,48.6048852],[39.6664246,48.6048742],[39.6658445,48.6047906],[39.6653313,48.6046517],[39.6649442,48.6045945],[39.6643429,48.6045849],[39.6638865,48.6046215],[39.6636073,48.6046642],[39.6633067,48.6047707],[39.6627593,48.6050722],[39.6625285,48.6052088],[39.6622441,48.6053171],[39.6615273,48.6055384],[39.6612543,48.6056849],[39.6610564,48.6058846],[39.6609189,48.6066732],[39.6608619,48.6067878],[39.6607404,48.6069096],[39.660503,48.6072064],[39.6604357,48.6074381],[39.6604193,48.6077739],[39.6605715,48.6080828],[39.6606539,48.6083633],[39.6606269,48.6085002],[39.6605517,48.6086672],[39.660562,48.6089054],[39.6605673,48.6090177],[39.6606209,48.6090875],[39.6607977,48.6093476],[39.6609385,48.6095939],[39.661106,48.6099358],[39.6612092,48.6104889],[39.6613911,48.6107243],[39.6616696,48.6108816],[39.6622157,48.6113808],[39.662601,48.6117948],[39.6629521,48.6119985],[39.663314,48.6123157],[39.6635915,48.6126685],[39.6637295,48.6129645],[39.663991,48.6138174],[39.664186,48.6146269],[39.6647986,48.6151593],[39.6648313,48.615241],[39.6648181,48.6154539],[39.6648008,48.6156491],[39.6648673,48.6158973],[39.6650748,48.6161279],[39.6651545,48.6163105],[39.6653173,48.6165694],[39.6656414,48.617145],[39.6660621,48.6176532],[39.6661432,48.6178158],[39.666117,48.6181769],[39.6663913,48.6187437],[39.6665069,48.6192825],[39.6669135,48.6198355],[39.6671865,48.6203851],[39.6678672,48.6212822],[39.6681735,48.6214278],[39.6689734,48.6222967],[39.6715329,48.6243287],[39.6745861,48.6263606],[39.6776137,48.6280345],[39.6800075,48.6294245],[39.6843588,48.6315376],[39.6856559,48.6320765],[39.686953,48.6324594],[39.6876815,48.6327288],[39.6884529,48.6331968],[39.6901786,48.6350981],[39.6905727,48.6353325],[39.6910956,48.6354676],[39.6928041,48.6359714],[39.6934808,48.6364057],[39.6939859,48.6368542],[39.6941313,48.6372875],[39.6943125,48.6376262],[39.694365,48.6381068],[39.6943531,48.6386866],[39.694272,48.6390262],[39.6942851,48.6396001],[39.6940449,48.6404683],[39.6938926,48.6411435],[39.69387,48.6417576],[39.6937515,48.6427807],[39.6935527,48.6431434],[39.6930349,48.6434807],[39.6927009,48.643621],[39.6921369,48.6440597],[39.6915974,48.644825],[39.6913261,48.6453279],[39.6911822,48.6456807],[39.6911211,48.646231],[39.6913153,48.6464877],[39.6915953,48.6466805],[39.6918914,48.6468982],[39.6920234,48.6471505],[39.6920894,48.6473618],[39.6920963,48.6476368],[39.6922611,48.6477251],[39.6924642,48.6478756],[39.6927025,48.6481334],[39.6929317,48.6483987],[39.6932018,48.6487901],[39.6934013,48.6489557],[39.6935766,48.6492045],[39.6938843,48.6493985],[39.6942233,48.6494742],[39.6944464,48.6495404],[39.6946358,48.649655],[39.6948485,48.6498558],[39.6949843,48.6499155],[39.6952803,48.6501261],[39.6957769,48.6503501],[39.6965295,48.6506286],[39.6967552,48.6507204],[39.6970131,48.6507874],[39.6972714,48.6509001],[39.6982514,48.6516017],[39.6986292,48.6518515],[39.698979,48.6520898],[39.6994651,48.6523791],[39.7001051,48.6525521],[39.7006826,48.6526563],[39.7011645,48.652797],[39.701679,48.6530126],[39.7018612,48.6530965],[39.7020917,48.6531553],[39.7022197,48.6531967],[39.7022995,48.6532433],[39.7028981,48.6538559],[39.7034609,48.6544378],[39.7039514,48.6547359],[39.7042382,48.6549631],[39.7045811,48.6553608],[39.7046372,48.6555738],[39.7047323,48.6558079],[39.7050696,48.6561659],[39.7051577,48.6563059],[39.7052662,48.6564574],[39.7054707,48.6565545],[39.7057444,48.6565604],[39.7060155,48.6566237],[39.706194,48.6567793],[39.7063324,48.6568165],[39.7065246,48.6568252],[39.7067006,48.6567632],[39.7068745,48.6566577],[39.7070258,48.6565199],[39.7071605,48.6563164],[39.70727,48.656161],[39.7073606,48.6560479],[39.7076504,48.6557544],[39.7080521,48.6554428],[39.7081901,48.655345],[39.7084729,48.6550664],[39.7086056,48.6549235],[39.7088114,48.6547138],[39.7090752,48.6545593],[39.7093547,48.6544768],[39.7095132,48.6544603],[39.7096917,48.6544999],[39.7099767,48.6545215],[39.7101675,48.6545819],[39.7103246,48.6546555],[39.7105399,48.6548341],[39.7106909,48.6550161],[39.7107812,48.6551372],[39.7108827,48.6555273],[39.7109495,48.6560306],[39.7108339,48.6569202],[39.7105344,48.6574582],[39.7099184,48.6584498],[39.7096,48.6592181],[39.7095347,48.6599301],[39.7095258,48.6606526],[39.7096917,48.661929],[39.7096205,48.6623544],[39.7101286,48.6628507],[39.7105939,48.6638926],[39.7107193,48.6642648],[39.710739,48.6648477],[39.7109742,48.6655147],[39.7110592,48.6663801],[39.7110026,48.6665508],[39.71047,48.6670046],[39.7103686,48.6671038],[39.7101921,48.6671605],[39.7097424,48.6673448],[39.7091533,48.6673945],[39.7084724,48.6674193],[39.7075152,48.6672581],[39.7071384,48.6670465],[39.7066875,48.6668412],[39.7062688,48.6667812],[39.7058167,48.6667016],[39.7054183,48.6666326],[39.7049797,48.6666557],[39.7044296,48.6666742],[39.7040159,48.6667314],[39.703581,48.6668044],[39.7032911,48.6668348],[39.7021215,48.6679811],[39.7025396,48.6687306],[39.7030004,48.6704068],[39.7118101,48.6750602],[39.7150311,48.6810023],[39.7221581,48.6839973],[39.7162393,48.6902791],[39.7155113,48.6956862],[39.7199333,48.6979207],[39.7027732,48.7066325],[39.7110139,48.713367],[39.7048355,48.7214608],[39.7227146,48.7341074],[39.7389251,48.7484075],[39.7414097,48.7717615],[39.7652011,48.765006],[39.7843065,48.7973463],[39.7971242,48.8405734],[39.80467,48.843574],[39.8080419,48.8394778],[39.807501,48.8385787],[39.8278294,48.8314627],[39.8304368,48.833552],[39.8862528,48.8209434],[39.9383224,48.7998877],[39.9522719,48.7974751],[39.958216,48.797851],[39.9761754,48.7937025],[40.0788287,48.8698642],[40.0712841,48.8769726],[40.0554925,48.9100958],[40.0484933,48.9101839],[40.0311927,48.9157989],[40.0180607,48.9077888],[39.9837285,48.8680575],[39.9246772,48.8942476],[39.8711189,48.8942476],[39.8409067,48.9023726],[39.8244272,48.8906359],[39.818934,48.9077887],[39.7942148,48.9249356],[39.7694958,48.9303492],[39.7887218,48.9474884],[39.7477808,48.9879451],[39.7329741,48.9801996],[39.7294443,48.9778547],[39.7270453,48.9752932],[39.724818,48.9765626],[39.724476,48.9780659],[39.7261598,48.9785086],[39.7264797,48.9786763],[39.7263788,48.9794586],[39.7252246,48.9802334],[39.7233621,48.9805175],[39.7215189,48.9812862],[39.7205544,48.9814663],[39.7189743,48.9816269],[39.7176204,48.982352],[39.7176885,48.9827446],[39.7179212,48.9833749],[39.7176153,48.9843606],[39.7174111,48.9845859],[39.7168955,48.9846986],[39.7167214,48.98491],[39.7164977,48.9856079],[39.7169164,48.9862399],[39.7169168,48.9865476],[39.7167673,48.9870644],[39.7157096,48.9879895],[39.7155438,48.9882232],[39.7154054,48.9885779],[39.7154291,48.9894],[39.7153475,48.9897066],[39.7150558,48.9898974],[39.713503,48.9895829],[39.712101,48.9899574],[39.7118016,48.9901915],[39.7107522,48.9915328],[39.7097347,48.9919487],[39.7076603,48.9924296],[39.7074317,48.9933462],[39.7074231,48.994063],[39.7069211,48.9950622],[39.7048355,48.9973999],[39.7039514,48.9987228],[39.7020651,48.9994149],[39.6999944,49.0004556],[39.6989215,49.0006583],[39.696958,48.9998926],[39.6933423,48.9990394],[39.6911752,48.9967306],[39.6912183,48.9960549],[39.6769283,48.9895361],[39.6634093,49.0008695],[39.6702746,49.0031459],[39.6792023,49.0128842],[39.6736555,49.0149315],[39.6756613,49.0268858],[39.6817337,49.0287303],[39.6835795,49.0369223],[39.6731505,49.0391727],[39.6929349,49.0495248],[39.729675,49.0430052],[39.7681225,49.0402983],[39.7887186,49.0499747],[39.8031412,49.0591995],[39.8203073,49.0582996],[39.8752387,49.0654984],[39.9088872,49.0574038],[39.9377233,49.0560499],[39.9425299,49.0713444],[39.9387357,49.0832597],[39.9727224,49.1252911],[39.9974614,49.1473102],[40.0315729,49.1802382],[40.0761276,49.1868252],[40.0927571,49.2031613],[40.1082875,49.2108803],[40.1217662,49.2307081],[40.1365378,49.2391541],[40.1768242,49.2368702],[40.209671,49.2417753],[40.2143684,49.2448843],[40.2208041,49.2577711],[40.2192618,49.2651691],[40.1859361,49.2840058],[40.1851963,49.3042066],[40.188524,49.3074409],[40.1910582,49.3179433],[40.1968119,49.3452254],[40.1918349,49.3483315],[40.1755684,49.3566161],[40.1701797,49.3563977],[40.1599319,49.3654561],[40.1620428,49.3682539],[40.1445965,49.3776647],[40.1124341,49.3857491],[40.0769068,49.4099548],[40.0593769,49.434088],[40.0480275,49.4443722],[40.029445,49.4537775],[40.041758,49.4991003],[40.037597,49.5198928],[40.1684327,49.5689182],[40.139523,49.5962718],[40.1352564,49.6162513],[40.0635357,49.5992308],[40.0567267,49.606571],[39.9522207,49.5965467],[39.9345988,49.5727807],[39.8902222,49.5583566],[39.8660215,49.5597836],[39.8389118,49.5635154],[39.8080571,49.5580478],[39.7683386,49.5852892],[39.7502298,49.5967168],[39.7127452,49.6059205],[39.6967454,49.6042891],[39.6869239,49.6115557],[39.6599932,49.6148084],[39.6383769,49.6350974],[39.6131314,49.6903603],[39.591959,49.7196306],[39.6083906,49.7339069],[39.5338327,49.7408455],[39.4787588,49.7564723],[39.438199,49.7600039],[39.4120602,49.7531086],[39.3769608,49.7384218],[39.3079217,49.7530412],[39.2855581,49.755664],[39.2799634,49.7609078],[39.2754686,49.7680241],[39.2646369,49.7684778],[39.2503694,49.7777994],[39.2403698,49.7911204],[39.2391442,49.7982241],[39.2289901,49.8084299],[39.2281121,49.8165004],[39.2256545,49.8401819],[39.1883931,49.8862199],[39.1784,49.8879987],[39.1285048,49.8597951],[39.1111368,49.839044],[39.0697611,49.8187284],[39.066231,49.8153466],[39.0335202,49.82237],[39.0216582,49.8209079],[38.9849036,49.8077809],[38.9711357,49.8072184],[38.9648911,49.8038751],[38.9488141,49.796072],[38.946661,49.7978041],[38.9394903,49.8006646],[38.9364393,49.8002009],[38.9334722,49.7997759],[38.9329084,49.7975781],[38.9307509,49.7971714],[38.9278092,49.7985739],[38.9274188,49.8013787],[38.9286977,49.8038859],[38.9259171,49.8041649],[38.9203554,49.804944],[38.9191867,49.8089397],[38.9161611,49.8127213],[38.9190365,49.8138599],[38.9182637,49.8148081],[38.9122526,49.8180335],[38.9098426,49.8182812],[38.9087973,49.8227646],[38.9073906,49.8284099],[38.9135056,49.8286273],[38.9150923,49.8310564],[38.9113965,49.8345865],[38.9143051,49.8369976],[38.9125661,49.8435934],[38.9065326,49.8446545],[38.9042752,49.8488149],[38.9096681,49.850847],[38.9195172,49.8586388],[38.9093357,49.8601006],[38.898465,49.8704141],[38.8764137,49.8694205],[38.8751339,49.8685366],[38.87459,49.8678766],[38.8745611,49.8666358],[38.8693967,49.8644861],[38.8668357,49.864889],[38.8653186,49.8660268],[38.8627136,49.8658678],[38.8571602,49.8680113],[38.8566102,49.8686469],[38.855853,49.8688883],[38.854455,49.868193],[38.8541729,49.8678573],[38.8541605,49.8674272],[38.8538353,49.8671201],[38.8520263,49.8665061],[38.8514124,49.8661631],[38.8506137,49.8658643],[38.8491023,49.8651008],[38.8467233,49.8654823],[38.846128,49.8657198],[38.845667,49.8658073],[38.8439298,49.8651801],[38.8432878,49.8651428],[38.8393432,49.8657594],[38.8389639,49.8660243],[38.8360165,49.8671348],[38.8363444,49.8673642],[38.8348111,49.8690675],[38.8346623,49.8709528],[38.8366818,49.8721511],[38.8356992,49.8738284],[38.8349355,49.8743344],[38.8344381,49.8745717],[38.8329709,49.8747421],[38.827761,49.8771566],[38.8270396,49.8777541],[38.8260257,49.8783681],[38.8244268,49.8789324],[38.8224303,49.878982],[38.7949557,49.8833076],[38.7901479,49.8785076],[38.7834858,49.8811108],[38.777681,49.8853176],[38.7682298,49.8960418],[38.7438449,49.8973048],[38.742281,49.8989189],[38.7338438,49.9050226],[38.7232453,49.927003],[38.6928985,49.9347634],[38.685298,49.9603414],[38.7153131,49.9823814],[38.7151347,49.9877076],[38.6874838,50.0058341],[38.6842822,50.0074883],[38.6797076,50.0025228],[38.6760522,49.9928115],[38.6797293,49.9744915],[38.6669388,49.9721541],[38.6461941,49.9559349],[38.6160761,49.9743876],[38.5815678,49.9774138],[38.5267136,49.9582684],[38.5078966,49.9640277],[38.4877041,49.9635998],[38.4832986,49.9765256],[38.4775179,49.9832689],[38.465912,49.9839589],[38.4680378,49.9952445],[38.4340933,50.0010164],[38.4160059,49.9813358],[38.3975608,49.9905828],[38.3495729,50.0064418],[38.3541621,50.019046],[38.3511987,50.0347384],[38.333974,50.0590905],[38.3290971,50.0852049],[38.3126358,50.0885826],[38.300294,50.0866717],[38.2927791,50.079324],[38.2770672,50.0729966],[38.2463336,50.0731122],[38.1785128,50.0797945],[38.1787134,50.0777809],[38.1790856,50.0774198],[38.1818466,50.0678015],[38.1819184,50.0668677],[38.1850647,50.0556901],[38.1838253,50.0458296],[38.1875578,50.0410481],[38.1880071,50.0393948],[38.1882313,50.0307843],[38.1886702,50.0268599],[38.1883893,50.0244699],[38.1881577,50.0234077],[38.1862524,50.0227729],[38.1853816,50.0220685],[38.1869793,50.0214602],[38.1924386,50.0137928],[38.1971766,50.0082193],[38.2009438,50.0046565],[38.2008054,50.0036314],[38.202641,50.0016684],[38.2050047,50.0007676],[38.2046727,49.9982874],[38.2050272,49.9967451],[38.2077102,49.9915087],[38.2098144,49.9901953],[38.21085,49.9892452],[38.2155322,49.9881847],[38.2164377,49.9871793],[38.2552452,49.9095324],[38.1769678,49.8422717],[38.1879541,49.7394299],[38.1330224,49.5972206],[38.168728,49.5544768],[38.1083031,49.4438818],[38.1440087,49.3884906],[38.2341027,49.3692379],[38.2251763,49.2156332],[38.1839778,49.2021756],[38.1832912,49.1617809],[38.17845,49.1332302],[38.2280542,49.063784],[38.2675244,49.0401423],[38.3036591,49.0451495],[38.3344555,49.0326858],[38.3403622,49.0424549],[38.3448781,49.0468691],[38.3553409,49.0539603],[38.4068496,49.0360301],[38.4199637,49.0292207],[38.4241518,49.0154741]]],[[[37.2231318,49.1194034],[37.2160909,49.1312467],[37.1575768,49.1411247],[37.1256662,49.143124],[37.1040567,49.1506187],[37.072951,49.1599985],[37.0425229,49.1653288],[37.0297762,49.1562483],[37.047238,49.1478409],[37.0384608,49.1377036],[37.0328474,49.1295083],[36.9845681,49.1228908],[36.9818475,49.1162122],[36.9706313,49.1073509],[36.9761958,49.1025911],[36.9944181,49.1078618],[37.0099372,49.1048137],[37.0393266,49.1156171],[37.1078685,49.1187591],[37.1596188,49.1022147],[37.1932568,49.072998],[37.1740816,49.0339706],[37.156272,49.0048355],[37.157704,48.9933109],[37.1946311,48.9853939],[37.234294,48.9792667],[37.2650214,48.9848434],[37.2646275,48.9935724],[37.2539491,49.032019],[37.2466141,49.039979],[37.2289274,49.0941729],[37.2326181,49.1025465],[37.230129,49.1157503],[37.2292562,49.1200134],[37.2231318,49.1194034]]],[[[36.253144,50.2868846],[36.3186683,50.2488955],[36.3932684,50.2292829],[36.404132,50.201989],[36.4325223,50.2083996],[36.4557925,50.2609576],[36.4873379,50.2700415],[36.5117294,50.2957389],[36.5006164,50.2997138],[36.4974518,50.3026809],[36.4916824,50.306109],[36.4900326,50.3082211],[36.4898228,50.3101431],[36.4876107,50.3125689],[36.440232,50.3121304],[36.4343955,50.3294479],[36.4335372,50.3308725],[36.4282157,50.3296671],[36.4250717,50.3281602],[36.4246744,50.3273108],[36.4231614,50.3265984],[36.4216486,50.3240776],[36.4188589,50.3216662],[36.4158981,50.3185426],[36.4133879,50.316323],[36.4086559,50.3122261],[36.3998055,50.3071422],[36.375687,50.3007281],[36.374228,50.3005087],[36.3788628,50.2938745],[36.3665454,50.2882265],[36.361439,50.2874037],[36.3544025,50.289026],[36.3285675,50.2897814],[36.3047488,50.2921855],[36.2969798,50.2922294],[36.2992973,50.2992478],[36.2857359,50.2989736],[36.2855643,50.3034691],[36.2843627,50.3064296],[36.2757795,50.3173921],[36.278526,50.3233108],[36.2733762,50.3241876],[36.2840193,50.3349268],[36.2768095,50.3404051],[36.2553627,50.3551935],[36.2409448,50.3584782],[36.2329185,50.3646923],[36.2307274,50.3715632],[36.2134317,50.3837418],[36.2026518,50.3961376],[36.1832512,50.4056039],[36.1772385,50.4021578],[36.1621391,50.3566171],[36.1579117,50.25853],[36.1902732,50.2555733],[36.2087445,50.2547696],[36.253144,50.2868846]]],[[[36.8273606,50.2667079],[36.835955,50.2336182],[36.893628,50.2165645],[36.8804023,50.1082765],[36.8858808,50.0702722],[36.9115614,50.0288593],[36.8932611,50.0052749],[36.8982123,49.9986475],[36.9166509,49.9982302],[36.9268484,49.9942796],[36.9223694,49.9914351],[36.9130844,49.9916802],[36.9020718,49.9780424],[36.9070927,49.9634447],[36.9011276,49.9523805],[36.9073532,49.949493],[36.9252276,49.9516938],[36.9504714,49.9417463],[36.9484994,49.9335676],[36.9528786,49.9285927],[36.9585658,49.9266891],[36.9624384,49.9284996],[36.9695246,49.925426],[36.9883444,49.9249939],[37.0046192,49.9186981],[37.0061286,49.9108542],[36.999645,49.8911063],[37.0126776,49.8604924],[37.0030213,49.842672],[37.0060103,49.8300704],[36.9239557,49.7899688],[36.9261192,49.7668131],[36.8640668,49.7351079],[36.8196369,49.7278563],[36.7712649,49.7335708],[36.7562417,49.7192596],[36.8229794,49.7075077],[36.8832236,49.6531316],[36.8668858,49.6232094],[36.8503774,49.612775],[36.8201407,49.6139031],[36.7727245,49.6072471],[36.7802415,49.597719],[36.8221038,49.5985168],[36.8739132,49.5979623],[36.9151867,49.6079434],[36.946157,49.5974445],[36.9653119,49.5776544],[36.8842751,49.4910446],[36.8128931,49.5067399],[36.7800535,49.4872899],[36.7912003,49.4463554],[36.834411,49.4207154],[36.8256563,49.4074254],[36.8373044,49.3951195],[36.861751,49.3795729],[36.8703958,49.3749831],[36.8947717,49.3829739],[36.8961471,49.3967484],[36.9224161,49.4038867],[36.9363282,49.4036487],[36.968462,49.3829611],[37.0149931,49.3791238],[37.0455412,49.380712],[37.0523174,49.382902],[37.0628708,49.3839738],[37.0824696,49.3655598],[37.1024007,49.3565323],[37.1034629,49.3465284],[37.1105803,49.3393765],[37.1231882,49.3333422],[37.1280312,49.3358618],[37.1363078,49.3354726],[37.1343426,49.3332217],[37.1286011,49.331642],[37.1287912,49.3302723],[37.1425418,49.3324832],[37.1604109,49.3257421],[37.0750054,49.268065],[37.0969421,49.2591737],[37.1415032,49.2289835],[37.2342026,49.2182938],[37.2354042,49.2022571],[37.2470773,49.1781362],[37.2160909,49.1312467],[37.2231318,49.1194034],[37.2292562,49.1200134],[37.2326181,49.1025465],[37.2289274,49.0941729],[37.2466141,49.039979],[37.2539491,49.032019],[37.2809833,49.0345994],[37.3818329,49.0630918],[37.4444482,49.0778811],[37.4603488,49.0782883],[37.4640184,49.0836146],[37.4574531,49.0905561],[37.4456115,49.0925757],[37.441752,49.0950996],[37.412011,49.0978473],[37.3929075,49.1064344],[37.3964535,49.1100207],[37.4032524,49.1221347],[37.4039773,49.1400678],[37.4021649,49.1514442],[37.4075631,49.1628206],[37.4220954,49.1666669],[37.4366279,49.163552],[37.4700576,49.1623672],[37.4998958,49.1537673],[37.5395301,49.1433914],[37.5832466,49.1278543],[37.6149462,49.1169607],[37.6294666,49.0997704],[37.6847367,49.0462602],[37.7209818,49.0375935],[37.74279,49.0356977],[37.7805767,49.0422807],[37.8235141,49.0369272],[37.8502866,49.0288321],[37.868119,49.0063247],[37.8888902,48.9783905],[37.9179003,48.9579849],[37.9179398,48.920543],[37.9317495,48.9142834],[37.9408562,48.9074797],[37.9468681,48.9114674],[37.9509044,48.9123893],[37.9545973,48.91207],[37.9568754,48.9088081],[37.9561358,48.9075272],[37.9548219,48.905561],[37.9521348,48.903369],[37.9529735,48.9018509],[37.9610014,48.9012689],[37.9702309,48.9026328],[37.9736947,48.9038089],[37.9751264,48.9070485],[37.9789618,48.910965],[37.9834235,48.9112039],[37.9864698,48.9114924],[37.9891088,48.9109315],[37.9914583,48.9089021],[37.9925042,48.9063924],[37.9936279,48.9060964],[37.9950481,48.9074999],[37.9949858,48.9095555],[37.9970694,48.9112727],[37.9999859,48.9112285],[38.0042765,48.9089217],[38.0053487,48.907458],[38.0055197,48.905148],[38.0061818,48.9048773],[38.007457,48.9055599],[38.008481,48.9087783],[38.0094225,48.9093722],[38.0113953,48.9096409],[38.0134547,48.9081957],[38.0148064,48.90806],[38.0159865,48.9088833],[38.0166088,48.9115681],[38.0174351,48.9120927],[38.0196936,48.9125524],[38.0207518,48.9133723],[38.0202509,48.9152771],[38.0204367,48.9170691],[38.0256005,48.9173554],[38.0272091,48.9163229],[38.0281851,48.9146503],[38.0290752,48.9142187],[38.0304138,48.9146885],[38.031495,48.9171042],[38.037349,48.9255452],[38.0441239,48.9351512],[38.0574623,48.9400682],[38.0643634,48.9373624],[38.0904908,48.9405176],[38.0947132,48.9357836],[38.1141658,48.9322081],[38.117368,48.9281641],[38.1198832,48.9268268],[38.1274882,48.9268863],[38.1332902,48.9245205],[38.1368611,48.9258061],[38.1398316,48.931603],[38.1423395,48.9331592],[38.2012874,48.928142],[38.2230444,48.9344989],[38.2308351,48.9385785],[38.2338203,48.944462],[38.2281174,48.9476605],[38.2265338,48.9522116],[38.2309224,48.9552258],[38.2387446,48.9564362],[38.2563067,48.9599226],[38.2605385,48.969151],[38.2423781,49.0034155],[38.2463928,49.0069101],[38.2638985,49.0243909],[38.2906715,49.0254312],[38.3214108,49.0122361],[38.3294765,49.0075174],[38.33035,49.0065726],[38.3351084,49.0029725],[38.3412099,49.0007319],[38.3425647,49.0019117],[38.3438042,49.0042337],[38.3452163,49.0056545],[38.3456361,49.0065266],[38.3460135,49.0073975],[38.3419272,49.0109707],[38.3386376,49.0160011],[38.3377475,49.0177882],[38.3315352,49.024416],[38.3344555,49.0328516],[38.3037949,49.0455768],[38.2676599,49.0405696],[38.2281893,49.0642113],[38.1785847,49.1336575],[38.1834259,49.1622082],[38.1841125,49.2026029],[38.2253114,49.2160605],[38.234238,49.3696652],[38.1441432,49.3889179],[38.1084373,49.4443091],[38.1688628,49.5549041],[38.1331568,49.5976479],[38.188089,49.7398572],[38.1771027,49.842699],[38.2553808,49.9099597],[38.216573,49.9876066],[38.2156066,49.9777863],[38.1959941,49.9697545],[38.1961657,49.966221],[38.1980541,49.9625772],[38.1628633,49.9518645],[38.171618,49.9423646],[38.1345345,49.9284439],[38.1269859,49.9224751],[38.1290464,49.930431],[38.1249259,49.9423646],[38.058321,49.9246854],[38.0460449,49.9155111],[38.0360907,49.9043463],[38.0264573,49.9063919],[38.0197407,49.9124169],[38.0125948,49.9187722],[38.0200511,49.9212315],[38.0170362,49.9247959],[38.044073,49.9329733],[38.0330867,49.9441322],[38.0241637,49.9519742],[38.0092287,49.9629079],[38.0089697,49.964951],[38.0052774,49.9676566],[37.9992691,49.9642336],[37.979015,49.9772627],[37.9649367,49.9794697],[37.9554952,49.9948114],[37.9251111,50.0352944],[37.8921577,50.0511736],[37.8616007,50.0556922],[37.8502662,50.0593254],[37.8186873,50.0722192],[37.7973943,50.0842255],[37.754822,50.0782772],[37.7467611,50.0921533],[37.7359496,50.0985395],[37.7108765,50.1236427],[37.6898104,50.1429953],[37.676862,50.149592],[37.6713929,50.1513511],[37.6549338,50.1663075],[37.6455018,50.1752136],[37.6411281,50.1759286],[37.6395006,50.1814807],[37.6426038,50.1909372],[37.6133722,50.2195175],[37.627271,50.2423489],[37.6253798,50.2449775],[37.6270942,50.2642892],[37.6270975,50.2928167],[37.6286433,50.2961102],[37.6384302,50.3029125],[37.6367184,50.3103765],[37.63423,50.3126245],[37.6296815,50.3146531],[37.600326,50.3165153],[37.5857335,50.3147617],[37.5773233,50.3064297],[37.5549391,50.3305437],[37.5209038,50.3366812],[37.5059416,50.3502646],[37.5064266,50.3526742],[37.4854324,50.3567928],[37.4831489,50.3593778],[37.4827012,50.3621383],[37.4715034,50.370506],[37.4711179,50.3754795],[37.467835,50.3788421],[37.4652381,50.384394],[37.4660968,50.3883054],[37.4664382,50.397882],[37.4666056,50.4073496],[37.4652277,50.4133155],[37.4660428,50.4181275],[37.4649698,50.4211898],[37.4637254,50.4247994],[37.4662576,50.4301588],[37.4695618,50.4312253],[37.481449,50.4316353],[37.4858272,50.4357354],[37.4849252,50.4452451],[37.4907201,50.4579263],[37.4775874,50.4598932],[37.4735478,50.455797],[37.4677923,50.4532307],[37.4430687,50.4476578],[37.4325975,50.4438858],[37.4210992,50.4353026],[37.3963912,50.4312523],[37.3758225,50.4329674],[37.3524043,50.4376481],[37.3325906,50.4370794],[37.3202873,50.4330534],[37.3159391,50.4302479],[37.3089637,50.4257279],[37.3101216,50.4230308],[37.3048921,50.4152289],[37.302834,50.4118656],[37.300045,50.4065188],[37.2978782,50.4052676],[37.2927071,50.401664],[37.2573281,50.3914542],[37.2562848,50.3928417],[37.2218539,50.3793619],[37.2233578,50.3780919],[37.1826393,50.363681],[37.1598405,50.3588075],[37.1488546,50.3557411],[37.1423308,50.3616549],[37.1033635,50.3577124],[37.1038786,50.3528933],[37.0710027,50.3472557],[37.058729,50.3468717],[37.0455134,50.3450064],[37.0369336,50.3486346],[36.9380528,50.3507026],[36.9174397,50.3475324],[36.8879069,50.337784],[36.8734001,50.3368263],[36.8547757,50.3306068],[36.8511744,50.3269334],[36.8329954,50.3138845],[36.8061269,50.3107634],[36.799174,50.3063244],[36.7674205,50.3027019],[36.7642019,50.2908312],[36.7579133,50.2895978],[36.7536848,50.2895981],[36.747932,50.287487],[36.7505891,50.2859247],[36.750889,50.2832752],[36.7487857,50.2806257],[36.8273606,50.2667079]]]]}}]}
