{"type":"FeatureCollection","name":"deepstatemap_data_20230514","sourceHistoryId":1684101275,"sourceCreatedAt":"2023-05-14T21:54:35.000Z","crs":{"type":"name","properties":{"name":"urn:ogc:def:crs:OGC:1.3:CRS84"}},"features":[{"type":"Feature","properties":{"controlStatus":"russian_occupied"},"geometry":{"type":"MultiPolygon","coordinates":[[[[32.2856652,46.4892734],[32.2966515,46.4840138],[32.3196542,46.4776307],[32.3189675,46.4716016],[32.3102128,46.469237],[32.3194825,46.4678182],[32.3412835,46.4704193],[32.3409402,46.478931],[32.3469483,46.4818862],[32.3570764,46.4834228],[32.3666894,46.4893325],[32.3811089,46.4879142],[32.3852288,46.4914598],[32.3929536,46.490278],[32.4044549,46.4950052],[32.4260842,46.4926416],[32.4253118,46.4890961],[32.4213635,46.4872051],[32.4218785,46.4859641],[32.4272859,46.4857277],[32.4308907,46.4908098],[32.4305474,46.4949461],[32.4365556,46.5027451],[32.4058282,46.5038085],[32.3857438,46.4982549],[32.3672044,46.4943552],[32.3622262,46.4931439],[32.348621,46.4886095],[32.3316705,46.4858459],[32.3091828,46.4918735],[32.2856652,46.4892734]]],[[[36.519242,45.293988],[36.50714,45.295558],[36.518298,45.288856],[36.533319,45.279798],[36.537782,45.273999],[36.54585,45.26808],[36.549112,45.261314],[36.571599,45.250076],[36.578294,45.249048],[36.557012,45.267052],[36.547052,45.279677],[36.531774,45.286199],[36.519242,45.293988]]],[[[39.082891,47.851604],[39.109389,47.851752],[39.109535,47.842747],[39.149682,47.842582],[39.236213,47.853953],[39.241734,47.867014],[39.39045,47.866185],[39.412529,47.830898],[39.437354,47.839834],[39.44625,47.850644],[39.478474,47.859474],[39.520308,47.825141],[39.534491,47.83253],[39.542168,47.824981],[39.565587,47.836556],[39.73791,47.827729],[39.763184,47.846537],[39.762505,47.870145],[39.794941,47.866833],[39.793904,47.915897],[39.806594,47.933666],[39.805888,47.950562],[39.827391,47.950834],[39.819844,47.967762],[39.815408,47.970866],[39.815117,47.973617],[39.817538,47.976646],[39.819849,47.977446],[39.822798,47.979535],[39.823031,47.98354],[39.816717,47.984542],[39.81618,47.992798],[39.817916,47.994778],[39.813771,47.996697],[39.813736,47.998502],[39.816518,48.000116],[39.81672,48.001463],[39.810975,48.004856],[39.804541,48.006459],[39.802998,48.007948],[39.797687,48.009306],[39.795218,48.010703],[39.785081,48.023125],[39.786777,48.025034],[39.779662,48.039336],[39.877208,48.041378],[39.885886,48.047866],[39.832202,48.0665],[39.868584,48.079444],[39.879951,48.115164],[39.910275,48.138416],[39.909184,48.16933],[39.913886,48.178015],[39.940934,48.18081],[39.942194,48.230744],[39.953304,48.229408],[39.972276,48.227025],[40.000868,48.225245],[40.003379,48.223686],[40.00754,48.223312],[40.008396,48.225139],[40.008222,48.228104],[40.007443,48.230091],[40.004342,48.232348],[40.003977,48.236061],[40.002732,48.237535],[40.003076,48.239476],[40.007323,48.242058],[40.01951,48.252508],[40.018862,48.253116],[40.01892,48.254104],[40.018671,48.255051],[40.018989,48.25706],[40.015504,48.262679],[40.016777,48.269458],[40.01383,48.27159],[40.008963,48.272654],[39.999745,48.28929],[40.000534,48.291716],[39.9966,48.297938],[39.995017,48.300847],[39.994253,48.303181],[39.992658,48.305619],[39.991922,48.306002],[39.99208,48.309735],[39.993984,48.312006],[39.994188,48.312696],[39.993522,48.312877],[39.993222,48.313596],[39.990989,48.316061],[39.991074,48.316582],[39.990815,48.317082],[39.986949,48.317512],[39.985311,48.317001],[39.98418,48.316207],[39.982518,48.315704],[39.980311,48.315784],[39.9789,48.315713],[39.977623,48.315173],[39.975498,48.31432],[39.974425,48.313471],[39.972492,48.312971],[39.971029,48.311629],[39.97188,48.309716],[39.970793,48.308971],[39.971236,48.307796],[39.971265,48.307302],[39.970808,48.307084],[39.968735,48.307134],[39.967636,48.306805],[39.966383,48.306776],[39.965678,48.306403],[39.965814,48.305656],[39.965441,48.304678],[39.964838,48.304458],[39.963882,48.303463],[39.963208,48.30326],[39.963063,48.302596],[39.963545,48.302126],[39.964466,48.302099],[39.965793,48.302715],[39.96697,48.302832],[39.968018,48.302835],[39.969463,48.303131],[39.971011,48.302796],[39.971031,48.301487],[39.970616,48.301179],[39.970213,48.300391],[39.97061,48.298986],[39.970224,48.298747],[39.96958,48.298638],[39.967454,48.299147],[39.966722,48.299651],[39.966159,48.299803],[39.964946,48.299649],[39.963337,48.299085],[39.960677,48.299441],[39.95969,48.29924],[39.959305,48.298838],[39.958283,48.29805],[39.955975,48.299256],[39.955748,48.299894],[39.955928,48.300333],[39.956375,48.300525],[39.956881,48.301109],[39.956744,48.302164],[39.956822,48.302619],[39.95666,48.303185],[39.955606,48.303746],[39.954057,48.304012],[39.952975,48.303915],[39.951971,48.303551],[39.951721,48.30305],[39.951995,48.302392],[39.951769,48.302131],[39.952219,48.301038],[39.951958,48.300093],[39.949848,48.299401],[39.949619,48.298845],[39.950836,48.297733],[39.950737,48.297222],[39.949037,48.296715],[39.948426,48.2961],[39.948411,48.294295],[39.947227,48.294163],[39.946532,48.293784],[39.945958,48.292741],[39.94481,48.292027],[39.943716,48.29191],[39.941612,48.292849],[39.938521,48.292127],[39.937703,48.292225],[39.936882,48.291565],[39.936615,48.289958],[39.937024,48.288116],[39.93664,48.286887],[39.936215,48.285058],[39.935023,48.28377],[39.934098,48.283479],[39.933277,48.283753],[39.932108,48.28373],[39.930585,48.283285],[39.930156,48.282764],[39.930286,48.28238],[39.932176,48.281213],[39.934112,48.280735],[39.934978,48.27975],[39.934695,48.279066],[39.932875,48.279241],[39.931596,48.277992],[39.929638,48.277779],[39.927869,48.276582],[39.927291,48.275387],[39.925836,48.273969],[39.925628,48.273588],[39.925899,48.272969],[39.925969,48.27216],[39.924907,48.271485],[39.922955,48.271306],[39.921069,48.27166],[39.919657,48.271298],[39.91898,48.270601],[39.917496,48.270094],[39.914829,48.269678],[39.91426,48.269847],[39.91458,48.270755],[39.915049,48.271344],[39.914753,48.271887],[39.914065,48.271958],[39.913076,48.271193],[39.911139,48.27102],[39.910269,48.271645],[39.910589,48.272153],[39.911831,48.27277],[39.912254,48.273746],[39.911385,48.275269],[39.910418,48.276031],[39.909686,48.276012],[39.909508,48.276717],[39.90822,48.277008],[39.908434,48.278133],[39.910064,48.27901],[39.909377,48.280766],[39.910753,48.282907],[39.911103,48.285018],[39.909745,48.287526],[39.912695,48.288202],[39.910188,48.292982],[39.903117,48.29889],[39.886916,48.304089],[39.887968,48.307317],[39.887199,48.308777],[39.841068,48.310051],[39.842102,48.31831],[39.840394,48.329117],[39.845217,48.329499],[39.845593,48.332774],[39.859703,48.334566],[39.877934,48.334073],[39.918581,48.341692],[39.918603,48.347207],[39.930727,48.348957],[39.943644,48.34812],[39.947507,48.35523],[39.94253,48.354963],[39.944422,48.357166],[39.939451,48.360773],[39.940668,48.365023],[39.93675,48.367136],[39.934751,48.372274],[39.943278,48.383791],[39.941535,48.387072],[39.938309,48.387562],[39.935271,48.384697],[39.93189,48.376929],[39.926845,48.375075],[39.92122,48.375928],[39.917522,48.379228],[39.916306,48.384231],[39.914558,48.386827],[39.907802,48.388712],[39.905962,48.390316],[39.906743,48.392269],[39.917405,48.39481],[39.918644,48.397611],[39.91605,48.40061],[39.908459,48.402052],[39.906312,48.403562],[39.906484,48.407494],[39.912763,48.41558],[39.910297,48.421956],[39.895926,48.429242],[39.888817,48.441993],[39.889864,48.443571],[39.896766,48.44422],[39.898555,48.445972],[39.897326,48.448112],[39.857752,48.463363],[39.846338,48.473712],[39.847753,48.485678],[39.847884,48.495108],[39.846469,48.499306],[39.84871,48.50284],[39.853191,48.503425],[39.856659,48.501636],[39.861877,48.501924],[39.866135,48.504775],[39.866756,48.508883],[39.857486,48.537401],[39.858045,48.545366],[39.854533,48.552999],[39.85763,48.561413],[39.846829,48.572934],[39.821685,48.578332],[39.820604,48.579285],[39.825482,48.581645],[39.826311,48.584207],[39.825051,48.586152],[39.82236,48.586636],[39.812855,48.583855],[39.80861,48.583972],[39.804495,48.585454],[39.800216,48.589553],[39.796119,48.591847],[39.789985,48.593369],[39.773425,48.592326],[39.772062,48.591601],[39.770368,48.587994],[39.754759,48.583],[39.751295,48.58209],[39.75055,48.583338],[39.751054,48.588836],[39.749038,48.590243],[39.746721,48.590673],[39.744319,48.590057],[39.738743,48.586838],[39.734629,48.585851],[39.730178,48.585919],[39.726252,48.586624],[39.723379,48.586216],[39.721237,48.584834],[39.714893,48.585248],[39.702546,48.587778],[39.697765,48.58716],[39.691635,48.586378],[39.687271,48.587084],[39.677288,48.587563],[39.676516,48.588188],[39.672224,48.588414],[39.667589,48.586768],[39.658748,48.585632],[39.657547,48.584667],[39.635316,48.58004],[39.631969,48.580693],[39.623644,48.586087],[39.622828,48.586371],[39.621927,48.585803],[39.62124,48.581942],[39.61755,48.577115],[39.61373,48.5749],[39.612486,48.572913],[39.608022,48.572714],[39.603645,48.574106],[39.596313,48.575029],[39.594989,48.576691],[39.594804,48.57933],[39.600641,48.585746],[39.604074,48.586257],[39.605018,48.586768],[39.604589,48.588812],[39.601757,48.591537],[39.596349,48.592389],[39.592536,48.591297],[39.581771,48.585038],[39.577779,48.582881],[39.576535,48.581234],[39.573347,48.580522],[39.568071,48.58185],[39.562968,48.583632],[39.563145,48.586231],[39.566051,48.588301],[39.567277,48.590239],[39.567302,48.59212],[39.565634,48.593952],[39.563304,48.597441],[39.56176,48.598008],[39.55867,48.598008],[39.551202,48.595568],[39.549486,48.59324],[39.550559,48.588585],[39.549314,48.585973],[39.545022,48.583929],[39.537384,48.58339],[39.531204,48.58427],[39.528715,48.585945],[39.526912,48.58955],[39.528131,48.591841],[39.533208,48.593631],[39.533588,48.59546],[39.532423,48.596439],[39.528046,48.597177],[39.525385,48.598198],[39.522633,48.602977],[39.523479,48.605103],[39.52728,48.608275],[39.52782,48.60946],[39.527182,48.611263],[39.525723,48.613022],[39.516784,48.618099],[39.511647,48.621874],[39.511978,48.623546],[39.515424,48.626186],[39.516269,48.62797],[39.516711,48.629986],[39.516024,48.632199],[39.514088,48.633837],[39.510434,48.634454],[39.500435,48.632554],[39.495543,48.632128],[39.493011,48.630426],[39.486273,48.628895],[39.484148,48.6282],[39.476102,48.628753],[39.468592,48.627448],[39.46563,48.628186],[39.464011,48.631064],[39.464268,48.634014],[39.46739,48.637233],[39.465813,48.638665],[39.457562,48.638651],[39.454215,48.639786],[39.45164,48.641033],[39.449575,48.644557],[39.449798,48.650401],[39.451308,48.651708],[39.453385,48.652812],[39.452373,48.65471],[39.450176,48.655672],[39.446501,48.656301],[39.438948,48.65494],[39.432323,48.656749],[39.420746,48.658223],[39.414232,48.656692],[39.410694,48.657656],[39.408033,48.65981],[39.408205,48.661454],[39.413526,48.66684],[39.41387,48.668427],[39.411724,48.670524],[39.405821,48.673812],[39.402645,48.674435],[39.397991,48.674605],[39.390524,48.678799],[39.38917,48.680386],[39.390929,48.683758],[39.389599,48.684749],[39.381702,48.685514],[39.379557,48.686279],[39.377986,48.686237],[39.367316,48.691974],[39.36589,48.692229],[39.360311,48.695798],[39.355953,48.697214],[39.350503,48.707637],[39.348657,48.708713],[39.346855,48.712224],[39.348638,48.713471],[39.354131,48.713244],[39.360159,48.715679],[39.365266,48.71684],[39.370458,48.715962],[39.37208,48.715934],[39.373787,48.717492],[39.374183,48.718652],[39.372604,48.71987],[39.369128,48.720068],[39.361532,48.722304],[39.355224,48.725249],[39.353722,48.726891],[39.354072,48.729646],[39.358875,48.733901],[39.358871,48.736175],[39.358192,48.737005],[39.349266,48.742496],[39.347206,48.745779],[39.347027,48.750212],[39.346176,48.751042],[39.343138,48.757361],[39.343363,48.759209],[39.345528,48.761661],[39.349172,48.762152],[39.351326,48.763094],[39.353893,48.76549],[39.354502,48.766828],[39.352781,48.767941],[39.351063,48.768547],[39.347243,48.768384],[39.340336,48.766301],[39.336134,48.76598],[39.33167,48.766602],[39.326603,48.768309],[39.326084,48.770015],[39.327483,48.772108],[39.327972,48.773692],[39.326256,48.775559],[39.324546,48.776049],[39.31459,48.774804],[39.311844,48.774069],[39.308832,48.771995],[39.303089,48.765414],[39.299913,48.763038],[39.292617,48.760605],[39.291494,48.759436],[39.290643,48.756248],[39.289281,48.753683],[39.28952,48.751514],[39.286434,48.748901],[39.28206,48.748608],[39.278887,48.749339],[39.276658,48.752333],[39.274776,48.753681],[39.272383,48.753887],[39.270809,48.752759],[39.270302,48.751212],[39.271675,48.74776],[39.270809,48.743987],[39.268663,48.741949],[39.264468,48.741252],[39.258535,48.742741],[39.256311,48.74227],[39.255023,48.740685],[39.255282,48.738774],[39.259229,48.733835],[39.256139,48.726872],[39.253962,48.724402],[39.253307,48.722059],[39.2539,48.720153],[39.24978,48.712564],[39.243515,48.709619],[39.239588,48.709125],[39.23599,48.711088],[39.232364,48.711412],[39.226785,48.708977],[39.224897,48.706768],[39.219404,48.705182],[39.207173,48.6983],[39.203182,48.698611],[39.200371,48.699999],[39.199148,48.702265],[39.198354,48.705777],[39.197517,48.706485],[39.196508,48.706513],[39.195106,48.703898],[39.1909,48.69982],[39.185415,48.693399],[39.181638,48.68575],[39.174249,48.680329],[39.163349,48.675739],[39.157434,48.675379],[39.151941,48.676286],[39.148672,48.675285],[39.144512,48.670911],[39.141898,48.66665],[39.141641,48.665063],[39.142671,48.663533],[39.141984,48.660868],[39.139488,48.65964],[39.127307,48.660471],[39.123187,48.660018],[39.116828,48.656748],[39.111936,48.653347],[39.103618,48.649869],[39.098554,48.650889],[39.084907,48.650662],[39.075894,48.651626],[39.07435,48.650436],[39.054866,48.647033],[39.042678,48.646466],[39.038082,48.647185],[39.035546,48.648243],[39.033447,48.651976],[39.032206,48.652874],[39.028508,48.653006],[39.019153,48.656975],[39.012372,48.658336],[39.010316,48.660084],[39.009633,48.662626],[39.01298,48.664043],[39.018559,48.6641],[39.021649,48.662399],[39.025426,48.661974],[39.027486,48.663249],[39.026284,48.667274],[39.023881,48.669882],[39.020534,48.672262],[39.020276,48.675606],[39.019582,48.679139],[39.016367,48.680943],[39.014354,48.683427],[39.015727,48.68864],[39.015548,48.694891],[39.004826,48.696345],[39.001815,48.698007],[38.999848,48.700198],[38.999505,48.703993],[38.998218,48.707674],[38.998986,48.711196],[38.996922,48.711602],[38.991923,48.710002],[38.986923,48.710158],[38.984305,48.711828],[38.984742,48.713621],[38.988862,48.715207],[38.993918,48.716189],[38.998046,48.717472],[38.999333,48.719624],[38.998389,48.724267],[38.991437,48.730608],[38.989541,48.734987],[38.984456,48.73758],[38.982203,48.740286],[38.982332,48.742189],[38.981216,48.743845],[38.978812,48.744892],[38.974997,48.744763],[38.972563,48.743584],[38.969832,48.743746],[38.966946,48.745204],[38.964092,48.746194],[38.961131,48.746137],[38.95993,48.742911],[38.961217,48.739911],[38.961045,48.736515],[38.956946,48.734067],[38.946067,48.734449],[38.943707,48.733854],[38.934009,48.735779],[38.932464,48.736798],[38.934352,48.742911],[38.937957,48.744071],[38.938858,48.745812],[38.938279,48.746682],[38.936959,48.747117],[38.935055,48.746854],[38.933665,48.746024],[38.93065,48.745274],[38.922722,48.745005],[38.921306,48.744609],[38.919967,48.743421],[38.918028,48.742911],[38.914321,48.744383],[38.912572,48.746873],[38.911135,48.748005],[38.908775,48.74925],[38.90474,48.750608],[38.901092,48.750905],[38.898818,48.750184],[38.892037,48.750438],[38.88133,48.750184],[38.880236,48.750608],[38.879077,48.752476],[38.877618,48.752589],[38.871692,48.751305],[38.863879,48.75138],[38.860955,48.750736],[38.860601,48.749788],[38.859378,48.74959],[38.855387,48.749646],[38.847148,48.742911],[38.836076,48.723267],[38.830067,48.717038],[38.808438,48.713414],[38.767067,48.71432],[38.753514,48.718492],[38.691716,48.729363],[38.674549,48.729363],[38.678412,48.723701],[38.630167,48.721172],[38.583218,48.71987],[38.578419,48.70943],[38.577732,48.696742],[38.572231,48.689056],[38.559446,48.686695],[38.548978,48.675294],[38.539451,48.673509],[38.527284,48.674642],[38.516148,48.670562],[38.515247,48.666367],[38.496708,48.663192],[38.480228,48.659111],[38.464428,48.656408],[38.445202,48.655048],[38.431476,48.650492],[38.419803,48.645048],[38.414302,48.638262],[38.408809,48.62964],[38.404689,48.616931],[38.404804,48.609098],[38.40607,48.60193],[38.402637,48.59194],[38.402637,48.547867],[38.414303,48.520605],[38.411563,48.51058],[38.405377,48.473366],[38.393024,48.436606],[38.389247,48.432278],[38.390964,48.415874],[38.367914,48.402171],[38.354228,48.390346],[38.343578,48.384437],[38.321754,48.371053],[38.290706,48.361631],[38.273689,48.359192],[38.25912,48.359806],[38.227684,48.367176],[38.214981,48.369],[38.207428,48.371509],[38.184768,48.37493],[38.150093,48.385419],[38.154445,48.395536],[38.163094,48.402117],[38.148548,48.414482],[38.135244,48.419039],[38.117477,48.420805],[38.113706,48.408013],[38.068504,48.408673],[38.042123,48.409086],[38.004802,48.393954],[37.978623,48.391275],[37.974959,48.381115],[37.970152,48.380317],[37.94704,48.375156],[37.93463,48.373991],[37.932944,48.361771],[37.910345,48.333106],[37.888751,48.316806],[37.884753,48.312293],[37.884532,48.298874],[37.88816,48.283639],[37.895347,48.268546],[37.89157,48.255061],[37.892943,48.233569],[37.896571,48.215429],[37.88333,48.199712],[37.856208,48.192846],[37.828593,48.17515],[37.824622,48.157818],[37.819855,48.143897],[37.8168038,48.1322916],[37.808937,48.1220791],[37.8063665,48.1200991],[37.8041065,48.1176711],[37.8002,48.114966],[37.792021,48.104528],[37.789283,48.100177],[37.773053,48.092032],[37.756436,48.08667],[37.746306,48.073475],[37.742788,48.072751],[37.699702,48.072204],[37.693049,48.069307],[37.687749,48.061894],[37.694294,48.056545],[37.691199,48.053406],[37.68785,48.054754],[37.669986,48.043363],[37.64781,48.028944],[37.622662,48.019444],[37.616482,48.018095],[37.601376,48.016946],[37.588566,48.016021],[37.575455,48.013961],[37.573394,48.006899],[37.556143,48.009855],[37.549621,47.997364],[37.558546,47.986451],[37.548482,47.979262],[37.539487,47.972632],[37.532003,47.964588],[37.525158,47.957202],[37.521854,47.94582],[37.52859,47.941498],[37.542839,47.932477],[37.539407,47.924236],[37.535029,47.917986],[37.5686,47.907768],[37.575907,47.907733],[37.644034,47.886626],[37.634262,47.838423],[37.634549,47.802538],[37.623169,47.77311],[37.637589,47.751994],[37.67268,47.724717],[37.764495,47.684702],[37.803977,47.660196],[37.801917,47.642388],[37.768615,47.635448],[37.782348,47.585916],[37.819427,47.546303],[37.892555,47.469773],[37.878478,47.441684],[37.863715,47.426588],[37.855819,47.403124],[37.856849,47.392898],[37.850326,47.384298],[37.83831,47.378022],[37.841643,47.369022],[37.851599,47.365534],[37.841743,47.358489],[37.837623,47.352442],[37.848609,47.350116],[37.859152,47.354371],[37.861212,47.347858],[37.856849,47.343603],[37.844489,47.341974],[37.829283,47.342507],[37.827323,47.328479],[37.824577,47.321498],[37.831786,47.314981],[37.834876,47.30823],[37.827666,47.302643],[37.833846,47.285412],[37.833503,47.249301],[37.851356,47.198938],[37.849982,47.174205],[37.818054,47.119099],[37.829283,47.112742],[37.83831,47.099704],[37.862171,47.106248],[37.87958,47.106667],[37.895473,47.110921],[37.983964,47.083576],[37.99023,47.091466],[37.979072,47.09281],[37.975882,47.095683],[37.993063,47.099003],[38.032545,47.08907],[38.040012,47.091875],[38.040785,47.096257],[38.054332,47.108302],[38.062671,47.110804],[38.08885,47.105956],[38.104662,47.095627],[38.122869,47.080622],[38.132826,47.06402],[38.131796,47.053729],[38.106046,47.047179],[38.080408,47.026545],[38.084988,47.020418],[38.163265,47.065455],[38.186556,47.093712],[38.211502,47.107183],[38.230118,47.119406],[38.228451,47.122673],[38.229247,47.127085],[38.231909,47.129692],[38.234068,47.135546],[38.236312,47.139527],[38.23559,47.196129],[38.234781,47.202589],[38.237378,47.208391],[38.239657,47.208713],[38.241055,47.210114],[38.241152,47.210543],[38.240825,47.210855],[38.241222,47.211753],[38.241847,47.212166],[38.241542,47.212529],[38.241893,47.214844],[38.242276,47.215302],[38.24228,47.216212],[38.24279,47.217117],[38.242505,47.217811],[38.241288,47.218482],[38.240507,47.218336],[38.239826,47.218731],[38.239897,47.219924],[38.240083,47.220149],[38.240047,47.221361],[38.23976,47.221618],[38.238759,47.221739],[38.238255,47.222409],[38.238714,47.223216],[38.238517,47.22364],[38.236442,47.224262],[38.236274,47.2245],[38.23641,47.225413],[38.236145,47.225608],[38.234648,47.225407],[38.233869,47.225801],[38.234011,47.227113],[38.233674,47.228017],[38.232862,47.22841],[38.232907,47.22919],[38.234334,47.230986],[38.235123,47.231097],[38.236248,47.230817],[38.237346,47.231216],[38.237809,47.232043],[38.239886,47.232412],[38.240751,47.232146],[38.241649,47.232812],[38.242767,47.232683],[38.246091,47.23411],[38.247703,47.233423],[38.253541,47.233616],[38.260502,47.238316],[38.288189,47.23856],[38.288043,47.2565],[38.324491,47.256821],[38.330785,47.263449],[38.330997,47.264575],[38.329143,47.266503],[38.333286,47.268272],[38.333735,47.268938],[38.33081,47.275932],[38.327633,47.27668],[38.326187,47.277483],[38.327186,47.279544],[38.323394,47.281132],[38.325766,47.284601],[38.328436,47.284808],[38.32969,47.289612],[38.333354,47.292132],[38.333739,47.296253],[38.333288,47.296975],[38.327547,47.297527],[38.327091,47.299009],[38.328204,47.300397],[38.334511,47.301408],[38.336304,47.306408],[38.220978,47.30538],[38.221472,47.327345],[38.227214,47.32971],[38.225794,47.332115],[38.222079,47.332853],[38.230493,47.338902],[38.230693,47.343169],[38.24024,47.346223],[38.246788,47.351445],[38.250461,47.357713],[38.247363,47.361737],[38.245559,47.363193],[38.258732,47.373353],[38.286492,47.37356],[38.286416,47.391477],[38.300409,47.391514],[38.302085,47.39287],[38.302022,47.475121],[38.289402,47.476754],[38.2941,47.490745],[38.295072,47.508064],[38.284908,47.508376],[38.284804,47.544465],[38.305114,47.544851],[38.31115,47.553619],[38.31097,47.576028],[38.350737,47.576206],[38.35012,47.616689],[38.456688,47.617004],[38.456275,47.644253],[38.620087,47.64487],[38.629589,47.653336],[38.629274,47.669278],[38.665887,47.669418],[38.665616,47.697176],[38.6592,47.700057],[38.670796,47.698954],[38.729124,47.698807],[38.730305,47.680361],[38.754069,47.684888],[38.773164,47.685764],[38.770869,47.720629],[38.788943,47.737015],[38.798157,47.77844],[38.788677,47.815974],[38.835102,47.816059],[38.842182,47.863118],[39.082778,47.869927],[39.082891,47.851604]]],[[[37.856208,48.192846],[37.88333,48.199712],[37.896571,48.215429],[37.892943,48.233569],[37.89157,48.255061],[37.895347,48.268546],[37.88816,48.283639],[37.869693,48.281851],[37.847996,48.282355],[37.8448612,48.2798903],[37.840612,48.27931],[37.807063,48.276896],[37.806681,48.272586],[37.788929,48.27134],[37.789525,48.266728],[37.778396,48.265821],[37.772461,48.262731],[37.771517,48.261445],[37.773276,48.256916],[37.760959,48.2575949],[37.7546493,48.2563026],[37.7487912,48.2513746],[37.740015,48.244531],[37.7348634,48.2363104],[37.7352163,48.2343388],[37.7417857,48.2343885],[37.7432057,48.2265477],[37.7393076,48.2254134],[37.7408741,48.2176742],[37.734829,48.217182],[37.734724,48.213312],[37.720582,48.212573],[37.7134871,48.2115311],[37.711075,48.20647],[37.7105508,48.2038118],[37.7152715,48.2043546],[37.7147433,48.2021619],[37.7198361,48.1956495],[37.726847,48.192564],[37.733345,48.184286],[37.7407035,48.182487],[37.7413655,48.1800024],[37.75333,48.179957],[37.770185,48.1808275],[37.770163,48.175069],[37.777802,48.176287],[37.7820315,48.1716912],[37.784716,48.1698998],[37.8032187,48.1715824],[37.8054973,48.1643609],[37.795026,48.156918],[37.7966436,48.153531],[37.8044051,48.1511647],[37.8166715,48.1425271],[37.8096312,48.140938],[37.811262,48.139277],[37.8161217,48.139513],[37.8160624,48.1334741],[37.8141149,48.1317887],[37.8091907,48.1279581],[37.8071757,48.1230277],[37.8063665,48.1200991],[37.808937,48.1220791],[37.8168038,48.1322916],[37.819855,48.143897],[37.824622,48.157818],[37.828593,48.17515],[37.856208,48.192846]]],[[[38.55969,48.830068],[38.705556,48.775461],[38.691716,48.729363],[38.753516,48.718494],[38.76707,48.714322],[38.80844,48.713416],[38.83007,48.71704],[38.836078,48.723269],[38.84715,48.742913],[38.85539,48.749648],[38.85938,48.749592],[38.860604,48.74979],[38.860958,48.750738],[38.863881,48.751382],[38.871695,48.751308],[38.87762,48.752591],[38.879079,48.752478],[38.880238,48.750611],[38.881332,48.750186],[38.892039,48.750441],[38.89882,48.750186],[38.901094,48.750908],[38.904742,48.75061],[38.908777,48.749252],[38.911137,48.748007],[38.912575,48.746875],[38.914323,48.744385],[38.91803,48.742914],[38.919969,48.743423],[38.921308,48.744611],[38.922724,48.745008],[38.924633,48.745036],[38.930652,48.745276],[38.933667,48.746026],[38.935057,48.746856],[38.936961,48.747119],[38.938281,48.746684],[38.93886,48.745814],[38.937959,48.744074],[38.934354,48.742913],[38.932466,48.7368],[38.934011,48.735781],[38.94371,48.733856],[38.94607,48.734451],[38.956948,48.734069],[38.961048,48.736517],[38.961219,48.739913],[38.959932,48.742913],[38.961133,48.74614],[38.964095,48.746196],[38.966948,48.745206],[38.969834,48.743749],[38.972565,48.743586],[38.974999,48.744765],[38.978814,48.744894],[38.981218,48.743847],[38.982334,48.742192],[38.982205,48.740288],[38.984458,48.737582],[38.989543,48.734989],[38.991439,48.730611],[38.998391,48.724269],[38.999335,48.719626],[38.998048,48.717474],[38.993921,48.716191],[38.988864,48.715209],[38.984744,48.713624],[38.984308,48.71183],[38.986925,48.71016],[38.991925,48.710004],[38.996925,48.711604],[38.998988,48.711198],[38.99822,48.707677],[38.999507,48.703995],[38.99985,48.7002],[39.001817,48.698009],[39.004829,48.696347],[39.01555,48.694894],[39.015729,48.688642],[39.014356,48.683429],[39.016369,48.680945],[39.019584,48.679141],[39.020278,48.675608],[39.020536,48.672264],[39.023883,48.669884],[39.026286,48.667276],[39.027488,48.663251],[39.025428,48.661976],[39.021652,48.662401],[39.018562,48.664102],[39.012982,48.664045],[39.009635,48.662628],[39.010318,48.660086],[39.012374,48.658338],[39.019155,48.656978],[39.02851,48.653009],[39.032209,48.652876],[39.03345,48.651978],[39.035548,48.648245],[39.038084,48.647187],[39.04268,48.646468],[39.054868,48.647036],[39.074352,48.650438],[39.075897,48.651629],[39.084909,48.650665],[39.098556,48.650892],[39.10362,48.649871],[39.111938,48.653349],[39.11683,48.656751],[39.123189,48.66002],[39.127309,48.660474],[39.13949,48.659642],[39.141986,48.66087],[39.142673,48.663535],[39.141643,48.665066],[39.141901,48.666653],[39.144514,48.670914],[39.148674,48.675287],[39.151943,48.676288],[39.157436,48.675382],[39.163351,48.675741],[39.174251,48.680331],[39.18164,48.685752],[39.185417,48.693401],[39.190902,48.699822],[39.195108,48.703901],[39.19651,48.706516],[39.197519,48.706487],[39.198356,48.705779],[39.19915,48.702267],[39.200373,48.700002],[39.203184,48.698614],[39.207175,48.698302],[39.212539,48.70122],[39.219406,48.705184],[39.224899,48.70677],[39.226787,48.708979],[39.232366,48.711415],[39.235993,48.71109],[39.23959,48.709127],[39.243517,48.709622],[39.249782,48.712567],[39.253902,48.720155],[39.253309,48.722061],[39.253965,48.724404],[39.256141,48.726874],[39.259231,48.733838],[39.255284,48.738776],[39.255026,48.740687],[39.256313,48.742272],[39.258537,48.742744],[39.26447,48.741255],[39.268665,48.741951],[39.270811,48.743989],[39.271677,48.747762],[39.270304,48.751214],[39.270811,48.752761],[39.272385,48.753889],[39.274778,48.753683],[39.276661,48.752336],[39.27889,48.749341],[39.282062,48.748611],[39.286436,48.748903],[39.289522,48.751516],[39.289283,48.753686],[39.290645,48.75625],[39.291496,48.759438],[39.29262,48.760607],[39.299915,48.76304],[39.303091,48.765416],[39.308834,48.771998],[39.311846,48.774072],[39.314592,48.774807],[39.324549,48.776051],[39.326258,48.775561],[39.327974,48.773695],[39.327485,48.772111],[39.326086,48.770018],[39.326605,48.768311],[39.331673,48.766604],[39.336136,48.765982],[39.340338,48.766303],[39.347245,48.768387],[39.351063,48.768547],[39.352783,48.767944],[39.354504,48.766831],[39.353895,48.765492],[39.351328,48.763097],[39.349175,48.762154],[39.34553,48.761663],[39.343365,48.759212],[39.343141,48.757363],[39.346178,48.751044],[39.347029,48.750214],[39.347208,48.745781],[39.349268,48.742498],[39.358194,48.737008],[39.358874,48.736178],[39.358877,48.733904],[39.357078,48.732309],[39.354075,48.729648],[39.353724,48.726893],[39.355226,48.725251],[39.361534,48.722307],[39.36913,48.72007],[39.372606,48.719872],[39.374185,48.718655],[39.373789,48.717494],[39.372082,48.715936],[39.370461,48.715964],[39.365268,48.716842],[39.360161,48.715681],[39.354134,48.713246],[39.34864,48.713473],[39.346857,48.712227],[39.34866,48.708715],[39.350505,48.707639],[39.355955,48.697216],[39.360313,48.6958],[39.365892,48.692231],[39.367319,48.691976],[39.377988,48.686239],[39.379559,48.686281],[39.381705,48.685516],[39.389601,48.684752],[39.390931,48.68376],[39.389172,48.680388],[39.390526,48.678801],[39.397993,48.674608],[39.402647,48.674437],[39.405823,48.673814],[39.411726,48.670527],[39.413872,48.668429],[39.413528,48.666842],[39.408207,48.661457],[39.408035,48.659813],[39.410696,48.657658],[39.414234,48.656694],[39.420748,48.658225],[39.432325,48.656751],[39.43895,48.654942],[39.446504,48.656303],[39.450178,48.655674],[39.452375,48.654713],[39.453387,48.652815],[39.45131,48.65171],[39.4498,48.650403],[39.449577,48.64456],[39.451642,48.641036],[39.454217,48.639788],[39.457564,48.638654],[39.465815,48.638667],[39.467392,48.637236],[39.46427,48.634016],[39.464013,48.631066],[39.465633,48.628188],[39.468594,48.627451],[39.476104,48.628755],[39.484151,48.628202],[39.486275,48.628897],[39.493013,48.630429],[39.495545,48.632131],[39.500437,48.632556],[39.510436,48.634456],[39.51409,48.633839],[39.516026,48.632201],[39.516713,48.629989],[39.516271,48.627973],[39.515426,48.626188],[39.51198,48.623548],[39.511649,48.621876],[39.516786,48.618101],[39.525725,48.613024],[39.527184,48.611265],[39.527822,48.609462],[39.527282,48.608277],[39.523481,48.605106],[39.522636,48.602979],[39.525387,48.598201],[39.528048,48.597179],[39.532425,48.596441],[39.53359,48.595463],[39.53321,48.593633],[39.528133,48.591843],[39.526914,48.589552],[39.528717,48.585947],[39.531206,48.584272],[39.537386,48.583392],[39.545025,48.583932],[39.549316,48.585976],[39.550561,48.588587],[39.549488,48.593242],[39.551204,48.59557],[39.558672,48.598011],[39.561762,48.598011],[39.563307,48.597443],[39.565637,48.593954],[39.567304,48.592122],[39.567279,48.590241],[39.566053,48.588303],[39.563148,48.586233],[39.56297,48.583634],[39.568074,48.581852],[39.573349,48.580525],[39.576537,48.581236],[39.577782,48.582883],[39.581773,48.585041],[39.592538,48.591299],[39.596352,48.592391],[39.601759,48.591539],[39.604591,48.588814],[39.60502,48.58677],[39.604076,48.58626],[39.600643,48.585748],[39.594807,48.579332],[39.594991,48.576694],[39.596315,48.575032],[39.603647,48.574108],[39.608024,48.572716],[39.612488,48.572915],[39.613732,48.574903],[39.617552,48.577118],[39.621242,48.581944],[39.621929,48.585805],[39.62283,48.586373],[39.623646,48.586089],[39.631972,48.580695],[39.635319,48.580042],[39.657549,48.58467],[39.65875,48.585635],[39.667591,48.58677],[39.672226,48.588417],[39.676518,48.58819],[39.67729,48.587565],[39.687271,48.587084],[39.687101,48.589208],[39.682672,48.592689],[39.680952,48.592636],[39.679362,48.591808],[39.679467,48.590602],[39.678799,48.590094],[39.676478,48.590863],[39.675839,48.591785],[39.675418,48.593542],[39.676018,48.594721],[39.678178,48.59586],[39.679654,48.595476],[39.680608,48.596402],[39.680041,48.597382],[39.678671,48.59812],[39.677049,48.598311],[39.676001,48.59795],[39.675274,48.59694],[39.673529,48.595905],[39.671427,48.595451],[39.670062,48.595773],[39.668806,48.596567],[39.668176,48.598181],[39.668158,48.601311],[39.670944,48.603218],[39.671189,48.603954],[39.670576,48.604588],[39.668912,48.605036],[39.667113,48.605231],[39.663374,48.604922],[39.661023,48.606551],[39.660623,48.60909],[39.661447,48.610904],[39.663798,48.613004],[39.66617,48.617721],[39.666873,48.620065],[39.671535,48.624331],[39.680063,48.629498],[39.687768,48.632823],[39.690642,48.635483],[39.693161,48.636238],[39.693784,48.636771],[39.69424,48.637614],[39.694362,48.639673],[39.69377,48.643208],[39.69153,48.644962],[39.691241,48.646322],[39.693715,48.649408],[39.697354,48.65103],[39.699904,48.652604],[39.70227,48.653309],[39.703291,48.654341],[39.704363,48.655147],[39.705011,48.65635],[39.706436,48.656973],[39.708981,48.654618],[39.709877,48.654545],[39.710687,48.655037],[39.71098,48.655517],[39.711381,48.656876],[39.710408,48.658063],[39.709655,48.660003],[39.709721,48.660882],[39.709526,48.662254],[39.71073,48.663944],[39.711308,48.667218],[39.710944,48.667694],[39.710291,48.668063],[39.708822,48.667758],[39.707323,48.666964],[39.705013,48.666918],[39.70426,48.666623],[39.703293,48.666837],[39.702902,48.667225],[39.702477,48.668435],[39.701721,48.669404],[39.702434,48.670515],[39.704033,48.671485],[39.707944,48.672792],[39.712113,48.674652],[39.713498,48.676128],[39.714196,48.680225],[39.717084,48.68144],[39.720341,48.681944],[39.721615,48.682426],[39.722682,48.683376],[39.723065,48.683447],[39.723203,48.684077],[39.722675,48.685055],[39.720778,48.68633],[39.720602,48.686758],[39.718497,48.687429],[39.716681,48.689934],[39.718827,48.693317],[39.715965,48.695208],[39.720211,48.697203],[39.717876,48.703361],[39.713158,48.700835],[39.704492,48.706805],[39.712561,48.71167],[39.712262,48.715916],[39.704838,48.721463],[39.725463,48.72709],[39.726615,48.729372],[39.722706,48.731886],[39.724062,48.734598],[39.725599,48.737681],[39.725011,48.740452],[39.728882,48.74109],[39.731647,48.742096],[39.732192,48.744333],[39.733671,48.745162],[39.734497,48.744932],[39.735017,48.744443],[39.735438,48.743794],[39.736185,48.7434],[39.737309,48.743188],[39.738408,48.743224],[39.739365,48.743631],[39.739575,48.744478],[39.738736,48.747477],[39.736921,48.748898],[39.736376,48.752183],[39.740082,48.766418],[39.755303,48.767977],[39.76094,48.763862],[39.766204,48.764237],[39.768551,48.76631],[39.76866,48.769329],[39.766036,48.771031],[39.76363,48.771034],[39.762771,48.771699],[39.762426,48.772562],[39.763971,48.7746],[39.765644,48.775498],[39.765805,48.776513],[39.765451,48.778079],[39.766213,48.779168],[39.769706,48.780787],[39.771516,48.783491],[39.773495,48.784419],[39.777638,48.784869],[39.780194,48.786082],[39.785854,48.799158],[39.797126,48.840576],[39.804672,48.843576],[39.808044,48.83948],[39.807503,48.838581],[39.827832,48.831465],[39.830439,48.833554],[39.886255,48.820946],[39.936737,48.800795],[39.976403,48.793903],[40.078831,48.869867],[40.071286,48.876975],[40.055495,48.910098],[40.048495,48.910186],[40.031195,48.915801],[40.018063,48.907791],[40.00398,48.900793],[39.99343,48.868286],[39.950652,48.875459],[39.940309,48.886691],[39.924336,48.895717],[39.853161,48.890737],[39.845802,48.902911],[39.836789,48.903052],[39.833741,48.900823],[39.818936,48.907791],[39.805377,48.914842],[39.782372,48.915745],[39.790097,48.938471],[39.776879,48.946025],[39.75208,48.986592],[39.747268,48.987412],[39.736045,48.982483],[39.733368,48.980748],[39.732802,48.979429],[39.729833,48.978068],[39.730221,48.976738],[39.727004,48.975591],[39.72482,48.976565],[39.724478,48.978068],[39.726482,48.978679],[39.726381,48.979461],[39.725227,48.980236],[39.723364,48.98052],[39.721521,48.981288],[39.718976,48.981629],[39.717623,48.982354],[39.717923,48.983377],[39.717618,48.984363],[39.717413,48.984588],[39.716724,48.984912],[39.7165,48.98561],[39.716919,48.986242],[39.71677,48.987067],[39.715712,48.987992],[39.715408,48.98858],[39.71535,48.989709],[39.714607,48.990111],[39.71264,48.990129],[39.711804,48.990827],[39.711548,48.991803],[39.709715,48.992613],[39.708328,48.992446],[39.707705,48.992742],[39.707619,48.99359],[39.708498,48.994431],[39.70761,48.995543],[39.706395,48.996107],[39.705674,48.997642],[39.703825,48.99933],[39.699288,49.00097],[39.698103,49.000827],[39.697038,49.000206],[39.696381,48.999388],[39.69527,48.999046],[39.693269,48.999302],[39.691134,48.996972],[39.691124,48.99629],[39.67693,48.989538],[39.663411,49.000872],[39.670277,49.003148],[39.679204,49.012886],[39.673658,49.014934],[39.675663,49.026888],[39.681736,49.028733],[39.683582,49.036925],[39.673217,49.03933],[39.682089,49.045779],[39.693366,49.05054],[39.74032,49.04222],[39.766623,49.040132],[39.787133,49.049358],[39.803143,49.059202],[39.880305,49.06432],[39.910263,49.057462],[39.937951,49.056277],[39.942532,49.071347],[39.938169,49.082798],[39.958701,49.105564],[39.972108,49.124488],[40.031575,49.180241],[40.07613,49.186828],[40.092759,49.203164],[40.10829,49.210883],[40.12297,49.230991],[40.137226,49.239885],[40.177084,49.237489],[40.188228,49.238626],[40.208815,49.242226],[40.21437,49.244887],[40.220806,49.257774],[40.219264,49.265172],[40.185745,49.284288],[40.18404,49.303985],[40.188526,49.307443],[40.196814,49.345228],[40.176429,49.356618],[40.170182,49.3564],[40.159805,49.366018],[40.162603,49.367837],[40.156906,49.372669],[40.144598,49.377667],[40.129549,49.382381],[40.113402,49.385696],[40.105631,49.391292],[40.076909,49.409957],[40.059551,49.435263],[40.047204,49.444878],[40.02919,49.453599],[40.04176,49.499103],[40.037599,49.519895],[40.168435,49.568921],[40.139525,49.596274],[40.135258,49.616254],[40.063538,49.599233],[40.056729,49.606573],[39.952223,49.596549],[39.934601,49.572783],[39.890224,49.558359],[39.838914,49.563518],[39.805312,49.55805],[39.750232,49.596719],[39.712747,49.605923],[39.696747,49.604291],[39.686926,49.611558],[39.659995,49.614811],[39.638379,49.6351],[39.613305,49.691362],[39.59136,49.719134],[39.610109,49.733798],[39.533835,49.740848],[39.478761,49.756475],[39.438201,49.760006],[39.412062,49.753111],[39.376963,49.738424],[39.307924,49.753044],[39.28556,49.755666],[39.27547,49.768026],[39.264639,49.76848],[39.250371,49.777802],[39.240372,49.791123],[39.239146,49.798226],[39.228992,49.808432],[39.228114,49.816503],[39.225656,49.840184],[39.188395,49.886222],[39.178402,49.888001],[39.130738,49.861568],[39.110366,49.837773],[39.069763,49.818731],[39.066233,49.815349],[39.033522,49.822372],[39.02166,49.82091],[38.984906,49.807783],[38.971138,49.807221],[38.949095,49.796102],[38.946663,49.797806],[38.94035,49.800888],[38.933474,49.799778],[38.93291,49.79758],[38.930753,49.797174],[38.927811,49.798576],[38.927421,49.801381],[38.9287,49.803888],[38.920357,49.804946],[38.919189,49.808942],[38.916163,49.812724],[38.919124,49.814665],[38.909372,49.81917],[38.907392,49.828412],[38.913507,49.82863],[38.915094,49.831059],[38.911398,49.834589],[38.913878,49.836114],[38.912225,49.844315],[38.906706,49.845044],[38.90505,49.849149],[38.90967,49.850849],[38.918648,49.8579],[38.916488,49.859925],[38.909338,49.860103],[38.898467,49.870416],[38.876416,49.869423],[38.874563,49.866638],[38.869398,49.864488],[38.856713,49.869139],[38.849104,49.865103],[38.845669,49.86581],[38.84329,49.865145],[38.839345,49.865762],[38.836346,49.867366],[38.835371,49.870964],[38.837392,49.872222],[38.836414,49.873896],[38.835579,49.874459],[38.834862,49.874655],[38.833654,49.874806],[38.828584,49.877172],[38.826733,49.878445],[38.825105,49.878965],[38.822432,49.878984],[38.794958,49.88331],[38.79015,49.87851],[38.783488,49.881113],[38.777683,49.88532],[38.768232,49.896044],[38.743847,49.897307],[38.733846,49.905025],[38.723247,49.927005],[38.6929,49.934766],[38.6853,49.960344],[38.715315,49.982384],[38.715136,49.98771],[38.687546,50.008152],[38.679052,50.005448],[38.676054,49.992814],[38.679731,49.974494],[38.666941,49.972156],[38.646196,49.955937],[38.616078,49.97439],[38.58157,49.977416],[38.526715,49.958271],[38.507898,49.96403],[38.487706,49.963602],[38.4833,49.976528],[38.47752,49.983271],[38.465914,49.983961],[38.46804,49.995247],[38.434095,50.001019],[38.416008,49.981338],[38.397563,49.990585],[38.349575,50.006444],[38.354164,50.019048],[38.3512,50.034741],[38.333976,50.059093],[38.329442,50.08551],[38.313196,50.088337],[38.301154,50.087142],[38.291493,50.079436],[38.275781,50.07344],[38.25406,50.072508],[38.178568,50.079969],[38.185066,50.055692],[38.183827,50.045832],[38.187923,50.04072],[38.188245,50.023603],[38.186149,50.022947],[38.185416,50.022222],[38.186831,50.02169],[38.192054,50.014595],[38.197286,50.008256],[38.201117,50.004728],[38.200786,50.003778],[38.202728,50.001836],[38.205135,50.001004],[38.204578,49.997644],[38.207712,49.991511],[38.210852,49.989247],[38.217126,49.987182],[38.196332,49.969759],[38.162402,49.951496],[38.171565,49.941901],[38.126682,49.92215],[38.124994,49.942552],[38.056464,49.923247],[38.033921,49.904761],[38.012367,49.918497],[38.043687,49.932897],[38.005373,49.967245],[37.999075,49.963601],[37.980562,49.976794],[37.965809,49.979304],[37.962041,49.982918],[37.940048,50.015142],[37.924736,50.012396],[37.913076,50.003078],[37.901757,50.003659],[37.892833,49.989099],[37.887515,49.987781],[37.886663,49.980172],[37.874909,49.980064],[37.854697,49.970239],[37.831706,49.971647],[37.819873,49.956224],[37.80726,49.954079],[37.802204,49.943098],[37.793004,49.940646],[37.78544,49.932338],[37.773749,49.907092],[37.766756,49.899654],[37.754853,49.897594],[37.74046,49.884523],[37.732253,49.875381],[37.732746,49.866107],[37.728262,49.860706],[37.726015,49.859038],[37.716123,49.856783],[37.707734,49.852978],[37.70339,49.850689],[37.701148,49.848675],[37.702447,49.839951],[37.698204,49.832045],[37.701172,49.831004],[37.705014,49.832152],[37.709887,49.830256],[37.704277,49.82104],[37.685239,49.790189],[37.688672,49.788554],[37.694848,49.785788],[37.7116889,49.7747183],[37.7258454,49.7725965],[37.764871,49.775915],[37.809081,49.757307],[37.842572,49.755339],[37.852031,49.754638],[37.867087,49.749245],[37.884199,49.745513],[37.878137,49.736596],[37.876222,49.7330814],[37.8894118,49.7285101],[37.91149,49.723603],[37.9133,49.707206],[37.916006,49.691425],[37.91796,49.678426],[37.912874,49.658755],[37.916312,49.648205],[37.920291,49.640434],[37.9283,49.634108],[37.931093,49.628815],[37.928449,49.624369],[37.928929,49.620366],[37.938162,49.600571],[37.937911,49.590606],[37.943667,49.58142],[37.957508,49.573468],[37.954209,49.565917],[37.94535,49.553234],[37.947273,49.547004],[37.956747,49.542779],[37.963386,49.541979],[37.961823,49.528122],[37.964197,49.519956],[37.964313,49.515762],[37.967348,49.504851],[37.9686,49.480282],[37.93843,49.463082],[37.940642,49.444244],[37.92878,49.424289],[37.948687,49.403562],[37.942766,49.398993],[37.944869,49.395759],[37.943196,49.392525],[37.95264,49.38037],[37.967753,49.366389],[37.98268,49.355194],[37.993064,49.349097],[38.000354,49.342105],[38.00714,49.333329],[38.009462,49.323434],[38.015306,49.314049],[38.013438,49.30932],[38.015946,49.300339],[38.014439,49.293347],[38.017964,49.287781],[38.015094,49.28118],[38.010476,49.272368],[38.023708,49.256804],[38.024741,49.237367],[38.025015,49.228302],[38.056524,49.214303],[38.048495,49.203085],[38.047226,49.190491],[38.05054,49.189215],[38.056427,49.184573],[38.061306,49.174695],[38.071336,49.160272],[38.08325,49.148762],[38.086336,49.134796],[38.084664,49.12895],[38.080758,49.123777],[38.06779,49.096014],[38.06842,49.092253],[38.063398,49.064564],[38.018566,49.062924],[38.017338,49.057231],[38.003829,49.054556],[37.984056,49.05244],[37.988362,49.046821],[37.980308,49.04424],[37.982738,49.03525],[37.993944,49.035158],[38.003077,49.019388],[38.026179,49.018255],[38.044132,49.021847],[38.065617,49.022508],[38.079279,49.022668],[38.0835,49.016861],[38.095247,49.01355],[38.098728,49.006827],[38.097624,49.000293],[38.098026,48.99471],[38.093914,48.98606],[38.094721,48.979982],[38.109586,48.979957],[38.119989,48.982522],[38.1386713,48.9779788],[38.1536401,48.9788272],[38.171359,48.983276],[38.1864962,48.9829466],[38.19031,48.974542],[38.197298,48.974052],[38.209505,48.966338],[38.213016,48.955169],[38.214046,48.94925],[38.219196,48.942768],[38.23465,48.944666],[38.234227,48.946566],[38.233873,48.95314],[38.237048,48.956521],[38.244862,48.956245],[38.258858,48.969268],[38.241062,49.005535],[38.262698,49.024532],[38.284528,49.026568],[38.299791,49.024992],[38.36998,48.981882],[38.402357,48.955659],[38.413479,48.93997],[38.474906,48.903594],[38.495293,48.870737],[38.55969,48.830068]]],[[[37.68785,48.054754],[37.691199,48.053406],[37.694294,48.056545],[37.687749,48.061894],[37.693049,48.069307],[37.699702,48.072204],[37.742788,48.072751],[37.746306,48.073475],[37.756436,48.08667],[37.773053,48.092032],[37.789283,48.100177],[37.792021,48.104528],[37.8002,48.114966],[37.8041065,48.1176711],[37.8063665,48.1200991],[37.8015883,48.119433],[37.7992868,48.1193213],[37.7981762,48.1193242],[37.7975806,48.1182384],[37.7989535,48.1151557],[37.796162,48.11397],[37.791622,48.112445],[37.790173,48.110862],[37.779662,48.105846],[37.76962,48.104127],[37.76653,48.101032],[37.765242,48.091688],[37.746479,48.09097],[37.740105,48.091006],[37.732821,48.091598],[37.730343,48.098467],[37.725745,48.112554],[37.717004,48.111087],[37.71347,48.104686],[37.713323,48.100644],[37.709928,48.100565],[37.702322,48.099746],[37.696379,48.099358],[37.693353,48.102609],[37.692063,48.103723],[37.687382,48.103776],[37.673043,48.1123072],[37.662848,48.111427],[37.661928,48.112961],[37.660408,48.112717],[37.660629,48.111027],[37.647767,48.109653],[37.640346,48.10942],[37.6224828,48.1076662],[37.61552,48.104745],[37.616716,48.101852],[37.62641,48.100105],[37.63171,48.099192],[37.638986,48.088925],[37.641316,48.081249],[37.633346,48.075951],[37.636965,48.074346],[37.636078,48.072311],[37.638338,48.071395],[37.641518,48.066091],[37.630696,48.062885],[37.61958,48.065272],[37.6169753,48.0680283],[37.6110047,48.0659581],[37.610544,48.063785],[37.603714,48.061908],[37.5929,48.061593],[37.587981,48.0613],[37.587238,48.053942],[37.590363,48.054554],[37.591104,48.054188],[37.59176,48.052975],[37.590454,48.048498],[37.5890879,48.0439315],[37.5841542,48.0428368],[37.584727,48.038206],[37.580519,48.037697],[37.581109,48.034379],[37.573459,48.032381],[37.570798,48.014241],[37.558525,48.014097],[37.548288,48.0072],[37.543246,47.998348],[37.543162,47.995432],[37.548226,47.986444],[37.548482,47.979262],[37.558546,47.986451],[37.549621,47.997364],[37.556143,48.009855],[37.573394,48.006899],[37.575434,48.013954],[37.588566,48.016021],[37.601376,48.016946],[37.616482,48.018095],[37.622662,48.019444],[37.64781,48.028944],[37.669986,48.043363],[37.67946,48.049407],[37.68785,48.054754]]],[[[35.201458,45.523343],[35.109867,45.599025],[35.050056,45.667202],[34.977053,45.765285],[34.958219,45.760037],[34.949344,45.762936],[34.800881,45.804735],[34.796134,45.892053],[34.782879,45.904975],[34.752716,45.910231],[34.700883,45.959179],[34.651415,45.973908],[34.556042,45.988691],[34.478552,45.946947],[34.436726,45.968164],[34.382464,46.034692],[34.227754,46.060816],[34.160772,46.08043],[34.122582,46.108122],[34.038334,46.116935],[33.82395,46.187069],[33.740532,46.185128],[33.714554,46.196894],[33.6897,46.204334],[33.60668,46.146878],[33.612528,46.138238],[33.612957,46.129148],[33.616561,46.11536],[33.633038,46.097381],[33.637282,46.081351],[33.623699,46.071722],[33.611338,46.054819],[33.618724,46.01252],[33.622873,45.997617],[33.628543,45.987604],[33.629384,45.977458],[33.629688,45.967426],[33.627758,45.958848],[33.616479,45.949068],[33.617606,45.944243],[33.624497,45.942516],[33.634992,45.941326],[33.642079,45.942885],[33.647501,45.945166],[33.640135,45.949356],[33.659761,45.954586],[33.682856,45.952803],[33.692314,45.95526],[33.722964,45.950158],[33.744939,45.95033],[33.747278,45.946685],[33.751076,45.9488],[33.755784,45.939282],[33.757987,45.934494],[33.756027,45.931109],[33.749506,45.928276],[33.730928,45.930188],[33.720244,45.924636],[33.701995,45.911004],[33.697545,45.911367],[33.691971,45.913471],[33.687773,45.912752],[33.680094,45.90854],[33.676214,45.903954],[33.675115,45.898868],[33.678367,45.885139],[33.679953,45.875048],[33.679077,45.867314],[33.684716,45.858888],[33.684191,45.850098],[33.674126,45.857432],[33.661598,45.86426],[33.662233,45.871524],[33.654663,45.875233],[33.642234,45.876325],[33.634096,45.882614],[33.616272,45.892143],[33.593725,45.885292],[33.581653,45.871206],[33.568716,45.874008],[33.55864,45.86172],[33.551715,45.851628],[33.548213,45.843531],[33.542129,45.840258],[33.537116,45.845796],[33.527171,45.849723],[33.517655,45.846594],[33.507622,45.841072],[33.50089,45.848355],[33.520062,45.857708],[33.544102,45.880335],[33.540593,45.884913],[33.517951,45.867777],[33.482974,45.854396],[33.432207,45.838576],[33.41709,45.830205],[33.373494,45.797187],[33.32241,45.775037],[33.280613,45.76267],[33.23866,45.752804],[33.21192,45.757728],[33.182114,45.773902],[33.172486,45.786603],[33.180625,45.797211],[33.185831,45.807952],[33.182338,45.80993],[33.175838,45.805742],[33.165737,45.78827],[33.159184,45.749182],[33.152919,45.733355],[33.1378,45.719814],[33.127908,45.719842],[33.114638,45.712775],[33.095704,45.715503],[33.077681,45.707393],[33.0691,45.706833],[33.050144,45.696959],[33.017154,45.687009],[33.006337,45.679383],[32.999393,45.681147],[32.908691,45.640338],[32.82504,45.590611],[32.820181,45.586841],[32.820129,45.584393],[32.821299,45.58301],[32.829252,45.583603],[32.837291,45.583354],[32.841008,45.582406],[32.843556,45.576834],[32.843141,45.570597],[32.840648,45.56511],[32.833962,45.560234],[32.825974,45.55733],[32.820317,45.559825],[32.793178,45.56389],[32.772105,45.557869],[32.736877,45.543007],[32.72322,45.533026],[32.691784,45.523882],[32.59058,45.48558],[32.562144,45.470223],[32.538208,45.454884],[32.524271,45.438872],[32.500388,45.424663],[32.48807,45.407956],[32.479703,45.404263],[32.478939,45.389163],[32.488644,45.384988],[32.507445,45.381957],[32.513458,45.372038],[32.510377,45.360884],[32.489453,45.346136],[32.551846,45.332385],[32.569816,45.332888],[32.578538,45.327642],[32.599462,45.325318],[32.622109,45.317634],[32.65299,45.313322],[32.675688,45.320614],[32.685502,45.332102],[32.712159,45.341307],[32.735393,45.354972],[32.76522,45.363836],[32.84671,45.365264],[32.907019,45.359436],[32.966765,45.336694],[32.991848,45.322499],[33.035244,45.29016],[33.062776,45.27566],[33.081231,45.258421],[33.093199,45.248834],[33.107907,45.23151],[33.124087,45.225712],[33.138912,45.216317],[33.143404,45.20709],[33.148825,45.202143],[33.157326,45.198774],[33.165826,45.19347],[33.179821,45.187651],[33.185236,45.183717],[33.201984,45.183225],[33.225292,45.174695],[33.234348,45.168219],[33.245939,45.156938],[33.257295,45.147804],[33.268036,45.145629],[33.27516,45.145901],[33.284289,45.148276],[33.288293,45.154105],[33.296035,45.157719],[33.300138,45.162027],[33.29792,45.165633],[33.298963,45.167787],[33.301221,45.170642],[33.305239,45.17277],[33.310057,45.1741],[33.318394,45.174581],[33.325143,45.174125],[33.331548,45.171883],[33.350015,45.173699],[33.358429,45.178252],[33.37497,45.183679],[33.380282,45.185909],[33.376286,45.18766],[33.376436,45.191845],[33.38275,45.196471],[33.391196,45.197375],[33.400771,45.196065],[33.408547,45.193444],[33.415989,45.191404],[33.432652,45.184093],[33.450854,45.174238],[33.480757,45.155892],[33.509265,45.13445],[33.536378,45.109551],[33.56149,45.081073],[33.58086,45.050881],[33.602595,44.997973],[33.604377,44.980471],[33.597652,44.97655],[33.610962,44.925721],[33.610592,44.899319],[33.606448,44.871702],[33.6052,44.866386],[33.600863,44.857663],[33.594636,44.847578],[33.590643,44.845722],[33.586864,44.847],[33.578964,44.840487],[33.569694,44.838843],[33.561031,44.842318],[33.556915,44.840587],[33.55297,44.841655],[33.548513,44.834598],[33.550231,44.822242],[33.549545,44.810828],[33.547143,44.81013],[33.54552,44.80417],[33.540633,44.802652],[33.533513,44.792608],[33.540722,44.761758],[33.539777,44.744321],[33.547583,44.724445],[33.545774,44.707798],[33.547442,44.698563],[33.546363,44.677979],[33.541864,44.658932],[33.535667,44.64599],[33.531191,44.641107],[33.525691,44.638362],[33.52105,44.640258],[33.512474,44.633149],[33.508271,44.631916],[33.494615,44.617766],[33.450155,44.615946],[33.373305,44.584056],[33.403694,44.553239],[33.46013,44.522891],[33.472733,44.511135],[33.486243,44.494968],[33.506071,44.500846],[33.554048,44.486877],[33.601948,44.491739],[33.627013,44.479579],[33.63834,44.458687],[33.64553,44.421924],[33.673869,44.412807],[33.702892,44.416926],[33.733092,44.383332],[33.759005,44.386932],[33.778737,44.381452],[33.846027,44.401142],[33.882423,44.400268],[33.939412,44.389646],[33.963406,44.38885],[34.034986,44.403674],[34.057232,44.416521],[34.128936,44.427878],[34.171984,44.491011],[34.260362,44.507556],[34.308946,44.552088],[34.320135,44.551094],[34.334843,44.545507],[34.349035,44.546767],[34.349805,44.57185],[34.354354,44.585681],[34.375816,44.591703],[34.377892,44.612309],[34.38342,44.615877],[34.389678,44.628884],[34.403924,44.639751],[34.412176,44.658807],[34.432149,44.682765],[34.474964,44.715071],[34.544614,44.741006],[34.625628,44.773956],[34.677858,44.787856],[34.728811,44.807825],[34.747987,44.807058],[34.763731,44.815057],[34.830931,44.816908],[34.845166,44.813296],[34.912095,44.81577],[34.920318,44.82153],[34.920988,44.828751],[34.935034,44.830042],[34.942529,44.833842],[34.967823,44.838027],[34.980991,44.834465],[34.988701,44.828075],[35.0007,44.83203],[35.029503,44.828249],[35.047274,44.814837],[35.043666,44.799459],[35.064425,44.797108],[35.081062,44.790612],[35.09398,44.801375],[35.111022,44.80702],[35.118455,44.81723],[35.133101,44.822812],[35.130569,44.829311],[35.139391,44.861252],[35.144155,44.867002],[35.156245,44.886911],[35.169311,44.900247],[35.177573,44.900936],[35.190556,44.907887],[35.205602,44.910216],[35.216612,44.909005],[35.243653,44.916792],[35.25652,44.938423],[35.249825,44.952823],[35.258409,44.960904],[35.271282,44.967596],[35.283641,44.96616],[35.294987,44.959711],[35.301518,44.965776],[35.322807,44.966441],[35.322466,44.95921],[35.344315,44.964188],[35.351803,44.954952],[35.382973,44.943891],[35.394038,44.954933],[35.356103,44.97733],[35.358416,44.985552],[35.366739,44.992559],[35.395224,44.999343],[35.428693,45.012912],[35.412652,45.025778],[35.385966,45.035246],[35.389399,45.049444],[35.414638,45.07541],[35.451063,45.097366],[35.541346,45.125861],[35.58496,45.129359],[35.62977,45.122303],[35.692135,45.104626],[35.748793,45.081465],[35.777878,45.066304],[35.785327,45.057628],[35.804886,45.045558],[35.814483,45.033306],[35.810165,45.021418],[35.821947,45.019203],[35.82978,45.014076],[35.834113,45.0091],[35.828278,45.004552],[35.834801,44.999213],[35.842096,44.998366],[35.870587,45.004186],[35.879342,45.009765],[35.900286,45.014189],[35.907658,45.018079],[35.925851,45.019111],[35.954083,45.011219],[35.984215,45.022859],[35.994952,45.03511],[36.012561,45.044932],[36.035405,45.049216],[36.07129,45.048252],[36.160037,45.035925],[36.201045,45.033023],[36.213493,45.02807],[36.225684,45.026816],[36.24793,45.04068],[36.249153,45.047687],[36.282137,45.05499],[36.309329,45.057922],[36.337724,45.058302],[36.372884,45.057475],[36.390978,45.065359],[36.440096,45.083327],[36.456018,45.095623],[36.454606,45.105555],[36.439699,45.116727],[36.43318,45.117691],[36.425628,45.128893],[36.4258,45.134402],[36.422542,45.136938],[36.421428,45.152916],[36.417779,45.164294],[36.407778,45.172889],[36.407734,45.193404],[36.403912,45.214162],[36.412019,45.225877],[36.423049,45.23723],[36.423707,45.245262],[36.435783,45.258066],[36.43962,45.271622],[36.436333,45.276239],[36.426012,45.27864],[36.421663,45.286584],[36.435179,45.295073],[36.484438,45.305478],[36.499502,45.318675],[36.488837,45.324608],[36.47329,45.330744],[36.472041,45.341233],[36.477812,45.349132],[36.483644,45.350864],[36.518286,45.351539],[36.535225,45.349918],[36.534981,45.345637],[36.54435,45.344735],[36.564437,45.347114],[36.592338,45.3465],[36.596554,45.345031],[36.60599,45.347733],[36.612025,45.355938],[36.625643,45.360763],[36.630569,45.360521],[36.633217,45.362811],[36.630106,45.373786],[36.6335,45.375653],[36.643211,45.377813],[36.648733,45.38292],[36.641199,45.390666],[36.634642,45.391737],[36.611273,45.407542],[36.607593,45.412573],[36.611498,45.414921],[36.61553,45.422271],[36.606346,45.42872],[36.598276,45.438662],[36.587036,45.44127],[36.57528,45.442252],[36.565672,45.436625],[36.56594,45.428443],[36.554467,45.424368],[36.547831,45.425611],[36.532672,45.42719],[36.518828,45.433521],[36.506954,45.44226],[36.499746,45.445484],[36.495456,45.450514],[36.482062,45.455771],[36.470548,45.458514],[36.461093,45.456435],[36.447174,45.460135],[36.441535,45.455406],[36.442064,45.453282],[36.43401,45.450676],[36.432474,45.447875],[36.421423,45.446002],[36.415458,45.446825],[36.40184,45.450177],[36.376602,45.463689],[36.372894,45.47138],[36.357563,45.471617],[36.345514,45.480891],[36.344848,45.484307],[36.33933,45.482513],[36.340048,45.477585],[36.336302,45.474221],[36.322868,45.471297],[36.307976,45.475414],[36.293683,45.483861],[36.265345,45.478566],[36.17039,45.472361],[36.12387,45.463618],[36.068785,45.445463],[36.068942,45.404374],[36.04285,45.384009],[35.99701,45.371491],[35.941221,45.380044],[35.886842,45.407774],[35.846507,45.446506],[35.86369,45.45422],[35.87606,45.463856],[35.867831,45.473251],[35.841775,45.474473],[35.823649,45.46632],[35.817747,45.458869],[35.818368,45.451418],[35.826475,45.440129],[35.802358,45.424293],[35.748929,45.396331],[35.745726,45.39066],[35.748889,45.384633],[35.760985,45.381258],[35.753728,45.366548],[35.724851,45.351594],[35.71557,45.338458],[35.632903,45.324584],[35.525825,45.291193],[35.498759,45.306176],[35.467835,45.307544],[35.382064,45.352514],[35.311256,45.411424],[35.201458,45.523343]]],[[[35.252517,46.250571],[35.221068,46.226899],[35.209023,46.190372],[35.133057,46.163431],[35.029004,46.14808],[35.025676,46.127811],[34.987175,46.105276],[34.973381,46.072105],[35.070883,46.095787],[35.151803,46.121658],[35.185884,46.146917],[35.275482,46.255611],[35.360236,46.354664],[35.457829,46.441232],[35.604353,46.480435],[35.736003,46.583981],[35.936423,46.658595],[36.117093,46.651425],[36.189885,46.667031],[36.229044,46.650506],[36.259896,46.618621],[36.19085,46.534676],[36.166514,46.527678],[36.151634,46.546818],[36.147262,46.508948],[36.091121,46.492429],[36.116734,46.487199],[36.184064,46.49803],[36.317097,46.650145],[36.376849,46.705504],[36.587104,46.764662],[36.705568,46.777622],[36.801265,46.727754],[36.790696,46.6748],[36.778344,46.66365],[36.761015,46.665809],[36.742359,46.637361],[36.758938,46.621721],[36.804987,46.659152],[36.838053,46.705761],[36.86852,46.765691],[36.901954,46.80879],[36.993079,46.862459],[37.03686,46.865458],[37.238048,46.939818],[37.297211,46.927326],[37.318919,46.896298],[37.28057,46.87369],[37.287285,46.863351],[37.321464,46.869206],[37.526304,47.049534],[37.526487,47.069784],[37.587888,47.077264],[37.620462,47.086573],[37.627377,47.094101],[37.675811,47.077887],[37.684032,47.076677],[37.685885,47.080496],[37.713879,47.079833],[37.774394,47.08755],[37.794084,47.083778],[37.821988,47.090891],[37.83831,47.099704],[37.829283,47.112742],[37.818054,47.119099],[37.849982,47.174205],[37.851356,47.198938],[37.833503,47.249301],[37.833846,47.285412],[37.827666,47.302643],[37.834876,47.30823],[37.831786,47.314981],[37.824577,47.321498],[37.827323,47.328479],[37.829283,47.342507],[37.844489,47.341974],[37.856849,47.343603],[37.861212,47.347858],[37.859152,47.354371],[37.848609,47.350116],[37.837623,47.352442],[37.841743,47.358489],[37.851599,47.365534],[37.841643,47.369022],[37.83831,47.378022],[37.850326,47.384298],[37.856849,47.392898],[37.855819,47.403124],[37.863715,47.426588],[37.878478,47.441684],[37.892555,47.469773],[37.782348,47.585916],[37.768615,47.635448],[37.801917,47.642388],[37.803977,47.660196],[37.764495,47.684702],[37.67268,47.724717],[37.637589,47.751994],[37.623169,47.77311],[37.634549,47.802538],[37.634262,47.838423],[37.644034,47.886626],[37.575907,47.907733],[37.5686,47.907768],[37.535029,47.917986],[37.539407,47.924236],[37.542839,47.932477],[37.52859,47.941498],[37.521854,47.94582],[37.525158,47.957202],[37.532003,47.964588],[37.512874,47.967972],[37.493518,47.962959],[37.491783,47.960839],[37.492733,47.958928],[37.496512,47.955761],[37.4965235,47.9531228],[37.5016846,47.9456837],[37.5022504,47.9444281],[37.4972612,47.9395255],[37.495685,47.939328],[37.493046,47.938956],[37.489892,47.937089],[37.490063,47.934855],[37.490647,47.932657],[37.489902,47.93092],[37.487553,47.92725],[37.494155,47.925428],[37.492349,47.913117],[37.505149,47.907671],[37.520227,47.9027966],[37.5278247,47.8939639],[37.5366987,47.8934446],[37.5378462,47.8756592],[37.5288134,47.8755455],[37.528086,47.855401],[37.532993,47.843617],[37.512475,47.823969],[37.49231,47.822527],[37.486523,47.817757],[37.467009,47.817087],[37.456654,47.810928],[37.447845,47.800852],[37.42891,47.79973],[37.431607,47.77612],[37.414462,47.767009],[37.402457,47.756012],[37.377492,47.748532],[37.362096,47.745791],[37.3569,47.744232],[37.354417,47.744579],[37.346534,47.747352],[37.33191,47.749096],[37.330804,47.751676],[37.332367,47.756142],[37.334634,47.761552],[37.319714,47.763933],[37.321037,47.771242],[37.31824,47.771455],[37.315307,47.765534],[37.306521,47.766237],[37.306695,47.773804],[37.304166,47.774218],[37.301682,47.767199],[37.287624,47.769207],[37.27291,47.771786],[37.270313,47.771878],[37.266889,47.770806],[37.261479,47.768446],[37.259842,47.766604],[37.25603,47.758367],[37.247798,47.759248],[37.247247,47.757524],[37.240688,47.757762],[37.235638,47.758295],[37.221064,47.761376],[37.2012127,47.764636],[37.1975069,47.7539109],[37.1913676,47.751717],[37.1805106,47.7413709],[37.1756213,47.7360176],[37.128682,47.744562],[37.104062,47.742355],[37.078458,47.74209],[37.053542,47.743666],[37.024232,47.744782],[36.964522,47.763541],[36.9303783,47.7708671],[36.9047225,47.7755305],[36.903955,47.786825],[36.887987,47.795349],[36.873556,47.805457],[36.836085,47.815279],[36.820249,47.821677],[36.8152283,47.8221094],[36.8161324,47.8245388],[36.8137091,47.8254222],[36.8114889,47.8242791],[36.8088825,47.8246054],[36.8082442,47.8264243],[36.8045372,47.8266728],[36.8034053,47.8262153],[36.8012167,47.8225699],[36.7965812,47.8228436],[36.787848,47.821194],[36.78729,47.818622],[36.716368,47.809896],[36.689319,47.814797],[36.678371,47.820935],[36.673928,47.818355],[36.662007,47.814298],[36.667253,47.79318],[36.660036,47.784179],[36.627137,47.786785],[36.623424,47.783724],[36.619796,47.776786],[36.606534,47.773853],[36.576932,47.721469],[36.555749,47.70034],[36.555255,47.673036],[36.538214,47.668917],[36.521186,47.668959],[36.492896,47.659307],[36.44484,47.65024],[36.368328,47.63156],[36.3622553,47.6332743],[36.3408192,47.6266576],[36.338205,47.618398],[36.290478,47.593508],[36.278349,47.5976603],[36.2565186,47.5942311],[36.2425511,47.5954135],[36.2416593,47.5936094],[36.212618,47.586455],[36.209501,47.582362],[36.186966,47.580843],[36.133198,47.575124],[36.128116,47.574827],[36.116706,47.57794],[36.105724,47.578503],[36.087362,47.573854],[36.08291,47.551831],[36.060784,47.537093],[36.041383,47.536092],[36.031469,47.5271],[36.020784,47.515904],[36.013919,47.51033],[35.980884,47.513486],[35.950263,47.501073],[35.949436,47.490073],[35.873586,47.498832],[35.871024,47.496852],[35.851167,47.498208],[35.84925,47.496112],[35.841881,47.496422],[35.837272,47.492055],[35.829689,47.489581],[35.828028,47.492733],[35.811821,47.497588],[35.807701,47.482511],[35.796518,47.482161],[35.789281,47.490974],[35.737036,47.491074],[35.726994,47.499657],[35.711504,47.505512],[35.699524,47.506819],[35.682358,47.510877],[35.665363,47.503572],[35.654663,47.500962],[35.6214106,47.5003716],[35.61528,47.502851],[35.592551,47.519323],[35.5672797,47.5284839],[35.5479326,47.52628],[35.539021,47.519038],[35.50651,47.513647],[35.45857,47.511879],[35.453703,47.518038],[35.455706,47.528125],[35.448483,47.530904],[35.440506,47.531037],[35.42836,47.531964],[35.394475,47.537813],[35.380738,47.535982],[35.37198,47.532991],[35.365751,47.53512],[35.358677,47.536877],[35.353273,47.536444],[35.348212,47.537053],[35.34153,47.536015],[35.334722,47.525255],[35.330145,47.520036],[35.322821,47.515512],[35.313504,47.512654],[35.299381,47.510954],[35.28782,47.507212],[35.280896,47.503369],[35.274679,47.496878],[35.273654,47.493692],[35.280796,47.472164],[35.264423,47.473878],[35.202642,47.444974],[35.148662,47.445657],[35.119096,47.451096],[35.070299,47.450777],[35.062432,47.448665],[35.046158,47.437728],[35.028821,47.418115],[34.968693,47.389204],[34.935444,47.391603],[34.883714,47.406089],[34.863372,47.420855],[34.874742,47.437529],[34.874184,47.449499],[34.859924,47.451225],[34.825202,47.464774],[34.792305,47.467718],[34.749154,47.492572],[34.719365,47.492093],[34.708982,47.490553],[34.689414,47.494864],[34.680199,47.510702],[34.642072,47.54439],[34.628378,47.545801],[34.618035,47.544462],[34.59904,47.534641],[34.586249,47.52178],[34.54453,47.532678],[34.533138,47.53043],[34.500623,47.499644],[34.43584,47.496884],[34.386949,47.513846],[34.372759,47.510646],[34.338372,47.467732],[34.334912,47.446972],[34.296103,47.428659],[34.26968,47.43952],[34.19929,47.412075],[34.145725,47.424438],[34.118346,47.420537],[34.064874,47.424288],[34.046678,47.417625],[34.042235,47.4104],[34.019651,47.358009],[33.982733,47.230633],[33.967861,47.211248],[33.944845,47.197223],[33.929554,47.179552],[33.903127,47.159948],[33.863572,47.145182],[33.849952,47.137765],[33.840788,47.098495],[33.802318,47.058988],[33.72275,47.017354],[33.697669,46.995102],[33.695611,46.955391],[33.68816,46.92042],[33.678447,46.900897],[33.656817,46.904649],[33.633823,46.899485],[33.634029,46.866228],[33.620299,46.829005],[33.470267,46.820932],[33.402939,46.773568],[33.390025,46.783403],[33.377336,46.776747],[33.373374,46.776458],[33.372471,46.776094],[33.371409,46.777113],[33.370561,46.776808],[33.371612,46.7757],[33.358434,46.769358],[33.354735,46.762752],[33.337927,46.757131],[33.31726,46.752859],[33.286307,46.749369],[33.2543827,46.752545],[33.2398855,46.7635114],[33.1978713,46.7674733],[33.1931512,46.7678797],[33.1729038,46.7739742],[33.172225,46.765702],[33.152063,46.763942],[33.138195,46.759309],[33.140192,46.756658],[33.137167,46.755727],[33.133222,46.756128],[33.118029,46.751253],[33.117198,46.75074],[33.113574,46.749942],[33.112764,46.749909],[33.1113,46.749229],[33.104048,46.747472],[33.103375,46.745855],[33.101961,46.745296],[33.09996,46.74384],[33.097588,46.743179],[33.093233,46.74272],[33.092151,46.742143],[33.09153,46.741981],[33.090396,46.741512],[33.088106,46.74022],[33.087433,46.739621],[33.088146,46.738703],[33.087448,46.737984],[33.086567,46.737766],[33.084182,46.737728],[33.080358,46.736182],[33.079821,46.735746],[33.076398,46.73424],[33.071966,46.733146],[33.070527,46.732192],[33.066019,46.731109],[33.063998,46.731354],[33.062917,46.731198],[33.054478,46.727359],[33.048723,46.726936],[33.046316,46.726256],[33.043354,46.723431],[33.031719,46.720808],[33.019582,46.717716],[33.011223,46.717036],[32.991093,46.714509],[32.979849,46.71044],[32.954233,46.711513],[32.942778,46.713274],[32.933395,46.717178],[32.928561,46.718345],[32.923357,46.718297],[32.905308,46.711256],[32.89915,46.712334],[32.892821,46.711],[32.884457,46.705094],[32.859153,46.69693],[32.836024,46.684716],[32.824066,46.679212],[32.814606,46.676419],[32.809041,46.676203],[32.803575,46.67561],[32.799531,46.67482],[32.782818,46.668969],[32.772008,46.666942],[32.758391,46.665274],[32.737144,46.665086],[32.718232,46.666414],[32.7080447,46.6534849],[32.6746889,46.6508646],[32.6548983,46.6383206],[32.6299648,46.6197291],[32.6187483,46.6047686],[32.6145749,46.596022],[32.5989572,46.5824178],[32.5831324,46.5818221],[32.573492,46.571141],[32.568008,46.564889],[32.560466,46.559581],[32.552862,46.555941],[32.548348,46.5469],[32.540759,46.542659],[32.537548,46.538034],[32.531857,46.536839],[32.52069,46.540327],[32.514587,46.540981],[32.508992,46.539985],[32.505697,46.537934],[32.500267,46.533416],[32.489131,46.527354],[32.464784,46.508031],[32.457069,46.503782],[32.448324,46.50284],[32.437723,46.503333],[32.432691,46.49473],[32.431678,46.489158],[32.428261,46.485359],[32.417843,46.485009],[32.343922,46.46494],[32.302098,46.46777],[32.257646,46.479295],[32.194594,46.488291],[32.148695,46.514583],[32.116646,46.517163],[32.043994,46.49151],[31.994131,46.492817],[31.966538,46.508246],[31.879015,46.535466],[31.881564,46.518269],[31.864916,46.517593],[31.807073,46.529435],[31.756923,46.547926],[31.697653,46.545005],[31.662858,46.536376],[31.6315,46.540489],[31.581674,46.537219],[31.554085,46.545436],[31.53052,46.557603],[31.513418,46.5808],[31.511298,46.576661],[31.521622,46.561578],[31.546952,46.538703],[31.614247,46.501917],[31.656752,46.468887],[31.694302,46.440308],[31.726321,46.408644],[31.74607,46.376456],[31.77384,46.358574],[31.789249,46.37338],[31.737668,46.426193],[31.720266,46.433326],[31.706978,46.445426],[31.697126,46.447235],[31.696919,46.457483],[31.704266,46.466548],[31.716455,46.478649],[31.742041,46.485309],[31.770906,46.48455],[31.79702,46.47811],[31.89212,46.4568],[31.952825,46.437454],[31.974846,46.439202],[32.002245,46.453429],[32.02904,46.43754],[32.03557,46.416563],[32.009051,46.364114],[31.969771,46.34836],[31.868277,46.334355],[31.82345,46.337102],[31.77254,46.327144],[31.745591,46.306021],[31.74774,46.298139],[31.758093,46.29484],[31.768018,46.296516],[31.774508,46.293923],[31.771214,46.288838],[31.775546,46.285461],[31.775112,46.282265],[31.78213,46.276838],[31.783289,46.27251],[31.777198,46.268128],[31.779604,46.264467],[31.784409,46.265084],[31.784516,46.268863],[31.791704,46.273888],[31.809726,46.272094],[31.81436,46.269448],[31.813243,46.264744],[31.818306,46.264311],[31.834696,46.266138],[31.833144,46.269792],[31.835193,46.272828],[31.847699,46.267922],[31.85074,46.268254],[31.861222,46.272143],[31.870833,46.265774],[31.874003,46.265257],[31.88329,46.273416],[31.895068,46.280744],[31.90449,46.297439],[31.936821,46.292142],[31.943744,46.285559],[31.955598,46.265896],[31.969513,46.257208],[32.028544,46.245596],[32.051418,46.249785],[32.077753,46.23892],[32.087828,46.221461],[32.121152,46.204392],[32.165965,46.196893],[32.187024,46.175666],[32.206132,46.17218],[32.208105,46.186799],[32.221811,46.18771],[32.239879,46.178515],[32.227941,46.168347],[32.236672,46.150133],[32.21952,46.127961],[32.543106,46.061692],[32.710194,46.102812],[32.936504,46.101603],[33.167937,46.119522],[33.282369,46.072312],[33.429206,46.02544],[33.525631,46.026754],[33.4967,46.070285],[33.572161,46.073788],[33.53098,46.110104],[33.60668,46.146878],[33.6897,46.204334],[33.714554,46.196894],[33.740532,46.185128],[33.82395,46.187069],[34.038334,46.116935],[34.122582,46.108122],[34.160772,46.08043],[34.227754,46.060816],[34.382464,46.034692],[34.436726,45.968164],[34.478552,45.946947],[34.556042,45.988691],[34.651415,45.973908],[34.700883,45.959179],[34.752716,45.910231],[34.782879,45.904975],[34.796134,45.892053],[34.800881,45.804735],[34.958219,45.760037],[34.977053,45.765285],[34.895964,45.898811],[34.852474,46.009218],[34.834641,46.11553],[34.833783,46.200133],[34.903004,46.23639],[35.024814,46.256304],[35.079863,46.276637],[35.11777,46.314243],[35.138002,46.348253],[35.178357,46.362919],[35.193173,46.370922],[35.201794,46.379714],[35.25675,46.375283],[35.26147,46.365877],[35.265416,46.352326],[35.269099,46.35539],[35.289804,46.356552],[35.304169,46.353872],[35.307895,46.348289],[35.314264,46.343757],[35.31792,46.337833],[35.316516,46.330714],[35.317442,46.317038],[35.298805,46.314937],[35.292586,46.307996],[35.293277,46.302449],[35.298987,46.298978],[35.252517,46.250571]]],[[[38.1564927,48.732688],[38.1299437,48.734202],[38.1240707,48.737717],[38.1163117,48.739649],[38.1119937,48.742761],[38.0954847,48.743846],[38.0915647,48.745762],[38.0758807,48.743408],[38.0698537,48.74803],[38.0616407,48.750654],[38.0560057,48.751506],[38.0544907,48.748679],[38.0484697,48.747183],[38.0422767,48.747044],[38.0346697,48.750284],[38.0295097,48.750722],[38.0284687,48.749363],[38.0275647,48.74731],[38.0261321,48.7456483],[38.0255072,48.7418906],[38.0232853,48.742234],[38.0134247,48.739464],[37.9987357,48.738288],[37.9910127,48.725148],[37.9884387,48.716876],[37.9805447,48.71178],[37.9632657,48.703083],[37.9516147,48.701931],[37.9356347,48.703949],[37.9233137,48.70912],[37.9175137,48.705908],[37.9202937,48.701381],[37.9160537,48.697671],[37.9099687,48.695831],[37.9028797,48.697856],[37.9003467,48.694306],[37.8997417,48.691907],[37.8922277,48.686222],[37.8920987,48.683811],[37.8970337,48.68259],[37.9030827,48.679412],[37.9104077,48.672952],[37.9113017,48.670368],[37.9081527,48.663309],[37.9029027,48.66325],[37.8883275,48.6609477],[37.8916467,48.6513255],[37.8907708,48.6477703],[37.8877793,48.6449117],[37.8848727,48.641203],[37.8915917,48.641215],[37.8928807,48.6392091],[37.9061923,48.6392909],[37.9174429,48.6381817],[37.9184884,48.635453],[37.9422953,48.6336259],[37.9458413,48.6308467],[37.9469588,48.6273184],[37.9518981,48.6206024],[37.9465872,48.6153678],[37.9481881,48.6097998],[37.9531767,48.608294],[37.9571237,48.60925],[37.9581487,48.608588],[37.9576227,48.60718],[37.9578537,48.606675],[37.9586857,48.606595],[37.9620397,48.605698],[37.9629311,48.6012847],[37.9621308,48.6002956],[37.9673934,48.5939274],[37.9650732,48.591444],[37.9662419,48.5909189],[37.9663971,48.5901455],[37.9668956,48.5898262],[37.9705206,48.5926932],[37.9742485,48.591615],[37.9737864,48.5890352],[37.9736222,48.5874098],[37.9731382,48.5861364],[37.9718367,48.5843669],[37.9706661,48.5833381],[37.9699894,48.5826332],[37.9729678,48.5814896],[37.9746912,48.5791667],[37.9699547,48.577444],[37.9699427,48.577166],[37.9687427,48.576785],[37.9691847,48.576243],[37.9671907,48.575286],[37.9668947,48.574259],[37.9674747,48.560064],[37.9608187,48.554844],[37.9486497,48.552135],[37.9302397,48.547724],[37.9242943,48.5444082],[37.9112731,48.546793],[37.9035717,48.5477565],[37.8987276,48.5349998],[37.8972778,48.5339612],[37.8976301,48.5298738],[37.9163407,48.5189174],[37.9154835,48.5129203],[37.9223964,48.5026336],[37.9114118,48.4959031],[37.9095277,48.495222],[37.9066857,48.491165],[37.9082687,48.490716],[37.9115727,48.493451],[37.9189297,48.487927],[37.9130187,48.488008],[37.9136677,48.486598],[37.9195277,48.486476],[37.9174917,48.483681],[37.9191327,48.483193],[37.9211547,48.486136],[37.9266167,48.482366],[37.9318067,48.471159],[37.9382957,48.467402],[37.9472143,48.4693169],[37.9528285,48.4599081],[37.947563,48.4565255],[37.9395797,48.452774],[37.9395987,48.449054],[37.9554697,48.42826],[37.9593647,48.427208],[37.9597717,48.419022],[37.9526267,48.417956],[37.9529587,48.416298],[37.9609307,48.416463],[37.9653397,48.412754],[37.9666587,48.409728],[37.9656947,48.40661],[37.9630707,48.400663],[37.9654247,48.396282],[37.9646367,48.395359],[37.9646327,48.394093],[37.9586307,48.394609],[37.9470507,48.375156],[37.9701627,48.380317],[37.9749697,48.381115],[37.9786337,48.391275],[38.0048127,48.393954],[38.0421337,48.409086],[38.1137167,48.408013],[38.1174877,48.420805],[38.1352547,48.419039],[38.1485587,48.414482],[38.1631047,48.402117],[38.1544557,48.395536],[38.1501037,48.385419],[38.1847787,48.37493],[38.2074387,48.371509],[38.2149917,48.369],[38.2276947,48.367176],[38.2591307,48.359806],[38.2736997,48.359192],[38.2907167,48.361631],[38.3217647,48.371053],[38.3436747,48.38455],[38.3543257,48.390459],[38.3679247,48.402171],[38.3909747,48.415874],[38.3892577,48.432278],[38.3930347,48.436606],[38.4053877,48.473366],[38.4115737,48.51058],[38.4143137,48.520605],[38.4026477,48.547867],[38.4026477,48.59194],[38.4060807,48.60193],[38.4048147,48.609098],[38.4046997,48.616931],[38.4088197,48.62964],[38.4143127,48.638262],[38.4198137,48.645048],[38.4314867,48.650492],[38.4452127,48.655048],[38.4644387,48.656408],[38.4802387,48.659111],[38.4967187,48.663192],[38.5152577,48.666367],[38.5161587,48.670562],[38.5272947,48.674642],[38.5394617,48.673509],[38.5489887,48.675294],[38.5594567,48.686695],[38.5722417,48.689056],[38.5777427,48.696742],[38.5784297,48.70943],[38.5832287,48.71987],[38.6301777,48.721172],[38.6784227,48.723701],[38.6745597,48.729363],[38.6917267,48.729363],[38.7055667,48.775461],[38.5597007,48.830068],[38.4953037,48.870737],[38.4749167,48.903594],[38.4134907,48.940084],[38.4023687,48.955772],[38.3699907,48.981882],[38.2998017,49.024992],[38.2845387,49.026568],[38.2627087,49.024532],[38.2410727,49.005535],[38.2588687,48.969268],[38.2448727,48.956245],[38.2370587,48.956521],[38.2338837,48.95314],[38.2342377,48.946566],[38.2346607,48.944666],[38.2381007,48.946707],[38.2469357,48.94647],[38.2612637,48.943501],[38.2686627,48.942975],[38.2844547,48.936408],[38.2974387,48.927344],[38.2746077,48.920525],[38.2778727,48.915282],[38.2711357,48.910911],[38.2703651,48.9074705],[38.2675197,48.903563],[38.2745887,48.895171],[38.2727687,48.891694],[38.2679447,48.890249],[38.2679087,48.889447],[38.2607157,48.888971],[38.2576577,48.889655],[38.2536887,48.888822],[38.2527037,48.885633],[38.2502187,48.883995],[38.2488557,48.880268],[38.2450997,48.880601],[38.2446267,48.879576],[38.2338967,48.882038],[38.2338287,48.880076],[38.2350567,48.877435],[38.2285557,48.868924],[38.2325317,48.865656],[38.2387047,48.865747],[38.2425727,48.865034],[38.2449017,48.856619],[38.2453417,48.831416],[38.2572937,48.818866],[38.2622633,48.813639],[38.2607675,48.8069645],[38.2611467,48.800798],[38.2559667,48.794031],[38.2554217,48.789865],[38.2524097,48.784073],[38.2432187,48.780996],[38.2359967,48.771899],[38.2281177,48.770858],[38.2181737,48.771966],[38.2171737,48.770899],[38.2186277,48.763475],[38.2167017,48.761348],[38.2053277,48.759785],[38.1940673,48.7543808],[38.1937517,48.7517],[38.1945587,48.745142],[38.1947987,48.737626],[38.1939797,48.733995],[38.1886187,48.729925],[38.1825277,48.72715],[38.1564927,48.732688]]],[[[32.568431,46.573163],[32.5585483,46.5720577],[32.5379894,46.5715796],[32.5260145,46.568501],[32.5182043,46.5616341],[32.5170054,46.5562877],[32.5211261,46.5532322],[32.5345581,46.5538823],[32.5479911,46.5571277],[32.5650303,46.5668129],[32.570824,46.573222],[32.568871,46.573827],[32.568431,46.573163]]],[[[32.3910059,46.5019498],[32.4072549,46.5055868],[32.4160096,46.5070636],[32.4357507,46.5049369],[32.4475953,46.5045234],[32.4549767,46.506532],[32.4701688,46.5133842],[32.4766919,46.520649],[32.4757124,46.5210627],[32.4520858,46.5250267],[32.4221918,46.5258597],[32.4174596,46.509602],[32.4003113,46.5070187],[32.3910059,46.5019498]]]]}}]}
