{
  "type": "FeatureCollection",
  "features": [
    {
      "type": "Feature",
      "geometry": {
        "type": "Polygon",
        "coordinates": [
          [
            [
              35.958252,
              50.427768
            ],
            [
              36.123047,
              50.429518
            ],
            [
              36.147766,
              50.392761
            ],
            [
              36.186218,
              50.371744
            ],
            [
              36.274109,
              50.280564
            ],
            [
              36.326294,
              50.271788
            ],
            [
              36.381226,
              50.30513
            ],
            [
              36.46637,
              50.284074
            ],
            [
              36.532288,
              50.268277
            ],
            [
              36.535034,
              50.222609
            ],
            [
              36.622925,
              50.201517
            ],
            [
              36.653137,
              50.245448
            ],
            [
              36.809692,
              50.308638
            ],
            [
              36.927795,
              50.341955
            ],
            [
              37.048645,
              50.329683
            ],
            [
              37.183228,
              50.35948
            ],
            [
              37.260132,
              50.398014
            ],
            [
              37.323303,
              50.338449
            ],
            [
              37.433167,
              50.261254
            ],
            [
              37.348022,
              50.196243
            ],
            [
              37.037659,
              50.101203
            ],
            [
              36.557007,
              50.014799
            ],
            [
              36.213684,
              50.014799
            ],
            [
              36.043396,
              50.051848
            ],
            [
              36.095581,
              50.154026
            ],
            [
              35.977478,
              50.324423
            ],
            [
              35.980225,
              50.369993
            ],
            [
              35.922546,
              50.417269
            ],
            [
              35.958252,
              50.427768
            ]
          ]
        ]
      },
      "properties": {
        "zone": 1,
        "fill": "#a52714"
      }
    },
    {
      "type": "Feature",
      "geometry": {
        "type": "Point",
        "coordinates": [
          36.587219,
          50.005974
        ]
      },
      "properties": {
        "zone": 1,
        "fill": "#a52714"
      }
    },
    {
      "type": "Feature",
      "geometry": {
        "type": "Point",
        "coordinates": [
          37.359009,
          47.208374
        ]
      },
      "properties": {
        "zone": 1,
        "fill": "#a52714"
      }
    },
    {
      "type": "Feature",
      "geometry": {
        "type": "Polygon",
        "coordinates": [
          [
            [
              39.778748,
              49.560852
            ],
            [
              39.819946,
              49.546598
            ],
            [
              39.91333,
              49.567978
            ],
            [
              39.973755,
              49.60715
            ],
            [
              40.116577,
              49.587568
            ],
            [
              40.105591,
              49.555507
            ],
            [
              40.045166,
              49.525208
            ],
            [
              40.012207,
              49.466339
            ],
            [
              40.083618,
              49.391312
            ],
            [
              40.14679,
              49.344809
            ],
            [
              40.152283,
              49.292889
            ],
            [
              40.144043,
              49.242707
            ],
            [
              40.102844,
              49.226566
            ],
            [
              40.039673,
              49.169134
            ],
            [
              39.957275,
              49.127814
            ],
            [
              39.927063,
              49.086459
            ],
            [
              39.927063,
              49.05047
            ],
            [
              39.891357,
              49.037868
            ],
            [
              39.830933,
              49.04867
            ],
            [
              39.743042,
              49.027063
            ],
            [
              39.682617,
              49.034267
            ],
            [
              39.663391,
              48.976612
            ],
            [
              39.710083,
              48.949563
            ],
            [
              39.762268,
              48.893615
            ],
            [
              39.858398,
              48.871941
            ],
            [
              39.907837,
              48.88278
            ],
            [
              39.954529,
              48.857487
            ],
            [
              40.00946,
              48.888198
            ],
            [
              40.047913,
              48.868328
            ],
            [
              40.031433,
              48.828566
            ],
            [
              39.973755,
              48.79239
            ],
            [
              39.916077,
              48.785152
            ],
            [
              39.806213,
              48.814099
            ],
            [
              39.765015,
              48.790581
            ],
            [
              39.734802,
              48.761621
            ],
            [
              39.699097,
              48.741701
            ],
            [
              39.627686,
              48.591143
            ],
            [
              39.685364,
              48.594776
            ],
            [
              39.803467,
              48.587509
            ],
            [
              39.855652,
              48.549342
            ],
            [
              39.872131,
              48.503867
            ],
            [
              39.843292,
              48.496588
            ],
            [
              39.847412,
              48.4711
            ],
            [
              39.877625,
              48.451976
            ],
            [
              39.92157,
              48.377233
            ],
            [
              39.877625,
              48.347123
            ],
            [
              39.811707,
              48.306948
            ],
            [
              39.887238,
              48.280451
            ],
            [
              39.957275,
              48.294158
            ],
            [
              39.994354,
              48.266741
            ],
            [
              39.961395,
              48.224673
            ],
            [
              39.90097,
              48.184401
            ],
            [
              39.825439,
              48.088171
            ],
            [
              39.848785,
              48.033101
            ],
            [
              39.767761,
              48.023917
            ],
            [
              39.758148,
              48.009219
            ],
            [
              39.791107,
              47.977972
            ],
            [
              39.793854,
              47.943027
            ],
            [
              39.773254,
              47.913581
            ],
            [
              39.776001,
              47.864774
            ],
            [
              39.715576,
              47.814999
            ],
            [
              39.616699,
              47.816843
            ],
            [
              39.548035,
              47.829752
            ],
            [
              39.504089,
              47.826064
            ],
            [
              39.454651,
              47.837127
            ],
            [
              39.391479,
              47.826064
            ],
            [
              39.314575,
              47.850031
            ],
            [
              39.116821,
              47.83344
            ],
            [
              39.020691,
              47.866617
            ],
            [
              38.875122,
              47.861089
            ],
            [
              38.792725,
              47.814999
            ],
            [
              38.754272,
              47.731934
            ],
            [
              38.757019,
              47.696823
            ],
            [
              38.713074,
              47.678334
            ],
            [
              38.660889,
              47.678334
            ],
            [
              38.572998,
              47.62838
            ],
            [
              38.377991,
              47.61357
            ],
            [
              38.317566,
              47.574673
            ],
            [
              38.257141,
              47.498648
            ],
            [
              38.254395,
              47.385334
            ],
            [
              38.191223,
              47.314621
            ],
            [
              38.213196,
              47.286682
            ],
            [
              38.295593,
              47.282956
            ],
            [
              38.301086,
              47.249407
            ],
            [
              38.221436,
              47.208374
            ],
            [
              38.202209,
              47.131819
            ],
            [
              38.218689,
              47.107523
            ],
            [
              38.117065,
              47.032695
            ],
            [
              38.114319,
              47.086956
            ],
            [
              38.06488,
              47.105653
            ],
            [
              38.026428,
              47.085085
            ],
            [
              37.858887,
              47.101914
            ],
            [
              37.787476,
              47.144897
            ],
            [
              37.809448,
              47.187846
            ],
            [
              37.801208,
              47.286682
            ],
            [
              37.831421,
              47.357432
            ],
            [
              37.839661,
              47.441092
            ],
            [
              37.85614,
              47.480088
            ],
            [
              37.814941,
              47.528329
            ],
            [
              37.823181,
              47.608015
            ],
            [
              37.694092,
              47.682032
            ],
            [
              37.63092,
              47.68573
            ],
            [
              37.597961,
              47.713458
            ],
            [
              37.592468,
              47.768868
            ],
            [
              37.617188,
              47.82422
            ],
            [
              37.606201,
              47.886881
            ],
            [
              37.499084,
              47.914501
            ],
            [
              37.510071,
              47.96602
            ],
            [
              37.554016,
              48.004625
            ],
            [
              37.63092,
              48.004625
            ],
            [
              37.658386,
              48.056054
            ],
            [
              37.738037,
              48.078079
            ],
            [
              37.784729,
              48.142265
            ],
            [
              37.902832,
              48.228332
            ],
            [
              37.880859,
              48.323387
            ],
            [
              37.941284,
              48.372672
            ],
            [
              38.020935,
              48.398209
            ],
            [
              38.17749,
              48.403679
            ],
            [
              38.215942,
              48.372672
            ],
            [
              38.391724,
              48.438312
            ],
            [
              38.41095,
              48.492947
            ],
            [
              38.468628,
              48.591143
            ],
            [
              38.427429,
              48.614754
            ],
            [
              38.430176,
              48.647428
            ],
            [
              38.493347,
              48.663757
            ],
            [
              38.564758,
              48.716337
            ],
            [
              38.677368,
              48.718149
            ],
            [
              38.74054,
              48.683708
            ],
            [
              38.770752,
              48.734455
            ],
            [
              38.847656,
              48.748945
            ],
            [
              38.954773,
              48.732644
            ],
            [
              39.006958,
              48.652871
            ],
            [
              39.083862,
              48.649242
            ],
            [
              39.16626,
              48.696399
            ],
            [
              39.237671,
              48.716337
            ],
            [
              39.243164,
              48.747134
            ],
            [
              39.298096,
              48.777913
            ],
            [
              39.325562,
              48.745323
            ],
            [
              39.353027,
              48.683708
            ],
            [
              39.462891,
              48.623832
            ],
            [
              39.493103,
              48.582058
            ],
            [
              39.5755,
              48.582058
            ],
            [
              39.597473,
              48.629278
            ],
            [
              39.526062,
              48.727209
            ],
            [
              39.435425,
              48.924304
            ],
            [
              39.440918,
              49.04867
            ],
            [
              39.509583,
              49.176317
            ],
            [
              39.663391,
              49.339441
            ],
            [
              39.668884,
              49.380585
            ],
            [
              39.657898,
              49.453843
            ],
            [
              39.718323,
              49.50916
            ],
            [
              39.778748,
              49.560852
            ]
          ]
        ]
      },
      "properties": {
        "zone": 1,
        "fill": "#a52714"
      }
    },
    {
      "type": "Feature",
      "geometry": {
        "type": "Point",
        "coordinates": [
          37.732544,
          47.794707
        ]
      },
      "properties": {
        "zone": 1,
        "fill": "#a52714"
      }
    },
    {
      "type": "Feature",
      "geometry": {
        "type": "Point",
        "coordinates": [
          38.652649,
          48.85568
        ]
      },
      "properties": {
        "zone": 1,
        "fill": "#a52714"
      }
    },
    {
      "type": "Feature",
      "geometry": {
        "type": "Point",
        "coordinates": [
          30.525513,
          46.592844
        ]
      },
      "properties": {
        "zone": 1,
        "fill": "#a52714"
      }
    },
    {
      "type": "Feature",
      "geometry": {
        "type": "Polygon",
        "coordinates": [
          [
            [
              33.618851,
              46.138928
            ],
            [
              33.640823,
              46.142734
            ],
            [
              33.614731,
              46.228303
            ],
            [
              33.64769,
              46.225453
            ],
            [
              33.687515,
              46.200745
            ],
            [
              33.730087,
              46.185535
            ],
            [
              33.787766,
              46.204547
            ],
            [
              33.859177,
              46.198844
            ],
            [
              33.914108,
              46.163663
            ],
            [
              34.045944,
              46.107517
            ],
            [
              34.07341,
              46.115134
            ],
            [
              34.140701,
              46.0999
            ],
            [
              34.150314,
              46.082757
            ],
            [
              34.197006,
              46.059891
            ],
            [
              34.250565,
              46.050361
            ],
            [
              34.319229,
              46.058938
            ],
            [
              34.360428,
              46.044642
            ],
            [
              34.408493,
              45.991237
            ],
            [
              34.420853,
              45.968334
            ],
            [
              34.466171,
              45.943511
            ],
            [
              34.500504,
              45.940646
            ],
            [
              34.527969,
              45.954969
            ],
            [
              34.545822,
              45.981695
            ],
            [
              34.576035,
              45.994099
            ],
            [
              34.633713,
              45.979787
            ],
            [
              34.744949,
              45.9053
            ],
            [
              34.793015,
              45.900522
            ],
            [
              34.806747,
              45.871844
            ],
            [
              34.793015,
              45.850804
            ],
            [
              34.794388,
              45.812529
            ],
            [
              34.868546,
              45.789552
            ],
            [
              34.959183,
              45.753152
            ],
            [
              34.978409,
              45.762733
            ],
            [
              35.086212,
              45.622682
            ],
            [
              35.294952,
              45.395557
            ],
            [
              35.484467,
              45.291313
            ],
            [
              35.693207,
              45.328013
            ],
            [
              35.783844,
              45.409056
            ],
            [
              35.81955,
              45.466873
            ],
            [
              35.874481,
              45.470725
            ],
            [
              35.858002,
              45.416768
            ],
            [
              35.987091,
              45.3589
            ],
            [
              36.033783,
              45.376267
            ],
            [
              36.074982,
              45.426407
            ],
            [
              36.1409,
              45.461094
            ],
            [
              36.24527,
              45.464947
            ],
            [
              36.297455,
              45.474577
            ],
            [
              36.319427,
              45.439899
            ],
            [
              36.35788,
              45.455314
            ],
            [
              36.412811,
              45.434117
            ],
            [
              36.484222,
              45.441826
            ],
            [
              36.533661,
              45.412912
            ],
            [
              36.580353,
              45.426407
            ],
            [
              36.613312,
              45.395557
            ],
            [
              36.643524,
              45.35118
            ],
            [
              36.585846,
              45.329944
            ],
            [
              36.528168,
              45.343459
            ],
            [
              36.484222,
              45.333806
            ],
            [
              36.497269,
              45.308217
            ],
            [
              36.490402,
              45.287931
            ],
            [
              36.442337,
              45.27537
            ],
            [
              36.418991,
              45.217357
            ],
            [
              36.416245,
              45.133133
            ],
            [
              36.45607,
              45.098246
            ],
            [
              36.44371,
              45.066247
            ],
            [
              36.365433,
              45.051696
            ],
            [
              36.272049,
              45.045874
            ],
            [
              36.248703,
              45.012875
            ],
            [
              36.204758,
              45.00802
            ],
            [
              36.13884,
              45.01967
            ],
            [
              36.066055,
              45.048785
            ],
            [
              36.031723,
              45.041023
            ],
            [
              35.998764,
              44.994426
            ],
            [
              35.919113,
              45.000253
            ],
            [
              35.838089,
              44.995397
            ],
            [
              35.820236,
              45.00705
            ],
            [
              35.818863,
              45.030347
            ],
            [
              35.768051,
              45.070126
            ],
            [
              35.680161,
              45.107939
            ],
            [
              35.556564,
              45.122475
            ],
            [
              35.468674,
              45.103092
            ],
            [
              35.402756,
              45.066247
            ],
            [
              35.401382,
              45.027436
            ],
            [
              35.431595,
              45.020641
            ],
            [
              35.431595,
              45.003166
            ],
            [
              35.38353,
              45.000253
            ],
            [
              35.368423,
              44.985685
            ],
            [
              35.37117,
              44.946819
            ],
            [
              35.318985,
              44.962369
            ],
            [
              35.27092,
              44.965284
            ],
            [
              35.251694,
              44.940987
            ],
            [
              35.221481,
              44.916681
            ],
            [
              35.16243,
              44.901119
            ],
            [
              35.128098,
              44.871929
            ],
            [
              35.111618,
              44.822273
            ],
            [
              35.077286,
              44.792069
            ],
            [
              35.036087,
              44.796942
            ],
            [
              35.011368,
              44.832013
            ],
            [
              34.94133,
              44.840778
            ],
            [
              34.898758,
              44.820325
            ],
            [
              34.864426,
              44.824221
            ],
            [
              34.83696,
              44.815454
            ],
            [
              34.771042,
              44.822273
            ],
            [
              34.722977,
              44.812532
            ],
            [
              34.674911,
              44.785247
            ],
            [
              34.61174,
              44.760874
            ],
            [
              34.538956,
              44.755023
            ],
            [
              34.464798,
              44.724784
            ],
            [
              34.376907,
              44.614423
            ],
            [
              34.328842,
              44.543995
            ],
            [
              34.275284,
              44.542037
            ],
            [
              34.236832,
              44.500913
            ],
            [
              34.180527,
              44.488178
            ],
            [
              34.151688,
              44.446036
            ],
            [
              34.103622,
              44.421521
            ],
            [
              34.066544,
              44.418578
            ],
            [
              33.967667,
              44.383256
            ],
            [
              33.931961,
              44.375404
            ],
            [
              33.845444,
              44.399939
            ],
            [
              33.743134,
              44.391598
            ],
            [
              33.64151,
              44.432799
            ],
            [
              33.586578,
              44.495526
            ],
            [
              33.509674,
              44.489648
            ],
            [
              33.386078,
              44.564056
            ],
            [
              33.375092,
              44.587533
            ],
            [
              33.443756,
              44.614912
            ],
            [
              33.512421,
              44.605135
            ],
            [
              33.572845,
              44.612956
            ],
            [
              33.52066,
              44.630551
            ],
            [
              33.515167,
              44.661816
            ],
            [
              33.54332,
              44.689647
            ],
            [
              33.541946,
              44.732589
            ],
            [
              33.519974,
              44.786221
            ],
            [
              33.557053,
              44.84662
            ],
            [
              33.599625,
              44.86317
            ],
            [
              33.622971,
              44.899173
            ],
            [
              33.620224,
              44.945847
            ],
            [
              33.603745,
              45.005108
            ],
            [
              33.585892,
              45.024524
            ],
            [
              33.563919,
              45.096307
            ],
            [
              33.452682,
              45.164127
            ],
            [
              33.389511,
              45.194135
            ],
            [
              33.344193,
              45.181553
            ],
            [
              33.259048,
              45.155411
            ],
            [
              33.212357,
              45.190264
            ],
            [
              33.173904,
              45.196071
            ],
            [
              33.094254,
              45.247338
            ],
            [
              33.076401,
              45.277302
            ],
            [
              33.046188,
              45.286965
            ],
            [
              32.948685,
              45.342976
            ],
            [
              32.866287,
              45.361313
            ],
            [
              32.722092,
              45.361313
            ],
            [
              32.676773,
              45.320772
            ],
            [
              32.593002,
              45.319806
            ],
            [
              32.557297,
              45.332358
            ],
            [
              32.509232,
              45.341046
            ],
            [
              32.481766,
              45.413394
            ],
            [
              32.499619,
              45.438454
            ],
            [
              32.650681,
              45.523187
            ],
            [
              32.708359,
              45.53377
            ],
            [
              32.735825,
              45.548198
            ],
            [
              32.76329,
              45.570313
            ],
            [
              32.812729,
              45.562622
            ],
            [
              32.834702,
              45.578003
            ],
            [
              32.831955,
              45.60395
            ],
            [
              32.88414,
              45.642368
            ],
            [
              33.120346,
              45.728712
            ],
            [
              33.153305,
              45.737339
            ],
            [
              33.178024,
              45.755547
            ],
            [
              33.156052,
              45.771834
            ],
            [
              33.172531,
              45.788115
            ],
            [
              33.227463,
              45.753631
            ],
            [
              33.265915,
              45.756505
            ],
            [
              33.373032,
              45.794818
            ],
            [
              33.401871,
              45.826407
            ],
            [
              33.476028,
              45.854152
            ],
            [
              33.513107,
              45.842673
            ],
            [
              33.557053,
              45.852239
            ],
            [
              33.574905,
              45.87041
            ],
            [
              33.613358,
              45.884751
            ],
            [
              33.64357,
              45.87519
            ],
            [
              33.660049,
              45.856065
            ],
            [
              33.690262,
              45.864672
            ],
            [
              33.697128,
              45.907689
            ],
            [
              33.773346,
              45.925364
            ],
            [
              33.679962,
              45.961652
            ],
            [
              33.622284,
              45.944466
            ],
            [
              33.611298,
              46.045595
            ],
            [
              33.64975,
              46.089424
            ],
            [
              33.618851,
              46.138928
            ]
          ]
        ]
      },
      "properties": {
        "name": "",
        "description": "",
        "zone": 1,
        "fill": "#a52714"
      }
    },
    {
      "type": "Feature",
      "geometry": {
        "type": "Polygon",
        "coordinates": [
          [
            [
              33.618851,
              46.138928
            ],
            [
              33.640823,
              46.142734
            ],
            [
              33.614731,
              46.228303
            ],
            [
              33.64769,
              46.225453
            ],
            [
              33.687515,
              46.200745
            ],
            [
              33.730087,
              46.185535
            ],
            [
              33.787766,
              46.204547
            ],
            [
              33.859177,
              46.198844
            ],
            [
              33.914108,
              46.163663
            ],
            [
              34.045944,
              46.107517
            ],
            [
              34.07341,
              46.115134
            ],
            [
              34.140701,
              46.0999
            ],
            [
              34.150314,
              46.082757
            ],
            [
              34.197006,
              46.059891
            ],
            [
              34.250565,
              46.050361
            ],
            [
              34.319229,
              46.058938
            ],
            [
              34.360428,
              46.044642
            ],
            [
              34.408493,
              45.991237
            ],
            [
              34.420853,
              45.968334
            ],
            [
              34.466171,
              45.943511
            ],
            [
              34.500504,
              45.940646
            ],
            [
              34.527969,
              45.954969
            ],
            [
              34.545822,
              45.981695
            ],
            [
              34.576035,
              45.994099
            ],
            [
              34.633713,
              45.979787
            ],
            [
              34.744949,
              45.9053
            ],
            [
              34.793015,
              45.900522
            ],
            [
              34.806747,
              45.871844
            ],
            [
              34.793015,
              45.850804
            ],
            [
              34.794388,
              45.812529
            ],
            [
              34.868546,
              45.789552
            ],
            [
              34.959183,
              45.753152
            ],
            [
              34.978409,
              45.762733
            ],
            [
              34.863739,
              45.933005
            ],
            [
              34.83078,
              46.064656
            ],
            [
              34.806061,
              46.176978
            ],
            [
              34.910431,
              46.239702
            ],
            [
              35.042267,
              46.258695
            ],
            [
              35.105438,
              46.294764
            ],
            [
              35.105438,
              46.342188
            ],
            [
              34.984589,
              46.414192
            ],
            [
              34.907684,
              46.55225
            ],
            [
              34.633026,
              46.667345
            ],
            [
              33.781586,
              46.87803
            ],
            [
              33.592072,
              46.954949
            ],
            [
              33.336639,
              46.988684
            ],
            [
              32.99881,
              46.906184
            ],
            [
              32.855988,
              46.889293
            ],
            [
              32.803802,
              46.729507
            ],
            [
              32.831268,
              46.695609
            ],
            [
              32.688446,
              46.650379
            ],
            [
              32.721405,
              46.597562
            ],
            [
              32.611542,
              46.518241
            ],
            [
              32.526398,
              46.5069
            ],
            [
              32.507172,
              46.442589
            ],
            [
              32.56485,
              46.383886
            ],
            [
              32.636261,
              46.262493
            ],
            [
              32.76535,
              46.167468
            ],
            [
              32.740631,
              46.119893
            ],
            [
              32.905426,
              46.100852
            ],
            [
              33.004303,
              46.133218
            ],
            [
              33.0867,
              46.114182
            ],
            [
              33.174591,
              46.140831
            ],
            [
              33.22403,
              46.213101
            ],
            [
              33.21579,
              46.131315
            ],
            [
              33.284454,
              46.131315
            ],
            [
              33.298187,
              46.091329
            ],
            [
              33.353119,
              46.102757
            ],
            [
              33.42453,
              46.05322
            ],
            [
              33.493195,
              46.060844
            ],
            [
              33.54538,
              46.110374
            ],
            [
              33.618851,
              46.138928
            ]
          ]
        ]
      },
      "properties": {
        "name": "",
        "description": "",
        "zone": 1,
        "fill": "#a52714"
      }
    },
    {
      "type": "Feature",
      "geometry": {
        "type": "Point",
        "coordinates": [
          33.162231,
          46.698435
        ]
      },
      "properties": {
        "zone": 1,
        "fill": "#a52714"
      }
    },
    {
      "type": "Feature",
      "geometry": {
        "type": "Point",
        "coordinates": [
          31.602173,
          47.439235
        ]
      },
      "properties": {
        "zone": 1,
        "fill": "#a52714"
      }
    },
    {
      "type": "Feature",
      "geometry": {
        "type": "Point",
        "coordinates": [
          29.987183,
          49.435985
        ]
      },
      "properties": {
        "zone": 1,
        "fill": "#a52714"
      }
    },
    {
      "type": "Feature",
      "geometry": {
        "type": "Point",
        "coordinates": [
          30.962219,
          50.51168
        ]
      },
      "properties": {
        "zone": 1,
        "fill": "#a52714"
      }
    },
    {
      "type": "Feature",
      "geometry": {
        "type": "Point",
        "coordinates": [
          32.500305,
          49.754654
        ]
      },
      "properties": {
        "zone": 1,
        "fill": "#a52714"
      }
    },
    {
      "type": "Feature",
      "geometry": {
        "type": "Polygon",
        "coordinates": [
          [
            [
              33.928528,
              51.903613
            ],
            [
              34.049377,
              51.903613
            ],
            [
              34.129028,
              51.8731
            ],
            [
              34.282837,
              51.879882
            ],
            [
              34.40918,
              51.801822
            ],
            [
              34.417419,
              51.730431
            ],
            [
              34.389954,
              51.703204
            ],
            [
              34.28833,
              51.721924
            ],
            [
              34.230652,
              51.689585
            ],
            [
              34.129028,
              51.682348
            ],
            [
              34.094009,
              51.667019
            ],
            [
              34.080276,
              51.640607
            ],
            [
              34.093323,
              51.633788
            ],
            [
              34.136581,
              51.624411
            ],
            [
              34.155121,
              51.57963
            ],
            [
              34.202499,
              51.545908
            ],
            [
              34.225845,
              51.50746
            ],
            [
              34.219666,
              51.471547
            ],
            [
              34.212112,
              51.447588
            ],
            [
              34.218979,
              51.42533
            ],
            [
              34.209366,
              51.411199
            ],
            [
              34.183273,
              51.407344
            ],
            [
              34.185333,
              51.394922
            ],
            [
              34.218979,
              51.371352
            ],
            [
              34.245758,
              51.364064
            ],
            [
              34.271164,
              51.360634
            ],
            [
              34.295883,
              51.367494
            ],
            [
              34.306183,
              51.334044
            ],
            [
              34.28215,
              51.301857
            ],
            [
              34.245071,
              51.275662
            ],
            [
              34.191513,
              51.248593
            ],
            [
              34.27597,
              51.227098
            ],
            [
              34.334335,
              51.248163
            ],
            [
              34.39064,
              51.255899
            ],
            [
              34.51355,
              51.227098
            ],
            [
              34.571228,
              51.236987
            ],
            [
              34.610367,
              51.232258
            ],
            [
              34.62616,
              51.221077
            ],
            [
              34.646072,
              51.178052
            ],
            [
              34.673538,
              51.167719
            ],
            [
              34.745636,
              51.163414
            ],
            [
              34.817734,
              51.174177
            ],
            [
              34.906998,
              51.196558
            ],
            [
              34.948883,
              51.215056
            ],
            [
              34.974976,
              51.215056
            ],
            [
              35.001068,
              51.20043
            ],
            [
              35.066986,
              51.210755
            ],
            [
              35.096512,
              51.196558
            ],
            [
              35.115738,
              51.119903
            ],
            [
              35.140457,
              51.062544
            ],
            [
              35.17067,
              51.040962
            ],
            [
              35.119858,
              51.023258
            ],
            [
              35.027161,
              51.023689
            ],
            [
              34.918671,
              50.986531
            ],
            [
              34.904251,
              50.921216
            ],
            [
              34.84726,
              50.904765
            ],
            [
              34.774475,
              50.932902
            ],
            [
              34.656372,
              50.929007
            ],
            [
              34.654999,
              50.988692
            ],
            [
              34.608307,
              51.041394
            ],
            [
              34.477844,
              51.056071
            ],
            [
              34.383087,
              51.113006
            ],
            [
              34.314423,
              51.11042
            ],
            [
              34.240265,
              51.133693
            ],
            [
              34.107056,
              51.117317
            ],
            [
              34.057617,
              51.158677
            ],
            [
              33.988953,
              51.201721
            ],
            [
              33.9505,
              51.287688
            ],
            [
              33.769226,
              51.414625
            ],
            [
              33.744507,
              51.508742
            ],
            [
              33.717041,
              51.597548
            ],
            [
              33.711548,
              51.650407
            ],
            [
              33.659363,
              51.713416
            ],
            [
              33.719788,
              51.825593
            ],
            [
              33.821411,
              51.881578
            ],
            [
              33.928528,
              51.903613
            ]
          ]
        ]
      },
      "properties": {
        "zone": 1,
        "fill": "#a52714"
      }
    },
    {
      "type": "Feature",
      "geometry": {
        "type": "Polygon",
        "coordinates": [
          [
            [
              28.431244,
              51.565973
            ],
            [
              28.472443,
              51.57963
            ],
            [
              28.615265,
              51.554874
            ],
            [
              28.642731,
              51.448016
            ],
            [
              28.66745,
              51.441169
            ],
            [
              28.697662,
              51.449728
            ],
            [
              28.725128,
              51.402633
            ],
            [
              28.753967,
              51.423189
            ],
            [
              28.751221,
              51.49592
            ],
            [
              28.840485,
              51.565973
            ],
            [
              28.990173,
              51.57707
            ],
            [
              29.057465,
              51.635919
            ],
            [
              29.139862,
              51.646146
            ],
            [
              29.233246,
              51.537794
            ],
            [
              29.219513,
              51.466841
            ],
            [
              29.279938,
              51.421477
            ],
            [
              29.292297,
              51.372638
            ],
            [
              29.329376,
              51.370066
            ],
            [
              29.376068,
              51.395778
            ],
            [
              29.457092,
              51.385495
            ],
            [
              29.509277,
              51.436032
            ],
            [
              29.572449,
              51.453151
            ],
            [
              29.609528,
              51.485659
            ],
            [
              29.690552,
              51.491645
            ],
            [
              29.733124,
              51.443737
            ],
            [
              29.838867,
              51.430896
            ],
            [
              29.885559,
              51.459997
            ],
            [
              29.921265,
              51.458285
            ],
            [
              29.970703,
              51.471119
            ],
            [
              29.981689,
              51.427471
            ],
            [
              30.130005,
              51.400919
            ],
            [
              30.132751,
              51.310013
            ],
            [
              30.072327,
              51.2937
            ],
            [
              29.994049,
              51.306579
            ],
            [
              29.855347,
              51.28597
            ],
            [
              29.855347,
              51.230968
            ],
            [
              29.838867,
              51.049164
            ],
            [
              29.797668,
              51.035349
            ],
            [
              29.538116,
              51.01721
            ],
            [
              29.466705,
              50.9982
            ],
            [
              29.076691,
              51.035349
            ],
            [
              28.99704,
              51.053481
            ],
            [
              28.677063,
              51.06988
            ],
            [
              28.57132,
              51.098348
            ],
            [
              28.512268,
              51.133693
            ],
            [
              28.444977,
              51.251601
            ],
            [
              28.423004,
              51.387209
            ],
            [
              28.421631,
              51.495065
            ],
            [
              28.431244,
              51.565973
            ]
          ]
        ]
      },
      "properties": {
        "zone": 1,
        "fill": "#a52714"
      }
    },
    {
      "type": "Feature",
      "geometry": {
        "type": "Point",
        "coordinates": [
          29.924011,
          51.101797
        ]
      },
      "properties": {
        "zone": 1,
        "fill": "#a52714"
      }
    },
    {
      "type": "Feature",
      "geometry": {
        "type": "Point",
        "coordinates": [
          30.780945,
          51.222368
        ]
      },
      "properties": {
        "zone": 1,
        "fill": "#a52714"
      }
    },
    {
      "type": "Feature",
      "geometry": {
        "type": "Polygon",
        "coordinates": [
          [
            [
              30.551605,
              51.263634
            ],
            [
              30.574951,
              51.28597
            ],
            [
              30.579071,
              51.306579
            ],
            [
              30.635376,
              51.336618
            ],
            [
              30.629883,
              51.359777
            ],
            [
              30.640869,
              51.374352
            ],
            [
              30.613403,
              51.423189
            ],
            [
              30.581818,
              51.430896
            ],
            [
              30.583191,
              51.49592
            ],
            [
              30.566711,
              51.548897
            ],
            [
              30.524139,
              51.561705
            ],
            [
              30.510406,
              51.609489
            ],
            [
              30.558472,
              51.646998
            ],
            [
              30.572205,
              51.701502
            ],
            [
              30.61615,
              51.709161
            ],
            [
              30.618896,
              51.76699
            ],
            [
              30.665588,
              51.802671
            ],
            [
              30.709534,
              51.86886
            ],
            [
              30.768585,
              51.895986
            ],
            [
              30.811157,
              51.926484
            ],
            [
              30.823517,
              51.946804
            ],
            [
              30.894928,
              51.996719
            ],
            [
              30.916901,
              52.028838
            ],
            [
              30.94162,
              52.066845
            ],
            [
              31.131134,
              52.081194
            ],
            [
              31.213531,
              52.048268
            ],
            [
              31.25885,
              52.049112
            ],
            [
              31.320648,
              52.102288
            ],
            [
              31.387939,
              52.122528
            ],
            [
              31.441498,
              52.120842
            ],
            [
              31.632385,
              52.095539
            ],
            [
              31.81778,
              52.103131
            ],
            [
              31.879578,
              52.088789
            ],
            [
              31.900177,
              52.035597
            ],
            [
              31.950989,
              52.033908
            ],
            [
              32.003174,
              52.051646
            ],
            [
              32.093811,
              52.041511
            ],
            [
              32.261353,
              52.103131
            ],
            [
              32.305298,
              52.136017
            ],
            [
              32.321777,
              52.21518
            ],
            [
              32.367096,
              52.247983
            ],
            [
              32.338257,
              52.283282
            ],
            [
              32.341003,
              52.321911
            ],
            [
              32.379456,
              52.337017
            ],
            [
              32.468719,
              52.306799
            ],
            [
              32.540131,
              52.310997
            ],
            [
              32.724152,
              52.251346
            ],
            [
              32.835388,
              52.263955
            ],
            [
              32.950745,
              52.253868
            ],
            [
              33.041382,
              52.310997
            ],
            [
              33.074341,
              52.309318
            ],
            [
              33.114166,
              52.253027
            ],
            [
              33.050995,
              52.110722
            ],
            [
              32.89032,
              52.0432
            ],
            [
              32.784576,
              51.989954
            ],
            [
              32.733765,
              51.976422
            ],
            [
              32.689819,
              51.912932
            ],
            [
              32.604675,
              51.902765
            ],
            [
              32.514038,
              51.938339
            ],
            [
              32.357483,
              51.930718
            ],
            [
              32.309418,
              51.945958
            ],
            [
              32.2229,
              51.987417
            ],
            [
              32.080078,
              51.971346
            ],
            [
              31.941376,
              51.923943
            ],
            [
              31.875458,
              51.868012
            ],
            [
              31.757355,
              51.850201
            ],
            [
              31.624146,
              51.829837
            ],
            [
              31.462097,
              51.76444
            ],
            [
              31.433258,
              51.652963
            ],
            [
              31.3797,
              51.589869
            ],
            [
              31.269836,
              51.535231
            ],
            [
              31.052856,
              51.460852
            ],
            [
              30.904541,
              51.361492
            ],
            [
              30.745239,
              51.273085
            ],
            [
              30.573578,
              51.224088
            ],
            [
              30.551605,
              51.263634
            ]
          ]
        ]
      },
      "properties": {
        "zone": 1,
        "fill": "#a52714"
      }
    }
  ]
}