{"type":"FeatureCollection","name":"deepstatemap_data_20220501","sourceHistoryId":1651432119,"sourceCreatedAt":"2022-05-01T19:08:39.000Z","crs":{"type":"name","properties":{"name":"urn:ogc:def:crs:OGC:1.3:CRS84"}},"features":[{"type":"Feature","properties":{"controlStatus":"russian_occupied"},"geometry":{"type":"MultiPolygon","coordinates":[[[[29.244774,47.1684368],[29.2476923,47.1639435],[29.2700511,47.151804],[29.275716,47.1483016],[29.2885906,47.1438651],[29.2952854,47.1400119],[29.2968303,47.1313706],[29.2940837,47.1224942],[29.2915088,47.1154855],[29.2935688,47.1092937],[29.3011219,47.1056718],[29.3083594,47.103346],[29.3143676,47.1028786],[29.3196891,47.1032292],[29.3286155,47.1054492],[29.3371986,47.1075523],[29.3457816,47.1057997],[29.3500732,47.1005416],[29.354193,47.0953999],[29.3586562,47.0840629],[29.3602012,47.077166],[29.3650077,47.0714375],[29.366896,47.0699175],[29.3741057,47.062785],[29.3777106,47.0614987],[29.3832038,47.0604462],[29.3895553,47.060797],[29.3924735,47.0590429],[29.3880103,47.0569379],[29.3830321,47.0560023],[29.3802856,47.0524937],[29.3790839,47.048283],[29.3795989,47.0434872],[29.3804572,47.0391588],[29.3837188,47.0360001],[29.3880103,47.0329582],[29.3873237,47.02898],[29.3837188,47.0258206],[29.3778823,47.0257036],[29.3725608,47.0264057],[29.3656943,47.0282779],[29.3627761,47.0317881],[29.3615745,47.0381059],[29.3589995,47.0406796],[29.3545364,47.0392758],[29.3545364,47.0356491],[29.3565963,47.0312031],[29.3591712,47.0267568],[29.3617461,47.0233632],[29.3655227,47.0172778],[29.3689559,47.0135325],[29.3722175,47.0082653],[29.3763373,47.0029976],[29.3761657,46.9963244],[29.3739341,46.9937486],[29.3614028,46.9926948],[29.3462966,46.9922264],[29.3310187,46.992929],[29.3178008,46.9959732],[29.3088744,46.9959732],[29.3083594,46.9904701],[29.3081878,46.9849664],[29.3040679,46.98239],[29.2990897,46.9853177],[29.3006347,46.9896504],[29.3033813,46.9933973],[29.3061278,46.9980806],[29.3021796,47.0007733],[29.2953132,46.9984318],[29.2920516,46.9950365],[29.291365,46.988011],[29.2930816,46.9800477],[29.2987464,46.97548],[29.3054412,46.9714975],[29.3100761,46.9662262],[29.312136,46.9642346],[29.3155692,46.9598999],[29.3224357,46.9524011],[29.3299888,46.9495887],[29.3402885,46.9430261],[29.3489595,46.9385073],[29.3605445,46.9345872],[29.3722175,46.933415],[29.3811439,46.9345872],[29.3928168,46.9378691],[29.4003699,46.9444324],[29.4065497,46.9495887],[29.4141028,46.9556819],[29.4199393,46.9615401],[29.4271491,46.9655233],[29.4384788,46.965289],[29.4494651,46.9617744],[29.4518684,46.9584939],[29.4580482,46.9526354],[29.463198,46.9502918],[29.4714377,46.9505262],[29.4752143,46.9441981],[29.4764159,46.9363454],[29.4755576,46.9298984],[29.4736693,46.9253263],[29.4729827,46.9193469],[29.4680045,46.9106698],[29.464743,46.9062134],[29.4480918,46.9018739],[29.4546149,46.8908478],[29.4635413,46.8881495],[29.4673179,46.8809927],[29.4848273,46.8843952],[29.4846557,46.8762991],[29.4841407,46.8706664],[29.4837974,46.8649156],[29.4884322,46.8555253],[29.4891832,46.8537645],[29.4792269,46.8531188],[29.4744633,46.8469846],[29.4706867,46.8508002],[29.4692276,46.8536177],[29.4681118,46.8562003],[29.4657086,46.8572568],[29.4593571,46.8576089],[29.4550655,46.855496],[29.4529198,46.8547329],[29.4484566,46.8544395],[29.4379852,46.8598392],[29.4333504,46.8614825],[29.4321488,46.8596044],[29.4357536,46.8529133],[29.4357536,46.8493914],[29.4103478,46.8466911],[29.4048546,46.8462214],[29.4041679,46.8328351],[29.4050263,46.8158038],[29.3978165,46.8185057],[29.3964432,46.8068749],[29.3969582,46.8046425],[29.4069145,46.8033499],[29.4084595,46.7766701],[29.4024513,46.774554],[29.4014214,46.7584451],[29.4120644,46.7590331],[29.414296,46.7551521],[29.4582413,46.7592683],[29.4621895,46.773731],[29.4697426,46.7716148],[29.4754074,46.7803144],[29.4839905,46.7824303],[29.4875954,46.781725],[29.4891403,46.7781984],[29.5059631,46.7799618],[29.5081947,46.7846637],[29.5104263,46.7883075],[29.5123146,46.7888951],[29.5148895,46.784076],[29.5251892,46.7805495],[29.5349739,46.777258],[29.5418404,46.7781984],[29.5340298,46.7746716],[29.5366905,46.7709093],[29.5410679,46.767676],[29.5499943,46.7669705],[29.5586632,46.7557402],[29.5598648,46.7420961],[29.5567749,46.7353903],[29.5586632,46.7242123],[29.5562599,46.7173867],[29.5629547,46.7142089],[29.5825241,46.7138559],[29.5742844,46.72433],[29.5718811,46.7325666],[29.5727394,46.7403315],[29.5811508,46.7432724],[29.5935104,46.7431548],[29.6070717,46.7409197],[29.6273277,46.7412726],[29.6426056,46.7431548],[29.6573685,46.7443311],[29.6573685,46.7358609],[29.6693848,46.7330373],[29.6697281,46.7212703],[29.6635483,46.7123258],[29.6669815,46.7036151],[29.6583126,46.7014373],[29.6486137,46.7010841],[29.6483563,46.6953741],[29.6549652,46.6953152],[29.6511887,46.6910764],[29.6599434,46.6897812],[29.6547936,46.6856597],[29.6527336,46.6822446],[29.6551369,46.6767093],[29.6635483,46.6752959],[29.6676682,46.6754137],[29.6741913,46.6763559],[29.6779678,46.6755315],[29.6814011,46.673058],[29.6858643,46.6717623],[29.6912716,46.6727635],[29.6943615,46.6741769],[29.6952198,46.6790059],[29.6993397,46.678417],[29.7013996,46.6760615],[29.7008846,46.6708789],[29.6984814,46.666756],[29.7000263,46.6649889],[29.7063778,46.6642821],[29.7091244,46.6620437],[29.7147892,46.6589806],[29.7182224,46.6576846],[29.722514,46.6589806],[29.7268055,46.6613369],[29.7254322,46.6652246],[29.721999,46.6681696],[29.7244022,46.6718212],[29.7292088,46.6718212],[29.7357319,46.6700543],[29.7369335,46.667345],[29.7400234,46.6646355],[29.7434567,46.6659314],[29.7451733,46.6682874],[29.754958,46.6688764],[29.7619961,46.668523],[29.7649143,46.6651068],[29.7592495,46.656742],[29.7547863,46.6514397],[29.7561596,46.6473153],[29.7654293,46.6516754],[29.7734974,46.6556816],[29.774699,46.6502613],[29.7643993,46.6479045],[29.7595928,46.645312],[29.7673176,46.6376513],[29.7729824,46.6411871],[29.7786472,46.6364727],[29.7781323,46.633408],[29.7649143,46.6337617],[29.7585629,46.6338795],[29.7515247,46.6306969],[29.7597645,46.6259815],[29.7630261,46.6227984],[29.7626827,46.619733],[29.7585629,46.6212657],[29.7546146,46.6237415],[29.7482632,46.6262173],[29.7424267,46.625392],[29.7425984,46.6232699],[29.7455166,46.6204404],[29.7522114,46.6172569],[29.7558163,46.615842],[29.7504948,46.614427],[29.7479199,46.614427],[29.7496365,46.6117149],[29.7472332,46.6079413],[29.7420834,46.6061724],[29.7374485,46.6098282],[29.7338436,46.6057006],[29.731097,46.6007472],[29.7232006,46.6021625],[29.722514,46.5990959],[29.731097,46.5948496],[29.7389935,46.5931982],[29.7513531,46.5898952],[29.7602795,46.5901311],[29.7671459,46.5894233],[29.7664593,46.5856481],[29.7760723,46.5814008],[29.7843121,46.578569],[29.7925518,46.5823447],[29.795985,46.5804569],[29.7983883,46.5851762],[29.7946117,46.5896592],[29.795985,46.5948496],[29.8042248,46.5922545],[29.806628,46.5870639],[29.8107479,46.5894233],[29.807658,46.5943778],[29.8055981,46.6016907],[29.7977017,46.6021625],[29.8018215,46.6059365],[29.8090313,46.6040495],[29.8176144,46.6014548],[29.8134945,46.5962651],[29.8138378,46.5856481],[29.8207043,46.590603],[29.8237942,46.5969728],[29.8217342,46.6026343],[29.828944,46.6016907],[29.8306606,46.5974446],[29.8323773,46.5953215],[29.8399304,46.5969728],[29.8368404,46.5891874],[29.828944,46.586356],[29.8258541,46.5817547],[29.8311756,46.579631],[29.8394154,46.5817547],[29.8457668,46.5860021],[29.8495434,46.5891874],[29.8531483,46.586474],[29.8533199,46.5822267],[29.8560665,46.579513],[29.8625897,46.578333],[29.8713444,46.578687],[29.8718594,46.5822267],[29.8713444,46.5875358],[29.8770092,46.5861201],[29.8780392,46.5825806],[29.8752926,46.578333],[29.8685978,46.5760911],[29.8625897,46.5737311],[29.861388,46.571253],[29.8670528,46.5706629],[29.8734043,46.5704269],[29.8716877,46.5686567],[29.8596714,46.5696008],[29.8598431,46.5666504],[29.8631046,46.564408],[29.8696278,46.5626376],[29.8794125,46.5624016],[29.883189,46.5638179],[29.8897122,46.5594508],[29.893832,46.556854],[29.8964069,46.5526043],[29.8922871,46.5500072],[29.8869656,46.5524863],[29.8795841,46.5557916],[29.8795841,46.5588606],[29.8718594,46.5580344],[29.8739193,46.5504794],[29.8761509,46.5462293],[29.8778675,46.5426873],[29.8816441,46.5417427],[29.8845623,46.5462293],[29.8876522,46.5474099],[29.9455021,46.5549653],[29.9479054,46.5615754],[29.9386356,46.5596869],[29.9427555,46.5667684],[29.949622,46.5684207],[29.9376057,46.5703089],[29.9345158,46.5804569],[29.936919,46.5835245],[29.9352024,46.5884795],[29.9393223,46.5894233],[29.9444721,46.5842324],[29.9633549,46.5837605],[29.9681614,46.5990959],[29.9585484,46.6094744],[29.9544285,46.6182002],[29.9530552,46.6271604],[29.9558018,46.6387121],[29.9479054,46.6434264],[29.9489353,46.6521467],[29.9544285,46.6582737],[29.958205,46.6707611],[29.9623249,46.682068],[29.969878,46.6860719],[29.9678181,46.700672],[29.9659784,46.712263],[29.96821,46.7212076],[29.969755,46.72968],[29.9707849,46.736857],[29.9723299,46.7409746],[29.9742182,46.7450918],[29.974309,46.7536004],[29.9661551,46.7558938],[29.9655543,46.7595983],[29.9664126,46.771592],[29.9429415,46.7950167],[29.9343584,46.8060626],[29.9625108,46.818046],[29.9783037,46.8166363],[29.9803636,46.8201604],[29.9714372,46.8248588],[29.9676607,46.8319057],[29.958391,46.8370729],[29.9491213,46.8427092],[29.9250887,46.8349591],[29.9316118,46.8286173],[29.9062059,46.8192207],[29.8825166,46.850693],[29.8928163,46.8530409],[29.8825166,46.8882477],[29.8454378,46.8812082],[29.850931,46.8746371],[29.7486208,46.8614926],[29.7348543,46.9206888],[29.7184084,46.9182725],[29.7128816,46.9338188],[29.6991823,46.9239003],[29.6476839,46.9206175],[29.6366976,46.957186],[29.5694063,46.9403113],[29.5536134,46.957186],[29.6016786,46.9656213],[29.6003053,47.0414794],[29.6284578,47.0456906],[29.6120304,47.0998224],[29.5502323,47.095148],[29.5474857,47.0736407],[29.5145268,47.1110392],[29.4884342,47.113843],[29.4939274,47.1278599],[29.5804447,47.1372025],[29.5516056,47.2538461],[29.5982975,47.2575744],[29.5782991,47.367164],[29.4856876,47.3609318],[29.4815678,47.3274326],[29.4856876,47.3069505],[29.430756,47.2911179],[29.4183964,47.3069505],[29.408011,47.296427],[29.3970247,47.341114],[29.4074101,47.3637224],[29.3868107,47.3823229],[29.3428654,47.3711634],[29.3140263,47.4483016],[29.2426151,47.4185749],[29.2426151,47.464087],[29.1863102,47.4260082],[29.1849369,47.4464442],[29.1986698,47.4631586],[29.1588444,47.4520162],[29.1519779,47.4668722],[29.1835636,47.4733704],[29.1904301,47.499355],[29.1849369,47.5188351],[29.1464848,47.5058492],[29.1148991,47.5512857],[29.1657108,47.5707465],[29.1904301,47.5707465],[29.1863102,47.5911262],[29.2034715,47.5969504],[29.2003816,47.6034324],[29.2161745,47.6122283],[29.2106813,47.6293527],[29.2196077,47.6272703],[29.2336839,47.642308],[29.2072481,47.6427706],[29.2110246,47.6587289],[29.219951,47.6584976],[29.2196077,47.6802301],[29.2312807,47.6843906],[29.2028008,47.7194487],[29.215847,47.7383851],[29.2515526,47.7522367],[29.2803917,47.8039167],[29.2481194,47.8122176],[29.2316399,47.7979208],[29.2165337,47.798382],[29.1973076,47.818673],[29.2051277,47.8377647],[29.2254601,47.8546238],[29.239193,47.8661413],[29.2784185,47.886026],[29.217907,47.8859453],[29.2234977,47.8901741],[29.2185195,47.8955839],[29.2143997,47.8925913],[29.212683,47.8875265],[29.2099365,47.8854544],[29.2013534,47.8844184],[29.1977485,47.8963896],[29.1846835,47.9660878],[29.1771304,47.9656281],[29.1750704,47.9913683],[29.1249453,47.9941254],[29.1304385,47.9817172],[29.1070925,47.9835557],[29.0878665,47.9780401],[29.0995394,47.9610302],[29.081,47.972524],[29.0871798,47.9467744],[29.0658938,47.9430948],[29.0446078,47.9458545],[29.026755,47.9458545],[29.0116488,47.9545926],[28.9986025,47.9596508],[28.9766299,47.9706852],[28.9622103,47.9784998],[28.9271914,47.9612601],[28.8784396,48.0003284],[28.8880526,48.0058415],[28.8835894,48.0088276],[28.8890826,48.0115838],[28.8938891,48.0088276],[28.9021289,48.0102057],[28.9010989,48.0129618],[28.8870226,48.0141101],[28.8815295,48.0111244],[28.8677966,48.0173253],[28.8695132,48.0196218],[28.8595568,48.0219182],[28.8547503,48.0189329],[28.8564669,48.0278882],[28.8379627,48.0356595],[28.8544422,48.0618237],[28.8420826,48.068248],[28.8516956,48.0728363],[28.8407093,48.0769654],[28.8565022,48.1012744],[28.8448292,48.1251136],[28.8283497,48.1278636],[28.8132435,48.1237386],[28.8050037,48.1333631],[28.7919575,48.1274053],[28.7741047,48.1260303],[28.7548786,48.1374873],[28.7274128,48.1310717],[28.7033802,48.1274053],[28.6889607,48.1241969],[28.678661,48.141153],[28.6841541,48.1480255],[28.6436421,48.1439021],[28.6477619,48.1530648],[28.6264759,48.1571874],[28.6086231,48.1581035],[28.5928303,48.1718431],[28.5756641,48.1663477],[28.5703035,48.1738358],[28.5433918,48.1663477],[28.5351521,48.1571874],[28.5262257,48.154439],[28.5071321,48.153684],[28.5200459,48.1379456],[28.5001331,48.1260303],[28.4997898,48.1209884],[28.4956338,48.1191235],[28.4946789,48.1195604],[28.4945287,48.119367],[28.4918894,48.1188442],[28.4987773,48.1152413],[28.4995311,48.1154671],[28.5091442,48.1216554],[28.5218471,48.1209679],[28.5410732,48.1182175],[28.5640758,48.1101949],[28.5784954,48.1044636],[28.5939449,48.0980439],[28.611111,48.0955216],[28.6255306,48.0925406],[28.632397,48.0881835],[28.6354869,48.0796974],[28.633427,48.0702922],[28.621754,48.0643271],[28.6128276,48.064786],[28.6059612,48.0774036],[28.5990947,48.0760273],[28.5960048,48.0668509],[28.5891384,48.056755],[28.5884517,48.0482637],[28.5750621,48.0425256],[28.5530895,48.0393119],[28.5441631,48.0358685],[28.5427898,48.0271442],[28.5362667,48.021863],[28.5283702,48.0129066],[28.5318035,48.0034893],[28.5390132,47.9984354],[28.5465663,47.9972867],[28.5599559,47.9922321],[28.5750621,47.9984354],[28.578152,48.0078536],[28.5877651,48.0172702],[28.590855,48.0276034],[28.5932582,48.0349503],[28.6087127,48.0370175],[28.6207241,48.0298994],[28.6368602,48.0276034],[28.6509365,48.0257665],[28.6773723,48.0276034],[28.7024349,48.0234704],[28.7048381,48.0129066],[28.7027782,48.0032596],[28.7141078,47.9959082],[28.730244,47.9812024],[28.7460369,47.9761463],[28.7563365,47.9754568],[28.7625163,47.9784446],[28.773846,47.9848792],[28.7882656,47.9864878],[28.7944454,47.9812024],[28.7927288,47.9713195],[28.8013118,47.963274],[28.8157314,47.9506284],[28.8298076,47.9441895],[28.8353008,47.9347596],[28.8284343,47.925558],[28.8201946,47.9117527],[28.8250011,47.9016264],[28.8356441,47.8974832],[28.8528102,47.897253],[28.8730663,47.8947209],[28.8867992,47.890347],[28.9080852,47.8857425],[28.925938,47.8843611],[28.9424175,47.8848216],[28.9503139,47.8811376],[28.9571804,47.8811376],[28.9702266,47.8783744],[28.9815563,47.876302],[28.9901393,47.8737689],[28.9987224,47.8701992],[29.0061038,47.8658233],[29.0191501,47.8559184],[29.0251583,47.8486612],[29.02327,47.841864],[29.0177768,47.8323002],[29.0107387,47.8253855],[29.0078205,47.8160493],[29.0016406,47.8087866],[28.9937442,47.8002545],[28.9884227,47.7905677],[28.9870494,47.782494],[28.9834445,47.7688813],[28.9803546,47.757573],[28.9810413,47.7455698],[28.9734882,47.7303309],[28.967995,47.7199382],[28.9721149,47.7044608],[28.979668,47.6924453],[28.9861911,47.6718738],[28.991341,47.6584634],[28.9958042,47.6503692],[28.9927143,47.6390352],[28.9855045,47.6263105],[28.9831012,47.6133512],[28.9937442,47.6013147],[29.0088504,47.5902017],[29.0270465,47.5723695],[29.0273899,47.5512874],[29.0208667,47.536687],[29.0253299,47.518373],[29.0414661,47.5102571],[29.0606922,47.4995886],[29.0768283,47.4928617],[29.0967411,47.4831177],[29.1080707,47.4712834],[29.1180271,47.4585179],[29.1060108,47.4450527],[29.0909046,47.4369255],[29.0788883,47.4241516],[29.0778583,47.4141626],[29.0915912,47.4048688],[29.1077274,47.3927844],[29.1321033,47.3816271],[29.1492694,47.3695374],[29.1588825,47.3590729],[29.1640323,47.3474433],[29.1605991,47.337905],[29.1468662,47.3306921],[29.13176,47.3288305],[29.1276401,47.3255726],[29.1228336,47.3167287],[29.1245502,47.3102111],[29.1338199,47.3090472],[29.1475528,47.3104439],[29.163689,47.3167287],[29.1726154,47.3207435],[29.1822284,47.325398],[29.1957038,47.3292377],[29.2094367,47.3331353],[29.2205947,47.3256889],[29.2394775,47.3395336],[29.2484039,47.346978],[29.2616218,47.3526769],[29.2707199,47.3629101],[29.2829078,47.3724438],[29.288401,47.37814],[29.2983573,47.3841842],[29.3129486,47.3799998],[29.3227333,47.3695374],[29.3235916,47.360352],[29.2957824,47.3481411],[29.2727798,47.3383703],[29.2532104,47.334764],[29.224028,47.3137028],[29.2075485,47.296708],[29.1946739,47.3039256],[29.1744178,47.2963588],[29.1596549,47.2939139],[29.1455787,47.2930989],[29.1277259,47.2880922],[29.1143363,47.2819205],[29.1272109,47.2733022],[29.1342541,47.2674838],[29.1418072,47.2609602],[29.1467854,47.2540863],[29.1478153,47.2481437],[29.1497036,47.2446478],[29.1567417,47.2394034],[29.1612049,47.2329929],[29.1632648,47.227048],[29.1670414,47.2198199],[29.1706463,47.2152726],[29.179401,47.214573],[29.1861516,47.2155202],[29.187071,47.2160354],[29.18701,47.2131299],[29.1897565,47.2077658],[29.1911298,47.2014681],[29.195593,47.1944698],[29.2007429,47.1895704],[29.2093259,47.1821039],[29.2223722,47.17697],[29.217909,47.1650669],[29.2337018,47.1526941],[29.2405683,47.159231],[29.2409116,47.1711355],[29.2411156,47.1714053],[29.244774,47.1684368]],[[29.1870743,47.2161906],[29.187071,47.2160354],[29.1872206,47.2161193],[29.1870743,47.2161906]],[[29.1872206,47.2161193],[29.1879112,47.2157826],[29.188748,47.2138003],[29.1893918,47.2119346],[29.1899711,47.2100835],[29.1904217,47.2080281],[29.1907436,47.2065413],[29.1937047,47.1991792],[29.1957218,47.196963],[29.1979534,47.1943969],[29.2003137,47.1921806],[29.2044765,47.1880976],[29.2062789,47.1868143],[29.2167503,47.1800766],[29.2222435,47.1785306],[29.2264492,47.1769846],[29.2394525,47.1727546],[29.2411156,47.1714053],[29.2532712,47.1874706],[29.2433149,47.2000685],[29.249838,47.2012348],[29.2601377,47.1954029],[29.2852003,47.2038006],[29.2810804,47.2117306],[29.2954999,47.239476],[29.3126661,47.2397091],[29.3305189,47.2571882],[29.3442518,47.2592853],[29.3610746,47.2849099],[29.3428785,47.2914305],[29.3092329,47.2662751],[29.3020231,47.2674399],[29.2941267,47.2604503],[29.2776472,47.267207],[29.2608243,47.254858],[29.250868,47.2634793],[29.2385084,47.2618483],[29.2312986,47.2529938],[29.2191106,47.2518286],[29.2141325,47.2425062],[29.2155057,47.2372616],[29.197653,47.2307343],[29.2024595,47.2244393],[29.1931039,47.2197759],[29.1895849,47.2174441],[29.1872206,47.2161193]]],[[[38.355341,49.0541261],[38.3448782,49.0470349],[38.3403623,49.0426207],[38.3344555,49.0328516],[38.3281413,49.0293108],[38.3315352,49.024416],[38.3377475,49.0177882],[38.3386376,49.0160011],[38.3419272,49.0109707],[38.3460135,49.0073975],[38.3536184,49.005851],[38.3657172,49.0084715],[38.3786888,49.0074017],[38.387088,49.0042116],[38.3965048,49.0086581],[38.4006508,49.0093619],[38.4025228,49.0178915],[38.4068499,49.0361959],[38.355341,49.0541261]]],[[[36.1577873,50.2582685],[36.1901487,50.2553118],[36.2039331,50.2552354],[36.2086199,50.2545081],[36.2107294,50.2375362],[36.2017097,50.2078668],[36.1983475,50.2029996],[36.2478694,50.2025325],[36.2472516,50.1743673],[36.2483332,50.1619472],[36.3192293,50.1578782],[36.3171694,50.11937],[36.3583525,50.1161881],[36.3590392,50.1073813],[36.3475378,50.0997841],[36.3433079,50.0860841],[36.355204,50.0836584],[36.3764899,50.0723117],[36.397261,50.0676841],[36.4042977,50.0752992],[36.4032677,50.0815784],[36.4055594,50.0899831],[36.4113959,50.0995639],[36.4192923,50.1085923],[36.4223822,50.1176191],[36.4330252,50.1388582],[36.4316519,50.1544789],[36.4272647,50.1596073],[36.6498306,50.1116493],[36.6272659,50.095392],[36.6034557,50.0848939],[36.5980431,50.0751556],[36.5832737,50.0738841],[36.5773052,50.0710513],[36.5215754,50.0657748],[36.510997,50.064676],[36.4910062,50.0626221],[36.5138373,50.051855],[36.5718321,50.0561878],[36.5948569,50.0579445],[36.6513999,50.0592406],[36.6663469,50.0265253],[36.6855467,50.0331093],[36.6865697,50.0657185],[36.7576534,50.0634898],[36.7548444,50.0369026],[36.7746016,50.0251688],[36.799873,50.0425171],[36.7983773,50.0739744],[36.8252262,50.0774339],[36.8381295,50.0479433],[36.8619947,50.0182307],[36.9410819,49.9744689],[36.9522349,49.9319776],[37.0059996,49.9105926],[36.999516,49.8908447],[37.0125485,49.8602308],[37.0028923,49.8424104],[37.0058813,49.8298088],[36.9049444,49.7915912],[36.8927814,49.7995755],[36.8959501,49.7798548],[36.8709767,49.7534821],[36.8195089,49.7275947],[36.7711371,49.7333092],[36.756114,49.718998],[36.8228514,49.7072461],[36.8992313,49.6530923],[36.8667575,49.6229478],[36.8502493,49.6125134],[36.8200127,49.6136415],[36.7725967,49.6069855],[36.7801137,49.5974574],[36.8219758,49.5982552],[36.873785,49.5977007],[36.9195213,49.6330377],[36.9460282,49.5971829],[36.9651831,49.5773928],[36.8841467,49.490783],[36.812765,49.5064783],[36.7799257,49.4870283],[36.7759663,49.438169],[36.8255282,49.4071638],[36.8565739,49.3986564],[36.883142,49.3826565],[36.9291616,49.4120993],[37.027052,49.3850086],[37.0931254,49.3946624],[37.1766324,49.392321],[37.178414,49.3778963],[37.160281,49.3254805],[37.0869857,49.2692556],[37.1354671,49.2774343],[37.1853898,49.276614],[37.2133184,49.2502428],[37.2340724,49.2180322],[37.2505519,49.2263288],[37.2549077,49.2277302],[37.258105,49.2296919],[37.267203,49.2323823],[37.2758291,49.2333351],[37.2774599,49.2333071],[37.2792919,49.2337922],[37.2807645,49.2343999],[37.2823093,49.2354086],[37.2950123,49.2384349],[37.3085736,49.240004],[37.331147,49.2255439],[37.3308248,49.2222924],[37.3286146,49.2197136],[37.3268175,49.2170295],[37.3292263,49.2140649],[37.3333568,49.2104906],[37.328057,49.208949],[37.3189354,49.2092577],[37.3133332,49.2109118],[37.334597,49.1938857],[37.3726912,49.1880941],[37.4046854,49.2127102],[37.4601859,49.2083945],[37.5624138,49.1343839],[37.6336279,49.1429383],[37.6595466,49.149162],[37.7400507,49.1468226],[37.7697722,49.1088526],[37.9265109,49.1385562],[37.9625442,49.1269205],[37.9479793,49.0892866],[37.9352618,49.0643803],[37.9467819,49.02716],[37.905329,49.0283805],[37.9157545,49.0137166],[37.8679854,49.0060632],[37.882405,48.988043],[37.9318435,48.9988559],[37.956997,48.9942898],[37.9697799,48.9698952],[37.9779283,48.9524857],[37.9581077,48.944204],[37.957421,48.9369877],[38.0012324,48.9379192],[38.0052222,48.9447091],[37.9938127,48.9698983],[37.9838569,48.9882683],[38.1227309,48.9902959],[38.1879622,49.0254277],[38.2390669,49.039627],[38.2520938,49.0316405],[38.2980888,49.031923],[38.3281413,49.0293108],[38.3344555,49.0328516],[38.303659,49.0453153],[38.2675242,49.0403081],[38.2280539,49.0639498],[38.1784495,49.133396],[38.1832907,49.1619467],[38.1839773,49.2023414],[38.225176,49.215799],[38.2341024,49.3694037],[38.1440081,49.3886564],[38.1083024,49.4440476],[38.1687275,49.5546426],[38.1330218,49.5973864],[38.1879536,49.7395957],[38.1769673,49.8424375],[38.255245,49.9096982],[38.2164373,49.9873451],[38.2147414,49.977442],[38.1968886,49.9708179],[38.1948287,49.9615427],[38.1604964,49.9535911],[38.1714827,49.9421031],[38.1343993,49.9281824],[38.1268508,49.9222136],[38.1289113,49.9301695],[38.1247908,49.9421031],[38.0581862,49.9244239],[38.0459102,49.9152496],[38.0359561,49.9040848],[38.0263227,49.9061304],[38.0196062,49.9121554],[38.0124604,49.9185107],[38.0199166,49.92097],[38.0169017,49.9245344],[38.0439383,49.9327118],[38.0329521,49.9438707],[38.0240291,49.9517127],[38.0090943,49.9626464],[38.0088353,49.9646895],[38.0051429,49.9673951],[37.9991347,49.9639721],[37.9788807,49.9770012],[37.9648025,49.9792082],[37.9553611,49.9945499],[37.924977,50.0350329],[37.8920239,50.0509121],[37.861467,50.0554307],[37.8501326,50.0590639],[37.8185538,50.0719577],[37.797261,50.083964],[37.7546889,50.0780156],[37.746628,50.0918917],[37.7358166,50.0982779],[37.7107436,50.1233811],[37.6896777,50.1427337],[37.6767293,50.1493304],[37.6712603,50.1510895],[37.6548012,50.1660459],[37.6453693,50.174952],[37.6409956,50.175667],[37.6393681,50.1812191],[37.6424713,50.1906756],[37.6132399,50.2192559],[37.6271385,50.2420873],[37.6252474,50.2447159],[37.6269617,50.2640276],[37.626965,50.2925551],[37.6285108,50.2958486],[37.6382977,50.3026509],[37.6365859,50.3101149],[37.6340976,50.3123629],[37.629549,50.3143915],[37.6001937,50.3162537],[37.5856013,50.3145001],[37.5771911,50.3061681],[37.5548071,50.3302821],[37.5207719,50.3364196],[37.5058099,50.350003],[37.5062949,50.3524126],[37.4853008,50.3565312],[37.4830173,50.3591162],[37.4825696,50.3618767],[37.4713717,50.3702444],[37.4709862,50.3752179],[37.4677034,50.3785805],[37.4651066,50.3841324],[37.4659653,50.3880438],[37.4663067,50.3976204],[37.4664741,50.407088],[37.4650962,50.4130539],[37.4659113,50.4178659],[37.4648383,50.4209282],[37.4635939,50.4245378],[37.4661261,50.4298972],[37.4694301,50.4309637],[37.4813174,50.4313737],[37.4856956,50.4354738],[37.4847936,50.4449835],[37.4905883,50.4576647],[37.4774558,50.4596316],[37.4734161,50.4555354],[37.4676606,50.4529691],[37.4429373,50.4473962],[37.4324661,50.4436242],[37.4209679,50.435041],[37.39626,50.4309907],[37.3756915,50.4327058],[37.3522734,50.4373865],[37.3324598,50.4368178],[37.3201565,50.4327918],[37.3158084,50.4299863],[37.308833,50.4254663],[37.3099909,50.4227692],[37.3047614,50.4149673],[37.3027033,50.411604],[37.2999143,50.4062572],[37.2977475,50.405006],[37.2925765,50.4014024],[37.2571976,50.3911926],[37.2561543,50.3925801],[37.2217237,50.3791003],[37.2232276,50.3778303],[37.1825093,50.3634194],[37.1597106,50.3585459],[37.1487247,50.3554795],[37.1422011,50.3613933],[37.103234,50.3574508],[37.103749,50.3526317],[37.0708733,50.3469941],[37.0585997,50.3466101],[37.0453841,50.3447448],[37.0368045,50.348373],[36.9379241,50.350441],[36.9173111,50.3472708],[36.8877786,50.3375224],[36.8732717,50.3365647],[36.8546475,50.3303452],[36.8510463,50.3266718],[36.8328673,50.3136229],[36.805999,50.3105018],[36.7990462,50.3060628],[36.7672927,50.3024403],[36.7655761,50.2925711],[36.7480619,50.2876915],[36.7504615,50.2856631],[36.7507614,50.2830136],[36.7486581,50.2803641],[36.7399885,50.2829628],[36.7291739,50.2776289],[36.719562,50.2772715],[36.7034295,50.2683562],[36.7014994,50.2643991],[36.6973381,50.2664771],[36.6954083,50.2691034],[36.6893584,50.2693156],[36.6840119,50.2589488],[36.6821976,50.2556311],[36.6840371,50.2507891],[36.6791842,50.2374512],[36.6722739,50.230481],[36.6672549,50.2261454],[36.6660125,50.2241708],[36.6638663,50.222043],[36.6522796,50.2189263],[36.6478194,50.2177756],[36.6406105,50.2223072],[36.6188949,50.2269336],[36.6158262,50.2271014],[36.6146458,50.22672],[36.6131434,50.2238707],[36.5954187,50.2300473],[36.5974338,50.2313914],[36.5846463,50.2361408],[36.5777785,50.2394068],[36.5754189,50.2420281],[36.5726402,50.2435205],[36.5712348,50.243915],[36.5698831,50.2439356],[36.5599687,50.2507689],[36.5679939,50.2571348],[36.568466,50.2577111],[36.5742166,50.2552691],[36.5778427,50.2586438],[36.5751069,50.2606878],[36.5803964,50.2625946],[36.5790984,50.2652486],[36.577591,50.2672888],[36.5778861,50.2678478],[36.5765771,50.2695794],[36.5767272,50.2704882],[36.5759331,50.2729604],[36.5757077,50.2742514],[36.5736369,50.2752955],[36.5937859,50.2758985],[36.5933382,50.2780857],[36.5912168,50.2786274],[36.5895486,50.2793815],[36.5882721,50.2810544],[36.5877247,50.2817674],[36.5886526,50.283879],[36.5866274,50.2850993],[36.5832973,50.2862579],[36.5813404,50.2863195],[36.5696267,50.2856143],[36.5610032,50.2844695],[36.5590344,50.2834959],[36.5583587,50.2820972],[36.5554626,50.2814384],[36.539241,50.2836057],[36.5284691,50.2854016],[36.5255723,50.2861347],[36.5271278,50.2925882],[36.5239145,50.2935667],[36.5210444,50.2930098],[36.5159805,50.2944081],[36.5165063,50.2951997],[36.5156587,50.2959914],[36.5131052,50.2959297],[36.5116031,50.2954773],[36.5004901,50.2994522],[36.4973256,50.3024193],[36.4915562,50.3058474],[36.4899065,50.3079596],[36.4896967,50.3098816],[36.4874846,50.3123074],[36.4401061,50.3118689],[36.4342696,50.3291864],[36.4334113,50.330611],[36.4280898,50.3294056],[36.4249459,50.3278987],[36.4245486,50.3270493],[36.4230356,50.3263369],[36.4215228,50.3238161],[36.4187331,50.3214047],[36.4157723,50.3182811],[36.4132621,50.3160615],[36.4085302,50.3119646],[36.3996798,50.3068807],[36.3755614,50.3004666],[36.3741024,50.3002472],[36.3787372,50.293613],[36.3664199,50.287965],[36.3613136,50.2871422],[36.354277,50.2887645],[36.3284421,50.2895199],[36.3046236,50.291924],[36.2968547,50.2919679],[36.2991721,50.2989863],[36.2856108,50.2987121],[36.2854392,50.3032076],[36.2842376,50.3061681],[36.2756545,50.3171306],[36.2784011,50.3230493],[36.2732512,50.3239261],[36.2838942,50.3346653],[36.2766845,50.3401436],[36.2636382,50.3232685],[36.1620147,50.3563556],[36.1577873,50.2582685]]],[[[37.258105,49.2296919],[37.2549077,49.2277302],[37.2505519,49.2263288],[37.2340724,49.2180322],[37.235274,49.2019955],[37.2385356,49.1923486],[37.246947,49.1778746],[37.2160909,49.1312467],[37.2191497,49.12511],[37.2230016,49.1191418],[37.229126,49.1197518],[37.2305269,49.1292131],[37.2610988,49.1342798],[37.277929,49.1461314],[37.2820136,49.1313473],[37.299243,49.1314433],[37.2975922,49.1463637],[37.3062666,49.1563857],[37.3048966,49.1584778],[37.3018096,49.1621976],[37.2999335,49.1639989],[37.2997861,49.1656373],[37.30138,49.1661641],[37.3026797,49.1664322],[37.3030478,49.1678104],[37.3039558,49.1694446],[37.3049138,49.1701878],[37.3055425,49.170608],[37.3056578,49.1707131],[37.3057047,49.170927],[37.3056925,49.1711304],[37.3056522,49.1713319],[37.3055891,49.1714853],[37.3055361,49.1717058],[37.305456,49.1718932],[37.3053998,49.1720325],[37.30529,49.172256],[37.3052041,49.1723804],[37.30507,49.1725829],[37.3048527,49.1727929],[37.3047119,49.1728839],[37.3045985,49.172982],[37.3044668,49.1732134],[37.3044492,49.1733642],[37.3044457,49.1736079],[37.3045513,49.1737929],[37.305086,49.1744899],[37.3057994,49.1749336],[37.3066068,49.1753378],[37.3073539,49.176073],[37.3077704,49.1769596],[37.307807,49.1777116],[37.307718,49.1786627],[37.3075448,49.1793627],[37.3080161,49.1799932],[37.3085522,49.1804348],[37.3099789,49.1809641],[37.3109498,49.181327],[37.3121863,49.1824341],[37.3125256,49.183142],[37.3124163,49.1841551],[37.3121139,49.1848456],[37.3116753,49.1856103],[37.3109838,49.1860767],[37.3100586,49.1865063],[37.3089951,49.1867631],[37.307562,49.1873263],[37.306781,49.1878883],[37.3066479,49.1887723],[37.3070319,49.1900698],[37.307374,49.1907467],[37.3077596,49.1923332],[37.3074372,49.192832],[37.3060529,49.1931375],[37.3050603,49.1930658],[37.3043924,49.1931842],[37.3036292,49.1930751],[37.3021533,49.1927962],[37.3011149,49.1923622],[37.3005743,49.1918787],[37.2996817,49.1919454],[37.2986346,49.1915862],[37.2971883,49.1920095],[37.2967543,49.192394],[37.2964276,49.1928206],[37.296448,49.1930856],[37.2964254,49.1933085],[37.2962277,49.1936558],[37.2961534,49.19401],[37.2959074,49.1944098],[37.2946927,49.1952477],[37.2936554,49.1957946],[37.2924894,49.1962994],[37.2914502,49.1966254],[37.2909351,49.1966989],[37.2903342,49.1968461],[37.2888428,49.197498],[37.2883438,49.1977697],[37.2879374,49.1983003],[37.2877396,49.1985727],[37.2876061,49.198845],[37.287755,49.1994037],[37.2880403,49.1998799],[37.288508,49.2007697],[37.2908802,49.2018593],[37.2933967,49.2025443],[37.294934,49.2034476],[37.2960353,49.204467],[37.2966216,49.2050098],[37.2963904,49.2057286],[37.2954486,49.2061932],[37.2947739,49.2065726],[37.2936426,49.2066327],[37.2924761,49.2067889],[37.2896788,49.2065806],[37.2909578,49.2094037],[37.2926704,49.2131842],[37.2985888,49.2132078],[37.3035811,49.213322],[37.3107121,49.2100146],[37.3133332,49.2109118],[37.3189354,49.2092577],[37.328057,49.208949],[37.3333568,49.2104906],[37.3292263,49.2140649],[37.3268175,49.2170295],[37.3286146,49.2197136],[37.3308248,49.2222924],[37.331147,49.2255439],[37.3202465,49.2323822],[37.3085736,49.240004],[37.2950123,49.2384349],[37.2823093,49.2354086],[37.2807645,49.2343999],[37.2792919,49.2337922],[37.2774599,49.2333071],[37.2758291,49.2333351],[37.267203,49.2323823],[37.258105,49.2296919]]],[[[30.1991118,45.2687362],[30.1845198,45.2535108],[30.2092406,45.2428748],[30.2241755,45.2570137],[30.1991118,45.2687362]]],[[[37.2230016,49.1191418],[37.2191497,49.12511],[37.2160909,49.1312467],[37.1575768,49.1411247],[37.1256662,49.143124],[37.1040567,49.1506187],[37.072951,49.1599985],[37.0425229,49.1653288],[37.0297762,49.1562483],[37.047238,49.1478409],[37.0780287,49.134615],[37.0328474,49.1295083],[36.9930653,49.1221044],[37.0099372,49.1048137],[37.0393266,49.1156171],[37.1078685,49.1187591],[37.1572155,49.1226652],[37.1969475,49.1166675],[37.2028698,49.094135],[37.1740816,49.0339706],[37.156272,49.0048355],[37.0969475,48.992807],[37.1044087,48.9765055],[37.1324561,48.9556944],[37.2222008,48.9346772],[37.2433182,48.9280158],[37.2666688,48.9531298],[37.2646275,48.9935724],[37.2626347,48.9990373],[37.251842,49.0251844],[37.2298715,49.0859384],[37.2289274,49.0941729],[37.2326181,49.1025465],[37.230129,49.1157503],[37.229126,49.1197518],[37.2230016,49.1191418]]],[[[39.4070999,48.6594287],[39.4107046,48.6576711],[39.4175046,48.6594284],[39.4372422,48.6564862],[39.4460828,48.6575634],[39.4507018,48.6555733],[39.4513185,48.6517234],[39.4481269,48.6475215],[39.4496766,48.6428633],[39.4505778,48.6415305],[39.4542256,48.6398007],[39.4598046,48.639744],[39.4639355,48.6394741],[39.4656839,48.6380992],[39.4627339,48.6329512],[39.4631519,48.6290518],[39.4673147,48.6287115],[39.4731084,48.6291653],[39.4786016,48.6291653],[39.4856826,48.6304417],[39.4892447,48.6316329],[39.4940083,48.6333914],[39.4997589,48.6342139],[39.5026343,48.6349796],[39.5069369,48.6355605],[39.5101985,48.6355038],[39.5128466,48.6345659],[39.5157774,48.6298881],[39.5119883,48.6251492],[39.5116576,48.6218889],[39.5162797,48.6181138],[39.5233306,48.6150233],[39.5270213,48.6095756],[39.523672,48.6061969],[39.522483,48.6027083],[39.5240154,48.5987048],[39.5313968,48.5971154],[39.5321819,48.5935127],[39.5274486,48.5920064],[39.525217,48.5886001],[39.5312251,48.5842851],[39.5415249,48.5842851],[39.5459881,48.587351],[39.5458165,48.592347],[39.5477047,48.5970019],[39.5545712,48.599613],[39.561781,48.5985913],[39.565656,48.5939668],[39.5653858,48.5889407],[39.5612786,48.5848264],[39.5681324,48.5820139],[39.5749257,48.5842586],[39.5823073,48.588971],[39.5931951,48.5937095],[39.6010915,48.5914387],[39.6050397,48.5867833],[39.6000615,48.5855342],[39.5945684,48.5811054],[39.5943235,48.5764225],[39.6024648,48.5746318],[39.6095029,48.5750861],[39.6148244,48.5799697],[39.6173993,48.5863291],[39.622206,48.5868968],[39.6304458,48.5809918],[39.6409171,48.5830359],[39.6505301,48.5854206],[39.6694122,48.5892256],[39.6773094,48.5875781],[39.6863343,48.5869839],[39.688006,48.5870856],[39.6872754,48.5872501],[39.6868029,48.5879142],[39.6866952,48.5897082],[39.6861477,48.5899949],[39.6854877,48.5901241],[39.6839131,48.5908983],[39.6833832,48.5915976],[39.6832255,48.5922737],[39.6830393,48.5925691],[39.6800065,48.5924756],[39.6794984,48.5921165],[39.6795878,48.5907873],[39.6790746,48.590364],[39.6786464,48.5902801],[39.6777242,48.5903942],[39.6767695,48.590948],[39.676378,48.5914662],[39.6757316,48.593258],[39.6757301,48.5939552],[39.6762229,48.5945735],[39.6768342,48.5951645],[39.6776387,48.5956135],[39.6779149,48.5959498],[39.6781803,48.5960236],[39.6785973,48.5959434],[39.6788809,48.5957613],[39.679248,48.5956703],[39.6795496,48.5956816],[39.6799687,48.595893],[39.6803177,48.5961903],[39.6804708,48.5964595],[39.6803005,48.5968709],[39.6800867,48.5971795],[39.6799046,48.5973515],[39.6795024,48.5976043],[39.6789633,48.5978938],[39.6785811,48.5980315],[39.6781647,48.5980649],[39.6778878,48.5980841],[39.6767115,48.5979648],[39.6760269,48.5976072],[39.6753949,48.596882],[39.6750467,48.5966897],[39.6744864,48.5963026],[39.6736913,48.5958891],[39.6728431,48.5956326],[39.6718289,48.5954547],[39.6709142,48.5954793],[39.6701886,48.5956406],[39.6694093,48.5959793],[39.6688302,48.5964537],[39.6683045,48.5971735],[39.6679558,48.5980159],[39.6680175,48.5991041],[39.6681555,48.5999037],[39.6680744,48.6008995],[39.6679468,48.6010421],[39.6680123,48.6013407],[39.6684581,48.6017951],[39.668861,48.6022779],[39.6698433,48.6026685],[39.6707207,48.603247],[39.6710736,48.6037633],[39.6708078,48.6040911],[39.6704389,48.604482],[39.6696107,48.604791],[39.6685314,48.604988],[39.6676806,48.605051],[39.666429,48.60504],[39.6658489,48.6049564],[39.6653357,48.6048175],[39.6649486,48.6047603],[39.6643473,48.6047507],[39.6638909,48.6047873],[39.6636117,48.60483],[39.6633111,48.6049365],[39.6627637,48.605238],[39.6625329,48.6053746],[39.6622485,48.6054829],[39.6615317,48.6057042],[39.6612587,48.6058507],[39.6610608,48.6060504],[39.6609233,48.606839],[39.6608663,48.6069536],[39.6607448,48.6070754],[39.6605074,48.6073722],[39.6604401,48.6076039],[39.6604237,48.6079397],[39.6605759,48.6082486],[39.6606583,48.6085291],[39.6606313,48.608666],[39.6605561,48.608833],[39.6605664,48.6090712],[39.6605717,48.6091835],[39.6606253,48.6092533],[39.6608021,48.6095134],[39.6609429,48.6097597],[39.6611104,48.6101016],[39.6612136,48.6106547],[39.6613955,48.6108901],[39.661674,48.6110474],[39.6622201,48.6115466],[39.6626054,48.6119606],[39.6629565,48.6121643],[39.6633184,48.6124815],[39.6635959,48.6128343],[39.6637339,48.6131303],[39.6639954,48.6139832],[39.6641904,48.6147927],[39.664803,48.6153251],[39.6648357,48.6154068],[39.6648225,48.6156197],[39.6648052,48.6158149],[39.6648717,48.6160631],[39.6650792,48.6162937],[39.6651589,48.6164763],[39.6653217,48.6167352],[39.6656458,48.6173108],[39.6660665,48.617819],[39.6661476,48.6179816],[39.6661214,48.6183427],[39.6663957,48.6189095],[39.6665113,48.6194483],[39.6669179,48.6200013],[39.6671909,48.6205509],[39.6678716,48.621448],[39.6681779,48.6215936],[39.6689778,48.6224625],[39.6715373,48.6244945],[39.6745905,48.6265264],[39.6776182,48.6282003],[39.680012,48.6295903],[39.6843633,48.6317034],[39.6856604,48.6322423],[39.6869575,48.6326252],[39.687686,48.6328946],[39.6884574,48.6333626],[39.6901831,48.6352639],[39.6905772,48.6354983],[39.6911001,48.6356334],[39.6928086,48.6361372],[39.6934853,48.6365715],[39.6939904,48.63702],[39.6941358,48.6374533],[39.694317,48.637792],[39.6943695,48.6382726],[39.6943576,48.6388524],[39.6942765,48.639192],[39.6942896,48.6397659],[39.6940494,48.6406341],[39.6938971,48.6413093],[39.6938745,48.6419234],[39.693756,48.6429465],[39.6935572,48.6433092],[39.6930394,48.6436465],[39.6927054,48.6437868],[39.6921414,48.6442255],[39.6916019,48.6449908],[39.6913306,48.6454937],[39.6911867,48.6458465],[39.6911256,48.6463968],[39.6913198,48.6466535],[39.6915998,48.6468463],[39.6918959,48.647064],[39.6920279,48.6473163],[39.6920939,48.6475276],[39.6921008,48.6478026],[39.6922656,48.6478909],[39.6924687,48.6480414],[39.692707,48.6482992],[39.6929362,48.6485645],[39.6932063,48.6489559],[39.6934058,48.6491215],[39.6935811,48.6493703],[39.6938888,48.6495643],[39.6942278,48.64964],[39.6944509,48.6497062],[39.6946403,48.6498208],[39.694853,48.6500216],[39.6949888,48.6500813],[39.6952848,48.6502919],[39.6957814,48.6505159],[39.696534,48.6507944],[39.6967597,48.6508862],[39.6970176,48.6509532],[39.6972759,48.6510659],[39.6982559,48.6517675],[39.6986337,48.6520173],[39.6989835,48.6522556],[39.6994696,48.6525449],[39.7001096,48.6527179],[39.7006871,48.6528221],[39.701169,48.6529628],[39.7016835,48.6531784],[39.7018657,48.6532623],[39.7020962,48.6533211],[39.7022242,48.6533625],[39.702304,48.6534091],[39.7029026,48.6540217],[39.7034654,48.6546036],[39.7039559,48.6549017],[39.7042427,48.6551289],[39.7045856,48.6555266],[39.7046417,48.6557396],[39.7047368,48.6559737],[39.7050741,48.6563317],[39.7051622,48.6564717],[39.7052707,48.6566232],[39.7054752,48.6567203],[39.705749,48.6567262],[39.7060201,48.6567895],[39.7061986,48.6569451],[39.706337,48.6569823],[39.7065292,48.656991],[39.7067052,48.656929],[39.7068791,48.6568235],[39.7070304,48.6566857],[39.7071651,48.6564822],[39.7072746,48.6563268],[39.7073652,48.6562137],[39.707655,48.6559202],[39.7080567,48.6556086],[39.7081947,48.6555108],[39.7084775,48.6552322],[39.7086102,48.6550893],[39.708816,48.6548796],[39.7090798,48.6547251],[39.7093593,48.6546426],[39.7095178,48.6546261],[39.7096963,48.6546657],[39.7099813,48.6546873],[39.7101721,48.6547477],[39.7103292,48.6548213],[39.7105445,48.6549999],[39.7106955,48.6551819],[39.7107858,48.655303],[39.7108873,48.6556931],[39.7109541,48.6561964],[39.7108385,48.657086],[39.710539,48.657624],[39.709923,48.6586156],[39.7096046,48.6593839],[39.7095393,48.6600959],[39.7095304,48.6608184],[39.7096963,48.6620948],[39.7096251,48.6625202],[39.7101332,48.6630165],[39.7105985,48.6640584],[39.7107239,48.6644306],[39.7107436,48.6650135],[39.7109788,48.6656805],[39.7110638,48.6665459],[39.7110072,48.6667166],[39.7104746,48.6671704],[39.7103732,48.6672696],[39.7101967,48.6673263],[39.709747,48.6675106],[39.7091579,48.6675603],[39.708477,48.6675851],[39.7075198,48.6674239],[39.707143,48.6672123],[39.7066921,48.667007],[39.7062734,48.666947],[39.7058213,48.6668674],[39.7054229,48.6667984],[39.7049842,48.6668215],[39.7044341,48.66684],[39.7040204,48.6668972],[39.7035855,48.6669702],[39.7032956,48.6670006],[39.702126,48.6681469],[39.7025441,48.6688964],[39.7030049,48.6705726],[39.7118147,48.675226],[39.7150357,48.6811681],[39.7221627,48.6841631],[39.7162439,48.6904449],[39.7155159,48.695852],[39.7199379,48.6980865],[39.7027777,48.7067983],[39.7110185,48.7135328],[39.7048401,48.7216266],[39.7227192,48.7342732],[39.7389298,48.7485733],[39.7414144,48.7719273],[39.7652059,48.7651718],[39.7843113,48.7975121],[39.7971291,48.8407392],[39.8046749,48.8437398],[39.8080468,48.8396436],[39.8075059,48.8387445],[39.8278344,48.8316285],[39.8304418,48.8337178],[39.886258,48.8211091],[39.9383277,48.8000534],[39.9522773,48.7976408],[39.9582214,48.7980167],[39.9761809,48.7938682],[40.0788345,48.8700299],[40.0712899,48.8771383],[40.0554983,48.9102615],[40.048499,48.9103496],[40.0311984,48.9159646],[40.0180663,48.9079545],[39.983734,48.8682232],[39.9246825,48.8944133],[39.871124,48.8944133],[39.8409117,48.9025384],[39.8244322,48.8908017],[39.818939,48.9079545],[39.7942197,48.9251014],[39.7695006,48.930515],[39.7887267,48.9476542],[39.7477855,48.9881109],[39.7329788,48.9803654],[39.729449,48.9780205],[39.72705,48.975459],[39.7248227,48.9767284],[39.7244807,48.9782317],[39.7261645,48.9786744],[39.7264844,48.9788421],[39.7263835,48.9796244],[39.7252293,48.9803992],[39.7233668,48.9806833],[39.7215236,48.981452],[39.7205591,48.9816321],[39.7189789,48.9817927],[39.717625,48.9825178],[39.7176931,48.9829104],[39.7179258,48.9835407],[39.7176199,48.9845264],[39.7174157,48.9847517],[39.7169001,48.9848644],[39.716726,48.9850758],[39.7165023,48.9857737],[39.716921,48.9864057],[39.7169214,48.9867134],[39.7167719,48.9872302],[39.7157142,48.9881553],[39.7155484,48.988389],[39.71541,48.9887437],[39.7154337,48.9895658],[39.7153521,48.9898724],[39.7150604,48.9900632],[39.7135076,48.9897487],[39.7121056,48.9901232],[39.7118062,48.9903573],[39.7107568,48.9916986],[39.7097393,48.9921145],[39.7076649,48.9925954],[39.7074363,48.993512],[39.7074277,48.9942288],[39.7069257,48.995228],[39.7048401,48.9975657],[39.703956,48.9988886],[39.7020697,48.9995807],[39.699999,49.0006214],[39.6989261,49.0008241],[39.6969626,49.0000584],[39.6933469,48.9992052],[39.6911798,48.9968964],[39.6912229,48.9962207],[39.6769328,48.9897019],[39.6634138,49.0010353],[39.6702791,49.0033117],[39.6792068,49.01305],[39.67366,49.0150973],[39.6756658,49.0270516],[39.6817382,49.0288961],[39.683584,49.0370881],[39.673155,49.0393385],[39.6929395,49.0496906],[39.7296797,49.043171],[39.7681273,49.0404641],[39.7887235,49.0501405],[39.8031461,49.0593653],[39.8203123,49.0584654],[39.8752439,49.0656641],[39.9088925,49.0575695],[39.9377287,49.0562156],[39.9425353,49.0715101],[39.9387411,49.0834254],[39.9727279,49.1254568],[39.997467,49.1474759],[40.0315786,49.1804039],[40.0761335,49.1869909],[40.092763,49.203327],[40.1082935,49.211046],[40.1217722,49.2308738],[40.1365439,49.2393198],[40.1768304,49.2370359],[40.2096773,49.241941],[40.2143748,49.24505],[40.2208105,49.2579368],[40.2192682,49.2653348],[40.1859424,49.2841715],[40.1852026,49.3043723],[40.1885303,49.3076066],[40.1910645,49.318109],[40.1968182,49.3453911],[40.1918412,49.3484972],[40.1755746,49.3567818],[40.1701859,49.3565634],[40.1599381,49.3656218],[40.162049,49.3684196],[40.1446026,49.3778304],[40.1124401,49.3859148],[40.0769127,49.4101205],[40.0593828,49.4342537],[40.0480333,49.4445379],[40.0294508,49.4539432],[40.0417638,49.499266],[40.0376028,49.5200585],[40.168439,49.5690839],[40.1395292,49.5964375],[40.1352626,49.616417],[40.0635416,49.5993965],[40.0567326,49.6067367],[39.9522262,49.5967124],[39.9346043,49.5729464],[39.8902275,49.5585223],[39.8660267,49.5599494],[39.838917,49.5636812],[39.8080621,49.5582136],[39.7683435,49.585455],[39.7502347,49.5968826],[39.7127499,49.6060863],[39.6967501,49.6044549],[39.6869285,49.6117215],[39.6599978,49.6149742],[39.6383814,49.6352632],[39.6131358,49.6905261],[39.5919633,49.7197964],[39.608395,49.7340727],[39.5338368,49.7410113],[39.4787628,49.7566381],[39.4382028,49.7601697],[39.4120639,49.7532744],[39.3769644,49.7385876],[39.3079251,49.753207],[39.2855614,49.7558298],[39.2799667,49.7610736],[39.2754719,49.7681899],[39.2646401,49.7686436],[39.2503726,49.7779652],[39.2403729,49.7912862],[39.2391473,49.7983899],[39.2289932,49.8085957],[39.2281152,49.8166662],[39.2256576,49.8403477],[39.1883961,49.8863857],[39.1784029,49.8881645],[39.1285076,49.8599609],[39.1111395,49.8392098],[39.0697637,49.8188942],[39.0662335,49.8155124],[39.0335226,49.8225358],[39.0216606,49.8210737],[38.9849059,49.8079467],[38.9711379,49.8073842],[38.9648933,49.8040409],[38.9488162,49.7962378],[38.9466631,49.7979699],[38.9394924,49.8008304],[38.9364414,49.8003667],[38.9334743,49.7999417],[38.9329105,49.7977439],[38.930753,49.7973372],[38.9278113,49.7987397],[38.9274209,49.8015445],[38.9286998,49.8040517],[38.9259192,49.8043307],[38.9203574,49.8051098],[38.9191887,49.8091055],[38.9161631,49.8128871],[38.9190385,49.8140257],[38.9182657,49.8149739],[38.9122546,49.8181993],[38.9098446,49.818447],[38.9087993,49.8229304],[38.9073926,49.8285757],[38.9135076,49.8287931],[38.9150943,49.8312222],[38.9113985,49.8347523],[38.9143071,49.8371634],[38.9125681,49.8437592],[38.9065346,49.8448203],[38.9042772,49.8489807],[38.9096701,49.8510128],[38.9195192,49.8588046],[38.9093377,49.8602664],[38.898467,49.8705799],[38.8764156,49.8695863],[38.8751358,49.8687024],[38.8745919,49.8680424],[38.874563,49.8668016],[38.8693986,49.8646519],[38.8668376,49.8650548],[38.8653205,49.8661926],[38.8627155,49.8660336],[38.857162,49.8681771],[38.856612,49.8688127],[38.8558548,49.8690541],[38.8544568,49.8683588],[38.8541747,49.8680231],[38.8541623,49.867593],[38.8538371,49.8672859],[38.8520281,49.8666719],[38.8514142,49.8663289],[38.8506155,49.8660301],[38.8491041,49.8652666],[38.8467251,49.8656481],[38.8461298,49.8658856],[38.8456688,49.8659731],[38.8439316,49.8653459],[38.8432896,49.8653086],[38.839345,49.8659252],[38.8389657,49.8661901],[38.8360183,49.8673006],[38.8363462,49.86753],[38.8348129,49.8692333],[38.8346641,49.8711186],[38.8366836,49.8723169],[38.835701,49.8739942],[38.8349373,49.8745002],[38.8344399,49.8747375],[38.8329727,49.8749079],[38.8277627,49.8773224],[38.8270413,49.8779199],[38.8260274,49.8785339],[38.8244285,49.8790982],[38.822432,49.8791478],[38.7949573,49.8834734],[38.7901495,49.8786734],[38.7834874,49.8812766],[38.7776826,49.8854834],[38.7682313,49.8962076],[38.7438463,49.8974706],[38.7422824,49.8990847],[38.7338452,49.9051884],[38.7232467,49.9271688],[38.6928998,49.9349292],[38.6852993,49.9605072],[38.7153145,49.9825472],[38.7151361,49.9878734],[38.6874851,50.0059999],[38.6842834,50.0076541],[38.6797088,50.0026886],[38.6760534,49.9929773],[38.6797305,49.9746573],[38.66694,49.9723199],[38.6461952,49.9561007],[38.6160771,49.9745534],[38.5815687,49.9775796],[38.5267143,49.9584342],[38.5078972,49.9641935],[38.4877047,49.9637656],[38.4832992,49.9766914],[38.4775184,49.9834347],[38.4659125,49.9841247],[38.4680383,49.9954103],[38.4340937,50.0011822],[38.4160062,49.9815016],[38.3975611,49.9907486],[38.349573,50.0066076],[38.3541622,50.0192118],[38.3511988,50.0349042],[38.333974,50.0592563],[38.3290971,50.0853707],[38.3126358,50.0887484],[38.3002939,50.0868375],[38.292779,50.0794898],[38.277067,50.0731624],[38.2463333,50.073278],[38.1779973,50.0800842],[38.1836695,50.0566825],[38.1845329,50.0465052],[38.1891653,50.0372177],[38.1883888,50.0246357],[38.185939,50.0218759],[38.2114933,49.9887212],[38.2164373,49.9873451],[38.255245,49.9096982],[38.1769673,49.8424375],[38.1879536,49.7395957],[38.1330218,49.5973864],[38.1687275,49.5546426],[38.1083024,49.4440476],[38.1440081,49.3886564],[38.2341024,49.3694037],[38.225176,49.215799],[38.1839773,49.2023414],[38.1832907,49.1619467],[38.1784495,49.133396],[38.2280539,49.0639498],[38.2675242,49.0403081],[38.303659,49.0453153],[38.3344555,49.0328516],[38.3403623,49.0426207],[38.3448782,49.0470349],[38.355341,49.0541261],[38.4068499,49.0361959],[38.419964,49.0293865],[38.4376054,49.0295824],[38.4558235,49.02239],[38.4621741,49.0218647],[38.4650601,49.0226205],[38.4777299,49.0217796],[38.5347495,49.0333799],[38.5525108,49.0265109],[38.5619476,49.0247341],[38.5637582,49.0315523],[38.5810198,49.03263],[38.6301161,48.9756125],[38.6245701,48.9677118],[38.6974347,48.9487665],[38.5870647,48.940592],[38.5611394,48.9150439],[38.5838065,48.9051826],[38.6101291,48.9292183],[38.6936787,48.9359684],[38.740192,48.9253301],[38.7348947,48.8908876],[38.7425698,48.8383084],[38.7149182,48.8149605],[38.6341195,48.8253617],[38.6406859,48.7668687],[38.5800002,48.7527129],[38.5832177,48.7198696],[38.6301672,48.721172],[38.6523402,48.7224271],[38.6784116,48.723701],[38.6745492,48.7293629],[38.6917155,48.7293629],[38.7535137,48.7184915],[38.7670674,48.71432],[38.8084379,48.7134138],[38.8300673,48.7170382],[38.8360755,48.7232671],[38.841397,48.7335147],[38.8471476,48.7429112],[38.8561599,48.7504951],[38.8728111,48.753268],[38.8920372,48.7508912],[38.9047401,48.7506082],[38.9198464,48.7456279],[38.9330644,48.7482313],[38.9361543,48.7437602],[38.9317769,48.7364584],[38.9446515,48.7354394],[38.9571829,48.7394585],[38.9595003,48.747156],[38.979928,48.743647],[38.9884383,48.7350198],[38.9965867,48.7243805],[38.9977884,48.7197373],[38.9943476,48.715849],[38.9888619,48.715207],[38.9831971,48.7141876],[38.9837904,48.7110352],[38.9955704,48.7124653],[38.9977884,48.7097701],[38.9965868,48.706485],[38.998475,48.7011605],[39.0018149,48.697384],[39.0070581,48.6969684],[39.0137454,48.6960244],[39.0147829,48.6896031],[39.0122079,48.6834834],[39.0176936,48.679989],[39.0192461,48.6767963],[39.0192461,48.6721487],[39.0235376,48.669428],[39.0252542,48.6668205],[39.0266275,48.6628524],[39.0216493,48.6617186],[39.0173578,48.6630791],[39.009633,48.6626256],[39.0122903,48.6587233],[39.0183803,48.6569753],[39.0279933,48.6535734],[39.0355464,48.6482432],[39.0444804,48.6475437],[39.0534068,48.648451],[39.0649006,48.650398],[39.0707446,48.6527605],[39.078641,48.6516264],[39.0872242,48.6518533],[39.0975239,48.6511728],[39.104047,48.6518533],[39.1108201,48.6560115],[39.118974,48.6602636],[39.1239597,48.6614351],[39.1288521,48.6612083],[39.1371702,48.6606038],[39.138036,48.6629658],[39.1375211,48.6656868],[39.1383794,48.6685778],[39.1418909,48.6735848],[39.1463616,48.6770796],[39.1525414,48.6771363],[39.1590571,48.6769854],[39.1685918,48.6807067],[39.1712525,48.6824067],[39.175987,48.6851175],[39.1797636,48.6927101],[39.1832044,48.6979599],[39.1861226,48.7007923],[39.1886042,48.7022276],[39.1908358,48.7051164],[39.1917875,48.7071365],[39.1936682,48.7076087],[39.1959073,48.7066833],[39.1965082,48.7033981],[39.1999414,48.6995461],[39.205349,48.6994197],[39.2070655,48.7014023],[39.2099837,48.7036114],[39.2132454,48.7056506],[39.2191677,48.7067834],[39.2238025,48.7102384],[39.2276649,48.712164],[39.2328148,48.7122773],[39.2360688,48.7104274],[39.2390729,48.7105406],[39.245596,48.7137122],[39.2473202,48.7177139],[39.2483501,48.7209983],[39.2486934,48.7243957],[39.2538433,48.7324352],[39.25144,48.7366243],[39.2498951,48.7400207],[39.25169,48.7427],[39.2651656,48.7431528],[39.2663673,48.7455299],[39.2658598,48.7486237],[39.2650015,48.7515664],[39.2683414,48.7545847],[39.2742711,48.7541695],[39.2749577,48.7499819],[39.2806226,48.7503214],[39.2848208,48.7518118],[39.285164,48.7545281],[39.285944,48.7585831],[39.288119,48.7610486],[39.2931538,48.7625438],[39.2983036,48.7653726],[39.3013002,48.7686163],[39.3024235,48.7714823],[39.3043118,48.7737449],[39.3091108,48.7754609],[39.3142681,48.7758944],[39.3193248,48.7769315],[39.3254186,48.7756872],[39.3259411,48.7722742],[39.3259336,48.7686728],[39.3309193,48.7676355],[39.3377858,48.7672961],[39.3435289,48.7694083],[39.3487721,48.7696721],[39.3530561,48.766806],[39.349802,48.7633358],[39.3447305,48.7613181],[39.3420773,48.7553013],[39.3455888,48.7506234],[39.3463688,48.7472654],[39.3492871,48.742398],[39.3546086,48.7404735],[39.3575193,48.7360207],[39.3561535,48.7322088],[39.3530636,48.7289252],[39.3534853,48.7262266],[39.3601802,48.7226029],[39.3667891,48.7212439],[39.371332,48.7199549],[39.3721773,48.7171104],[39.3685058,48.7156377],[39.3630126,48.7159209],[39.3575193,48.7146184],[39.3541526,48.7131462],[39.3486595,48.7133727],[39.3454172,48.7119566],[39.3503095,48.7059529],[39.3525411,48.7008549],[39.3586158,48.6963798],[39.3670274,48.6915075],[39.3793142,48.686322],[39.3890193,48.6844245],[39.3879893,48.6807411],[39.3903733,48.6781344],[39.3936348,48.6764342],[39.4010356,48.6751304],[39.4058421,48.6737135],[39.4111446,48.6698593],[39.4123462,48.6669118],[39.4080547,48.6625468],[39.4070999,48.6594287]]],[[[33.3967657,47.4749894],[33.3967056,47.4680827],[33.4298362,47.4693591],[33.4713783,47.4750448],[33.4775581,47.4608875],[33.4972992,47.4610036],[33.4938659,47.4806139],[33.5156669,47.4829341],[33.5199585,47.4744647],[33.5645905,47.4695912],[33.5605545,47.4878194],[33.5544203,47.5050804],[33.5460514,47.5180609],[33.4989476,47.5120287],[33.5124054,47.4917502],[33.4645118,47.4847902],[33.4294929,47.4775974],[33.3967657,47.4749894]]],[[[37.8562077,48.1928465],[37.8833302,48.1997121],[37.8965706,48.2154292],[37.8929432,48.2335689],[37.89157,48.2550609],[37.8609519,48.2597596],[37.7819877,48.2682159],[37.7497154,48.2609023],[37.7562384,48.2384982],[37.8125434,48.2380409],[37.8228431,48.230723],[37.8290229,48.2041871],[37.8562077,48.1928465]]],[[[37.299243,49.1314433],[37.2820136,49.1313473],[37.2786208,49.1218186],[37.3011084,49.1101334],[37.3179312,49.0798965],[37.3529502,49.0531287],[37.3615332,49.0562786],[37.336299,49.0763545],[37.3550946,49.0870069],[37.3527785,49.0937808],[37.3671981,49.104627],[37.3919173,49.0979959],[37.4077356,49.0930945],[37.4396114,49.0878038],[37.4443169,49.0776195],[37.4602174,49.0780267],[37.463887,49.083353],[37.4573217,49.0902945],[37.4524306,49.0912488],[37.4454802,49.0923141],[37.4416207,49.094838],[37.4118799,49.0975857],[37.3927764,49.1061728],[37.3805886,49.1080553],[37.3679712,49.1126343],[37.3641081,49.1113695],[37.3548358,49.1004688],[37.3359557,49.0929377],[37.3400756,49.0872045],[37.3290892,49.0838317],[37.3151847,49.1187852],[37.299243,49.1314433]]],[[[38.4024861,48.5572586],[38.4019504,48.5615018],[38.4019712,48.5747527],[38.402637,48.5810386],[38.402637,48.5919397],[38.4060702,48.6019302],[38.4048036,48.6090985],[38.4046894,48.6169314],[38.4088093,48.62964],[38.4143025,48.6382619],[38.4198032,48.6450485],[38.3904538,48.6431674],[38.3671238,48.6342328],[38.3719304,48.5749798],[38.4024861,48.5572586]]],[[[35.3434366,46.3497596],[35.3433347,46.3477675],[35.3313763,46.336223],[35.3157046,46.3207143],[35.3032454,46.3160091],[35.2964674,46.31476],[35.2910634,46.3092421],[35.2895284,46.2918032],[35.2549007,46.2507502],[35.2207048,46.226544],[35.2086604,46.1900173],[35.1352698,46.1660481],[35.0327618,46.1496279],[35.0181048,46.1299544],[34.9890453,46.1098001],[34.9802566,46.0888106],[34.9766247,46.0706783],[35.0705207,46.0954324],[35.1514409,46.1213036],[35.195134,46.1470375],[35.2220449,46.183696],[35.3472255,46.3400542],[35.3692081,46.3640927],[35.3784012,46.3730302],[35.3821876,46.37871],[35.3709296,46.3707598],[35.3434366,46.3497596]]],[[[35.3434366,46.3497596],[35.3434799,46.3506067],[35.3462001,46.3533273],[35.3574785,46.3612563],[35.3709296,46.3707598],[35.3763957,46.3749323],[35.4344622,46.4150832],[35.6142873,46.4994629],[35.7699686,46.6015568],[35.9360552,46.6582401],[36.0830785,46.6581396],[36.1895152,46.6666762],[36.2286736,46.6501517],[36.2691601,46.6053279],[36.3867636,46.7166804],[36.4954425,46.7472541],[36.6152277,46.7730088],[36.6468189,46.7803189],[36.7051951,46.7772681],[36.746052,46.7652665],[36.7807089,46.7485489],[36.8101611,46.7276354],[36.8217417,46.7015406],[36.8009687,46.706789],[36.7903225,46.6744455],[36.77797,46.6632954],[36.7606414,46.6654545],[36.7419857,46.6370064],[36.7589075,46.6183014],[36.8023818,46.6604473],[36.8376794,46.7054072],[36.8454677,46.7238059],[36.8553148,46.7417292],[36.8681455,46.7653368],[36.8855787,46.7890296],[36.9039823,46.8053809],[36.9291585,46.8282063],[36.9585264,46.8472718],[36.992704,46.8621047],[37.0189753,46.8665125],[37.2352681,46.950714],[37.2968334,46.9269724],[37.3185414,46.8959443],[37.2921715,46.8742997],[37.2882615,46.870285],[37.3073534,46.8655663],[37.4810864,47.0319752],[37.5118489,47.0642661],[37.5372658,47.081589],[37.572574,47.0856491],[37.5707009,47.1010306],[37.5753475,47.1026476],[37.580681,47.1049073],[37.6132064,47.1137326],[37.6136616,47.1083058],[37.6195119,47.1032864],[37.618789,47.0876616],[37.6296282,47.0951587],[37.697967,47.0796129],[37.7677476,47.0899133],[37.7930162,47.085733],[37.8148513,47.0894957],[37.8175977,47.1011821],[37.8163243,47.1097603],[37.8180408,47.119106],[37.825594,47.1333552],[37.8297138,47.1461995],[37.8365803,47.1569396],[37.8441334,47.1655768],[37.8499699,47.1742126],[37.8513432,47.1989453],[37.8472234,47.2138727],[37.8413869,47.2269307],[37.8334905,47.2493083],[37.8341772,47.2761025],[37.8338339,47.285419],[37.8300573,47.2958981],[37.8276539,47.3026502],[37.8348638,47.3082375],[37.8317739,47.314988],[37.8245641,47.321505],[37.8273107,47.3284865],[37.8278976,47.335535],[37.8292709,47.3425147],[37.8444769,47.3419815],[37.8568365,47.34361],[37.8611999,47.3478651],[37.8591401,47.354378],[37.8485968,47.3501234],[37.8376105,47.3524495],[37.8417303,47.3584966],[37.8515869,47.3655411],[37.8416305,47.3690291],[37.8382971,47.3780289],[37.8503133,47.3843056],[37.8568366,47.3929058],[37.8558066,47.4031313],[37.863703,47.4265958],[37.878466,47.4416912],[37.8925423,47.4697802],[37.8194144,47.5463107],[37.808428,47.5618351],[37.7823354,47.5859235],[37.7771855,47.6157869],[37.7686024,47.6354551],[37.8019048,47.6423952],[37.8039646,47.6602035],[37.7644825,47.6847088],[37.7184773,47.7072389],[37.6355977,47.7431156],[37.6494212,47.7509626],[37.6525109,47.7578868],[37.6432419,47.8084068],[37.63425,47.8384304],[37.6329901,47.8460171],[37.6348783,47.8525842],[37.6348782,47.8558095],[37.6355649,47.8601864],[37.6388945,47.8677956],[37.6409319,47.8706301],[37.6424768,47.8737392],[37.6440216,47.8809928],[37.5770564,47.8638253],[37.5267763,47.8439543],[37.4900417,47.8275898],[37.5088026,47.7829265],[37.451368,47.7682457],[37.3889791,47.7478341],[37.3574418,47.7493934],[37.3360483,47.7502444],[37.3191037,47.7520157],[37.2611671,47.7520748],[37.2198304,47.7600571],[37.1427721,47.7661625],[37.0825392,47.7835402],[36.9899879,47.7976375],[36.9791697,47.7997417],[36.9674529,47.8017669],[36.9601995,47.7973341],[36.8364734,47.8037885],[36.8200108,47.8054275],[36.8052644,47.804989],[36.7920922,47.8076911],[36.6423506,47.8119834],[36.6061603,47.7734986],[36.5548814,47.672682],[36.5137356,47.6632983],[36.4444679,47.6498852],[36.3679558,47.6312058],[36.1201584,47.5480127],[36.0244562,47.5342689],[35.9902849,47.5311799],[35.9520193,47.4970127],[35.8205743,47.5120757],[35.765462,47.5403114],[35.7220308,47.5652146],[35.7022745,47.5211645],[35.5977892,47.4970857],[35.5571913,47.4998648],[35.4728625,47.488607],[35.3946627,47.5205651],[35.3946499,47.5205731],[35.2941979,47.4474581],[35.2645526,47.454145],[35.270755,47.4716231],[35.2659682,47.4729138],[35.2488648,47.467239],[35.2022787,47.4446194],[35.1482984,47.4453021],[35.0771463,47.4529177],[35.0586358,47.4470038],[35.0442503,47.4373726],[35.0161843,47.411139],[34.9683309,47.3888495],[34.9280445,47.3923519],[34.8805204,47.4085222],[34.8615517,47.4205004],[34.8719771,47.4362449],[34.8714187,47.4492024],[34.859562,47.4508698],[34.8248411,47.4644185],[34.7919435,47.467363],[34.7468617,47.4927389],[34.7353126,47.4905785],[34.7086215,47.4901977],[34.6860495,47.4925954],[34.6798388,47.5103466],[34.6591223,47.5263589],[34.6437287,47.5416882],[34.6280181,47.5454457],[34.6176747,47.5441066],[34.6056377,47.5371777],[34.5986802,47.5342861],[34.5858892,47.5214249],[34.544171,47.5323231],[34.5327783,47.5300749],[34.5010368,47.4983036],[34.4354809,47.496529],[34.4097646,47.4996917],[34.3905965,47.5060009],[34.3634413,47.4935062],[34.3392158,47.467783],[34.338331,47.444876],[34.295745,47.4283035],[34.2627991,47.4260427],[34.1264861,47.4151389],[34.0837442,47.4221913],[34.0588531,47.4180832],[34.0395621,47.4022028],[33.9874416,47.2263145],[33.9166682,47.1633262],[33.8638455,47.1423136],[33.8404336,47.09814],[33.8019642,47.0586323],[33.7223966,47.0169991],[33.708302,46.9996641],[33.7010936,46.962651],[33.6949308,46.9209441],[33.6780936,46.9005413],[33.6573224,46.9032385],[33.6406731,46.8946728],[33.6382769,46.8812985],[33.6482388,46.873556],[33.6202868,46.8236042],[33.5559172,46.8126746],[33.5138615,46.8188647],[33.4759235,46.8156427],[33.3893147,46.7671751],[33.3597238,46.7887317],[33.3537578,46.7846403],[33.3535195,46.7844053],[33.3714394,46.768524],[33.2862995,46.748602],[33.2567791,46.7553059],[33.2234847,46.7671536],[33.1984228,46.7686462],[33.1435673,46.7599679],[33.0011559,46.7179131],[32.921058,46.7117419],[32.8448623,46.6851002],[32.7723186,46.668353],[32.7186953,46.6656982],[32.7014503,46.662676],[32.6589943,46.6500057],[32.5538117,46.5475952],[32.5158711,46.5359719],[32.4179268,46.4853332],[32.33085,46.4673553],[31.8607122,46.5155842],[31.8039853,46.5287257],[31.7540936,46.5475112],[31.6973125,46.5446499],[31.6686982,46.5360204],[31.6311604,46.5401339],[31.6000336,46.5374865],[31.6556013,46.4714971],[31.6915414,46.4683674],[31.7410136,46.4888541],[31.8014857,46.4818914],[31.9481921,46.4395827],[31.9705557,46.4431056],[32.0084255,46.4557936],[32.0442624,46.4243711],[32.0595109,46.3757066],[31.9435827,46.3425471],[31.8383007,46.3353831],[31.7426757,46.3186491],[31.7796068,46.2622723],[31.8014031,46.2656863],[31.9587941,46.2650115],[32.2474469,46.124254],[32.5343488,46.0650295],[32.7098475,46.1024564],[32.9122952,46.1019617],[33.1771998,46.1201186],[33.2988417,46.0698133],[33.4285113,46.0269922],[33.5144647,46.026876],[33.4963485,46.0699301],[33.5633972,46.0743852],[33.5244478,46.1153413],[33.5569866,46.1218965],[33.5733937,46.1253533],[33.607615,46.1473251],[33.6908855,46.2050859],[33.7407498,46.2084572],[33.7420965,46.2083384],[33.7378268,46.2005832],[33.7277979,46.2009842],[33.7203811,46.1997587],[33.7177043,46.2024726],[33.7129325,46.2016909],[33.7156961,46.1979728],[33.7112408,46.1935006],[33.7097834,46.1901249],[33.7131321,46.186273],[33.7108166,46.1838485],[33.7160525,46.1757179],[33.7197521,46.173954],[33.7257209,46.1740225],[33.7299054,46.1709657],[33.7292498,46.1690811],[33.7261752,46.1667128],[33.7253245,46.1649346],[33.7262719,46.1616677],[33.7265729,46.1578942],[33.7280961,46.1551753],[33.7350363,46.1498909],[33.7355871,46.14713],[33.7474992,46.1378623],[33.7495243,46.1374691],[33.7545388,46.140447],[33.8239334,46.1869596],[34.0204638,46.1327688],[34.1222263,46.1077673],[34.2198404,46.0752371],[34.4199204,46.0251975],[34.5450382,45.9954987],[34.6510556,45.9735529],[34.7008651,45.9590695],[34.8396596,45.873504],[34.8155111,45.8354851],[34.8247283,45.8109751],[34.8670509,45.8289436],[34.8703655,45.8465261],[34.8747749,45.8553125],[34.8852215,45.8630502],[34.9000576,45.8578303],[34.9349479,45.8051976],[34.9400095,45.7870162],[34.9452863,45.7800794],[34.9551333,45.7671519],[34.9493247,45.762826],[34.9581999,45.7599275],[34.9685826,45.762605],[34.9770337,45.7651753],[34.891827,45.8984556],[34.8521133,46.0088626],[34.8342802,46.1151746],[34.8289593,46.2038179],[34.8992099,46.2379344],[35.0211905,46.2582045],[35.0518103,46.2667073],[35.0764109,46.2782987],[35.1017779,46.3002147],[35.1120863,46.3099756],[35.1172514,46.3219655],[35.1270553,46.3417068],[35.1391848,46.3513339],[35.1617366,46.3585109],[35.1750758,46.3630378],[35.1848369,46.3693236],[35.18972,46.3710411],[35.1993715,46.3811358],[35.2570729,46.37552],[35.2627376,46.3654039],[35.2659971,46.353274],[35.2691647,46.3557168],[35.2743562,46.3557214],[35.289955,46.356997],[35.3015309,46.3553236],[35.3050384,46.3540053],[35.3076508,46.3492667],[35.3084325,46.3481414],[35.3136771,46.3447646],[35.317634,46.3400249],[35.3181572,46.3348111],[35.3171392,46.3312338],[35.3214785,46.3329708],[35.3434366,46.3497596]]],[[[32.4432631,46.5749685],[32.4264401,46.5750866],[32.4267189,46.5745573],[32.4432631,46.5749685]]],[[[33.2066095,47.3429937],[33.1995579,47.338904],[33.1847739,47.3399135],[33.1784869,47.3083975],[33.162645,47.3056743],[33.1564179,47.2996907],[33.1587623,47.291329],[33.1748368,47.2829665],[33.1712759,47.2480739],[33.0962683,47.2355339],[33.0940611,47.2262445],[33.0983722,47.2188302],[33.0683483,47.2142046],[33.0675684,47.2007253],[33.0545197,47.1916379],[33.0368182,47.1880265],[33.0350061,47.1829845],[33.0392019,47.1785258],[33.0253114,47.1763194],[33.0123568,47.1820104],[33.0129162,47.1885883],[33.006471,47.1960278],[33.0036483,47.196287],[33.0013405,47.1957296],[33.0004919,47.1943557],[33.00033,47.1925152],[33.0042314,47.191394],[33.0024129,47.1892999],[32.9955143,47.190594],[32.9915016,47.1893323],[32.9906494,47.1800587],[32.9961745,47.1674688],[32.9936646,47.1656265],[32.9874427,47.1680092],[32.9907959,47.1581876],[32.993207,47.1564565],[32.9940822,47.1539285],[32.9920568,47.1530744],[32.9862885,47.1558002],[32.9848809,47.1543642],[32.9851572,47.1518429],[32.9915458,47.1511212],[33.0045515,47.1331367],[32.9947847,47.1235486],[32.982145,47.1200541],[32.96656,47.1159282],[32.9513192,47.1167065],[32.9507075,47.1140576],[32.9573807,47.1103962],[32.9724429,47.107514],[32.9737284,47.1012827],[32.9701208,47.0974668],[32.9644544,47.0970392],[32.9591312,47.0982475],[32.9491681,47.1058823],[32.9446918,47.105961],[32.9391743,47.1030799],[32.9332976,47.0868016],[32.9263545,47.0834599],[32.9186496,47.0851897],[32.9118228,47.0888799],[32.9088075,47.0969575],[32.9137569,47.1046971],[32.9064867,47.1108246],[32.8940049,47.1132605],[32.8899905,47.1062148],[32.8984536,47.0890887],[32.8794015,47.0797191],[32.8417613,47.0936918],[32.8178993,47.0943361],[32.7952411,47.0936918],[32.7672559,47.0956198],[32.7598787,47.0671564],[32.7599739,47.0422071],[32.5445141,47.0049318],[32.4873468,46.9980677],[32.4766182,46.9847194],[32.4227259,46.9587179],[32.4069508,46.8466642],[32.4024528,46.8178269],[32.4026157,46.8037618],[32.3969407,46.7913455],[32.3730269,46.7803883],[32.367766,46.7614457],[32.3139035,46.743353],[32.2522974,46.7317499],[32.2237972,46.7410209],[32.2176037,46.7495852],[32.1874451,46.7471601],[32.165908,46.7021234],[32.1401294,46.6690766],[32.1404504,46.6341938],[32.1259111,46.6144663],[32.1198847,46.596745],[32.1397974,46.5507238],[32.1847725,46.5752733],[32.2091483,46.5762173],[32.2465703,46.5922626],[32.2596165,46.5903752],[32.2787663,46.5809827],[32.3207067,46.5533911],[32.4264401,46.5750866],[32.4432631,46.5749685],[32.541797,46.5991534],[32.5898624,46.6024557],[32.6374127,46.638298],[32.6545742,46.6529993],[32.6619606,46.6566227],[32.7172358,46.6728798],[32.7190801,46.6654738],[32.7221113,46.6656275],[32.7214643,46.6749465],[32.7554953,46.6732202],[32.7791847,46.6762826],[32.8091476,46.6850395],[32.8524065,46.7019944],[32.9423573,46.7396531],[33.0137688,46.7420058],[33.0460413,46.7467111],[33.0950576,46.7689454],[33.1561694,46.7884599],[33.2299841,46.7865792],[33.3058586,46.7802317],[33.3294622,46.7799378],[33.3537661,46.7843963],[33.3597321,46.7884877],[33.3807033,46.8051472],[33.4123449,46.8296556],[33.4419982,46.8417292],[33.4699439,46.8467501],[33.5087397,46.8580732],[33.5906349,46.8537657],[33.595433,46.9345462],[33.6621376,46.9998455],[33.6561267,47.0557703],[33.7473577,47.0938854],[33.7820549,47.1306917],[33.7886407,47.1861886],[33.8201002,47.1980857],[33.854999,47.2071725],[33.9005628,47.230959],[33.9125061,47.2617344],[33.9196589,47.2849417],[33.9541381,47.3002721],[33.9645903,47.3286372],[33.9727292,47.3805807],[33.9600427,47.4092807],[33.8694947,47.389092],[33.8440964,47.4089457],[33.8355335,47.4338916],[33.7757205,47.4239823],[33.7233513,47.4201485],[33.708752,47.3998503],[33.7100392,47.3809113],[33.8187657,47.3733317],[33.8265053,47.3536407],[33.8011093,47.3508024],[33.8036963,47.3384263],[33.7617412,47.3330274],[33.7479405,47.3362306],[33.6948078,47.3322838],[33.6746955,47.3362494],[33.6210263,47.3281788],[33.601815,47.3492493],[33.5748624,47.3462902],[33.5393196,47.3612332],[33.5861838,47.4068899],[33.5620928,47.4093486],[33.5132642,47.3705766],[33.454738,47.3938803],[33.4251449,47.4321057],[33.4102948,47.4408275],[33.3977708,47.4566269],[33.3969387,47.4680824],[33.3969988,47.4749891],[33.3849832,47.4770967],[33.37211,47.4735182],[33.3689801,47.4691984],[33.3641229,47.4611842],[33.3700752,47.4554676],[33.37657,47.4598049],[33.3829077,47.4602323],[33.3871853,47.4588026],[33.390161,47.4508479],[33.3934848,47.4434053],[33.3964064,47.4301425],[33.4023312,47.4216539],[33.3945243,47.4164171],[33.376623,47.3971765],[33.3662861,47.3746804],[33.3235919,47.3589497],[33.2823307,47.3614029],[33.2206489,47.3516231],[33.214177,47.3452219],[33.2066095,47.3429937]],[[33.3018538,47.3392287],[33.30122,47.3403438],[33.3010724,47.3402999],[33.3018538,47.3392287]],[[33.284073,47.3456798],[33.2840683,47.3456787],[33.284073,47.3456768],[33.284073,47.3456798]],[[33.8005031,47.3475055],[33.8004981,47.3474999],[33.8005026,47.3475009],[33.8005031,47.3475055]]]]}}]}
