{"type":"FeatureCollection","name":"deepstatemap_data_20230127","sourceHistoryId":1674863264,"sourceCreatedAt":"2023-01-27T23:47:44.000Z","crs":{"type":"name","properties":{"name":"urn:ogc:def:crs:OGC:1.3:CRS84"}},"features":[{"type":"Feature","properties":{"controlStatus":"russian_occupied"},"geometry":{"type":"MultiPolygon","coordinates":[[[[36.5192425,45.2939885],[36.5071402,45.2955583],[36.5182982,45.288856],[36.5333187,45.2797976],[36.5377819,45.2739994],[36.54585,45.2680798],[36.5491116,45.2613139],[36.5715991,45.2500758],[36.5782939,45.2490485],[36.557012,45.2670518],[36.5470516,45.2796768],[36.5317737,45.2861989],[36.5192425,45.2939885]]],[[[39.0828906,47.8516037],[39.1093893,47.8517524],[39.1095354,47.8427473],[39.1496824,47.8425817],[39.2362131,47.8539532],[39.2417337,47.8670136],[39.3904498,47.8661846],[39.4125292,47.830898],[39.4373545,47.8398339],[39.4462501,47.850644],[39.4784743,47.8594741],[39.5203078,47.825141],[39.5344907,47.83253],[39.542168,47.8249813],[39.5655871,47.836556],[39.7379104,47.8277291],[39.7631843,47.8465373],[39.7625051,47.8701448],[39.7949406,47.8668329],[39.7939036,47.9158973],[39.8065943,47.9336659],[39.8058884,47.9505616],[39.8273909,47.9508344],[39.8198438,47.9677616],[39.8154078,47.9708664],[39.8151166,47.9736166],[39.8175382,47.9766456],[39.8198493,47.9774461],[39.8227982,47.979535],[39.8230314,47.9835403],[39.8167173,47.9845419],[39.8161798,47.9927984],[39.8179161,47.9947777],[39.8137713,47.9966971],[39.8137357,47.9985021],[39.8165185,48.0001159],[39.8167197,48.0014626],[39.8109753,48.0048562],[39.8045408,48.0064594],[39.8029984,48.0079476],[39.7976869,48.0093062],[39.7952175,48.0107026],[39.7850806,48.023125],[39.7867767,48.0250342],[39.7796623,48.0393364],[39.8772075,48.0413783],[39.8858862,48.0478658],[39.8322015,48.0664997],[39.8685845,48.0794444],[39.8799506,48.1151645],[39.9102753,48.1384164],[39.9091838,48.1693296],[39.9138857,48.178015],[39.9409345,48.1808104],[39.9421938,48.2307436],[39.9533041,48.2294084],[39.9722759,48.2270247],[40.0008684,48.2252447],[40.0033787,48.2236859],[40.0075402,48.2233125],[40.0083965,48.2251387],[40.0082215,48.2281045],[40.007443,48.2300907],[40.0043418,48.2323477],[40.0039768,48.2360612],[40.0027322,48.2375353],[40.0030757,48.2394758],[40.0073233,48.2420581],[40.0195095,48.2525075],[40.0188624,48.2531159],[40.0189201,48.2541039],[40.018671,48.2550513],[40.0189886,48.2570604],[40.0155045,48.2626787],[40.0167773,48.2694579],[40.0138295,48.2715898],[40.0089633,48.2726545],[39.9997448,48.28929],[40.0005341,48.2917165],[39.9966002,48.2979383],[39.9950166,48.3008469],[39.994253,48.303181],[39.9926583,48.3056192],[39.9919216,48.3060016],[39.9920796,48.3097349],[39.9939839,48.3120065],[39.9941876,48.3126963],[39.9935222,48.3128773],[39.9932215,48.3135961],[39.9909894,48.3160613],[39.9910744,48.3165824],[39.9908152,48.3170825],[39.9869491,48.3175119],[39.9853108,48.317001],[39.9841797,48.3162073],[39.9825182,48.3157045],[39.9803108,48.3157835],[39.9788999,48.315713],[39.9776231,48.3151726],[39.9754983,48.31432],[39.9744246,48.3134708],[39.9724916,48.3129711],[39.9710288,48.3116291],[39.9718799,48.3097157],[39.9707928,48.3089713],[39.9712364,48.3077965],[39.9712653,48.3073022],[39.9708083,48.3070844],[39.9687353,48.3071341],[39.9676365,48.3068053],[39.9663829,48.3067758],[39.9656782,48.3064027],[39.9658139,48.3056564],[39.9654414,48.3046777],[39.9648377,48.3044577],[39.9638819,48.3034631],[39.9632084,48.3032599],[39.9630632,48.3025965],[39.9635452,48.3021261],[39.9644662,48.3020989],[39.9657931,48.3027154],[39.9669698,48.3028323],[39.9680178,48.3028349],[39.9694631,48.3031312],[39.9710106,48.3027963],[39.9710313,48.3014874],[39.9706155,48.3011791],[39.9702131,48.3003911],[39.9706103,48.2989864],[39.9702238,48.2987467],[39.9695797,48.2986384],[39.9674541,48.2991473],[39.9667219,48.2996514],[39.9661587,48.2998029],[39.9649464,48.2996493],[39.9633373,48.2990852],[39.9606769,48.2994413],[39.9596904,48.2992401],[39.9593054,48.2988376],[39.9582829,48.2980501],[39.9559754,48.2992555],[39.9557481,48.299894],[39.9559284,48.3003326],[39.9563748,48.3005247],[39.9568814,48.3011087],[39.9567444,48.3021637],[39.9568219,48.3026192],[39.9566599,48.3031852],[39.9556063,48.3037463],[39.954057,48.304012],[39.9529753,48.3039154],[39.9519708,48.303551],[39.9517212,48.3030504],[39.9519946,48.3023918],[39.9517688,48.3021309],[39.9522186,48.3010381],[39.9519575,48.3000927],[39.9498477,48.2994008],[39.949619,48.2988449],[39.9508356,48.2977331],[39.9507366,48.2972225],[39.9490366,48.2967152],[39.9484261,48.2961002],[39.9484112,48.2942947],[39.947227,48.2941626],[39.9465323,48.293784],[39.9459582,48.2927414],[39.9448101,48.2920266],[39.9437155,48.2919104],[39.9416121,48.2928487],[39.9385209,48.2921268],[39.9377029,48.292225],[39.9368823,48.2915646],[39.9366146,48.2899582],[39.9370235,48.288116],[39.9366398,48.2868873],[39.9362154,48.2850583],[39.9350232,48.2837704],[39.9340979,48.2834791],[39.9332772,48.2837532],[39.9321079,48.2837303],[39.9305846,48.2832846],[39.9301559,48.2827643],[39.9302856,48.2823805],[39.932176,48.2812133],[39.9341115,48.2807351],[39.9349784,48.2797503],[39.9346951,48.2790658],[39.9328753,48.2792411],[39.9315961,48.2779922],[39.9296385,48.2777793],[39.927869,48.2765821],[39.9272912,48.2753873],[39.9258355,48.2739687],[39.9256277,48.2735879],[39.9258988,48.2729692],[39.9259687,48.2721603],[39.9249068,48.2714851],[39.9229547,48.2713059],[39.9210688,48.2716602],[39.9196571,48.2712977],[39.9189796,48.2706011],[39.9174956,48.2700935],[39.9148291,48.2696779],[39.9142596,48.2698466],[39.9145799,48.2707552],[39.915049,48.2713442],[39.9147533,48.2718867],[39.9140654,48.2719578],[39.9130755,48.2711929],[39.9111386,48.2710199],[39.9102688,48.2716453],[39.9105891,48.2721534],[39.9118308,48.2727698],[39.9122543,48.2737457],[39.9113847,48.275269],[39.9104178,48.2760308],[39.9096855,48.2760119],[39.9095085,48.276717],[39.9082201,48.277008],[39.9084339,48.2781327],[39.9100639,48.2790105],[39.9093774,48.2807664],[39.910753,48.282907],[39.911103,48.2850178],[39.9097451,48.2875265],[39.9126952,48.2882023],[39.9101881,48.2929821],[39.9031174,48.2988902],[39.8869156,48.3040891],[39.8879682,48.3073167],[39.8871988,48.3087771],[39.8410685,48.3100513],[39.8421021,48.3183104],[39.8403939,48.3291167],[39.8452167,48.3294989],[39.8455931,48.3327736],[39.8597034,48.3345658],[39.8779341,48.3340733],[39.9185813,48.3416921],[39.9186034,48.3472072],[39.9307271,48.348957],[39.9436441,48.3481202],[39.9475073,48.3552302],[39.9425304,48.3549629],[39.944422,48.3571657],[39.939451,48.3607734],[39.9406678,48.365023],[39.9367499,48.3671357],[39.9347511,48.3722742],[39.9432775,48.3837913],[39.9415351,48.3870715],[39.9383089,48.3875623],[39.9352706,48.384697],[39.9318897,48.3769292],[39.9268452,48.3750751],[39.9212199,48.3759275],[39.9175221,48.3792278],[39.9163055,48.3842314],[39.9145583,48.3868273],[39.9078019,48.3887123],[39.9059615,48.3903159],[39.9067434,48.3922694],[39.9174051,48.3948097],[39.9186437,48.3976109],[39.9160499,48.4006103],[39.9084587,48.4020517],[39.906312,48.403562],[39.9064839,48.4074937],[39.9127632,48.4155801],[39.9102969,48.4219558],[39.8959257,48.4292418],[39.8888169,48.4419929],[39.8898644,48.4435709],[39.8967662,48.4442197],[39.8985547,48.4459723],[39.8973265,48.4481115],[39.8577522,48.4633633],[39.8463375,48.4737119],[39.847753,48.4856779],[39.8478837,48.4951083],[39.8464694,48.4993057],[39.84871,48.5028401],[39.8531911,48.5034246],[39.8566588,48.5016359],[39.861877,48.5019244],[39.8661347,48.5047748],[39.8667561,48.5088826],[39.8574855,48.5374008],[39.8580446,48.5453656],[39.8545326,48.5529988],[39.8576295,48.5614133],[39.846829,48.5729337],[39.8216849,48.5783323],[39.8206043,48.5792853],[39.8254818,48.5816452],[39.8263109,48.5842074],[39.8250511,48.5861523],[39.8223596,48.5866356],[39.8128554,48.5838551],[39.8086096,48.5839718],[39.8044954,48.5854536],[39.8002156,48.5895529],[39.796119,48.5918468],[39.7899853,48.5933692],[39.7734252,48.5923258],[39.7720625,48.5916013],[39.7703675,48.5879945],[39.754759,48.5829996],[39.7512953,48.5820902],[39.7505496,48.5833377],[39.7510542,48.5888356],[39.7490377,48.5902429],[39.7467209,48.5906731],[39.7443186,48.5900574],[39.7387429,48.5868384],[39.7346291,48.5858506],[39.7301775,48.585919],[39.726252,48.5866238],[39.7233788,48.5862164],[39.7212371,48.5848336],[39.714893,48.5852475],[39.7025463,48.5877777],[39.697765,48.5871601],[39.6916351,48.586378],[39.6872709,48.5870843],[39.6772879,48.5875629],[39.6765155,48.5881875],[39.6722238,48.5884145],[39.6675887,48.5867682],[39.6587483,48.5856325],[39.6575468,48.5846673],[39.6353165,48.5800397],[39.6319692,48.5806927],[39.6236436,48.5860867],[39.6228281,48.5863707],[39.6219268,48.5858029],[39.6212402,48.5819417],[39.6175495,48.5771153],[39.6137299,48.5749004],[39.6124855,48.5729129],[39.6080223,48.5727141],[39.6036449,48.5741055],[39.5963128,48.5750293],[39.5949886,48.5766912],[39.5948044,48.5793299],[39.6006408,48.5857461],[39.604074,48.5862571],[39.6050182,48.5867681],[39.6045891,48.5888119],[39.6017566,48.591537],[39.5963493,48.5923886],[39.5925357,48.5912967],[39.5817707,48.5850383],[39.5777793,48.5828806],[39.576535,48.581234],[39.5733466,48.5805224],[39.5680714,48.5818502],[39.5629675,48.5836321],[39.5631454,48.5862306],[39.5660509,48.588301],[39.5672772,48.5902388],[39.5673018,48.5921198],[39.5656345,48.5939516],[39.5633045,48.5974408],[39.5617595,48.5980085],[39.5586696,48.5980085],[39.5512023,48.5955676],[39.5494857,48.5932401],[39.5505587,48.5885848],[39.549314,48.5859732],[39.5450225,48.5839292],[39.5373836,48.58339],[39.5312037,48.5842699],[39.5287147,48.5859448],[39.5269121,48.58955],[39.5281312,48.5918406],[39.5332079,48.5936307],[39.5335878,48.5954605],[39.5324228,48.5964387],[39.5280455,48.5971767],[39.5253848,48.5981984],[39.5226333,48.6029769],[39.5234788,48.6051034],[39.5272799,48.6082749],[39.5278196,48.6094601],[39.5271823,48.6112629],[39.5257232,48.613022],[39.5167841,48.6180986],[39.5116469,48.6218737],[39.5119776,48.6235455],[39.5154235,48.6261855],[39.5162691,48.6279705],[39.5167109,48.6299864],[39.5160243,48.6321987],[39.5140876,48.6338368],[39.5104342,48.6344539],[39.5004348,48.6325537],[39.4955426,48.6321283],[39.4930106,48.6304265],[39.4862727,48.6288949],[39.4841484,48.6282],[39.4761018,48.628753],[39.4685916,48.6274483],[39.4656304,48.6281857],[39.4640108,48.6310641],[39.4642683,48.6340137],[39.4673899,48.6372332],[39.4658132,48.6386649],[39.4575623,48.6386512],[39.4542149,48.6397855],[39.45164,48.6410333],[39.4495753,48.6445574],[39.4497978,48.6504011],[39.4513078,48.6517082],[39.4533852,48.6528124],[39.4523728,48.6547104],[39.4501761,48.6556715],[39.4465013,48.6563009],[39.4389481,48.6549401],[39.4323232,48.6567488],[39.4207457,48.6582229],[39.4142323,48.6566918],[39.4106939,48.6576559],[39.4080332,48.6598104],[39.4082049,48.6614545],[39.4135262,48.6668399],[39.4138697,48.6684271],[39.4117239,48.6705243],[39.4058209,48.6738115],[39.4026452,48.6744349],[39.3979909,48.6746052],[39.3905237,48.6787991],[39.3891696,48.6803857],[39.3909291,48.6837575],[39.3895988,48.6847492],[39.3817025,48.6855142],[39.3795566,48.6862791],[39.3779859,48.6862368],[39.3673165,48.6919737],[39.3658902,48.6922287],[39.3603112,48.695798],[39.3559531,48.697214],[39.3505029,48.7076367],[39.3486574,48.708713],[39.346855,48.7122245],[39.3486382,48.7134707],[39.3541314,48.7132442],[39.3601589,48.7156791],[39.3652658,48.7168401],[39.3704585,48.7159622],[39.3720796,48.7159341],[39.3737867,48.7174915],[39.3741826,48.7186523],[39.3726043,48.7198696],[39.3691283,48.7200679],[39.3615322,48.7223045],[39.3552238,48.7252488],[39.3537216,48.7268908],[39.3540724,48.729646],[39.3588751,48.7339014],[39.3588714,48.7361753],[39.3581923,48.7370054],[39.3492658,48.742496],[39.3472058,48.7457787],[39.3470266,48.7502121],[39.3461759,48.751042],[39.3431385,48.7573608],[39.3433628,48.7592092],[39.3455281,48.7616611],[39.3491724,48.7621516],[39.3513257,48.7630943],[39.3538932,48.7654897],[39.3545015,48.7668284],[39.3527812,48.7679412],[39.3510629,48.7685469],[39.3472429,48.7683845],[39.3403355,48.7663007],[39.3361337,48.7659798],[39.3316705,48.766602],[39.3266028,48.7683087],[39.326084,48.7700153],[39.3274828,48.7721084],[39.3279722,48.7736923],[39.3262557,48.7755589],[39.3245465,48.776049],[39.3145901,48.7748045],[39.3118435,48.7740692],[39.3088319,48.7719953],[39.3030887,48.765414],[39.2999129,48.7630378],[39.2926174,48.760605],[39.2914941,48.7594358],[39.2906433,48.756248],[39.2892807,48.7536832],[39.28952,48.7515136],[39.2864338,48.7489009],[39.2820603,48.7486084],[39.2788874,48.749339],[39.2766585,48.7523332],[39.2747755,48.753681],[39.2723828,48.7538866],[39.2708089,48.7527587],[39.2703015,48.7512117],[39.2716747,48.7477596],[39.270809,48.7439866],[39.2686631,48.741949],[39.264468,48.7412523],[39.258535,48.7427414],[39.256311,48.7422696],[39.2550234,48.7406847],[39.255282,48.7387742],[39.2592291,48.7338353],[39.2561392,48.7268717],[39.2539624,48.7244016],[39.2533069,48.7220589],[39.2539001,48.7201527],[39.2497802,48.7125643],[39.2435147,48.7096192],[39.2395879,48.7091247],[39.2359905,48.711088],[39.2323641,48.7114125],[39.2267852,48.7089771],[39.2248968,48.7067682],[39.2194036,48.7051822],[39.2071728,48.6982998],[39.2031818,48.6986114],[39.2003706,48.6999993],[39.1991476,48.702265],[39.1983536,48.705777],[39.1975167,48.706485],[39.1965081,48.7065134],[39.1951061,48.7038985],[39.1909003,48.6998199],[39.1854146,48.6933991],[39.1816381,48.6857501],[39.1742491,48.680329],[39.1633486,48.6757386],[39.1574337,48.6753794],[39.1519406,48.6762862],[39.1486715,48.6752851],[39.1445122,48.6709112],[39.1418984,48.6666505],[39.141641,48.6650633],[39.1426709,48.6635326],[39.1419842,48.6608682],[39.1394876,48.65964],[39.1273071,48.6604713],[39.1231872,48.6600178],[39.1168282,48.6567485],[39.1119359,48.6533466],[39.1036178,48.6498687],[39.0985539,48.6508893],[39.0849068,48.6506625],[39.0758944,48.6516264],[39.0743495,48.6504357],[39.0548659,48.6470333],[39.042678,48.6464662],[39.0380823,48.6471847],[39.0355464,48.6482432],[39.0334474,48.6519761],[39.0322065,48.6528738],[39.0285083,48.6530064],[39.0191528,48.6569753],[39.0123721,48.658336],[39.010316,48.660084],[39.009633,48.6626256],[39.0129804,48.6640429],[39.0185594,48.6640995],[39.0216493,48.6623989],[39.0254258,48.6619737],[39.0274858,48.6632492],[39.0262842,48.667274],[39.0238809,48.6698815],[39.0205336,48.6722621],[39.0202761,48.6756061],[39.0195819,48.6791389],[39.0163671,48.6809428],[39.0143537,48.6834267],[39.015727,48.6886399],[39.0155478,48.6948913],[39.0048265,48.6963452],[39.0018149,48.6980072],[38.9998483,48.7001975],[38.999505,48.7039927],[38.9982176,48.7076745],[38.9989862,48.7111956],[38.9969225,48.7116016],[38.9919227,48.7100017],[38.9869231,48.7101575],[38.9843054,48.7118281],[38.9847421,48.7136213],[38.9888619,48.715207],[38.9939184,48.7161888],[38.9980459,48.7174722],[38.9993333,48.7196241],[38.9983893,48.7242672],[38.9914368,48.7306084],[38.9895411,48.7349866],[38.9844561,48.7375798],[38.9822031,48.7402861],[38.9823319,48.7421893],[38.981216,48.7438449],[38.9788122,48.7448922],[38.9749968,48.7447632],[38.9725628,48.7435836],[38.9698324,48.7437464],[38.9669464,48.7452039],[38.9640925,48.7461943],[38.9611311,48.7461373],[38.9599296,48.7429109],[38.961217,48.739911],[38.9610453,48.736515],[38.9569464,48.7340668],[38.9460674,48.7344489],[38.9437074,48.7338543],[38.9340086,48.7357792],[38.9324635,48.736798],[38.9343519,48.7429112],[38.9379568,48.7440714],[38.9388581,48.7458118],[38.9382788,48.746682],[38.9369591,48.7471171],[38.9350546,48.7468536],[38.9336652,48.7460241],[38.9306501,48.7452743],[38.9227216,48.7450054],[38.9213055,48.7446091],[38.9199671,48.7434206],[38.9180279,48.7429113],[38.9143212,48.7443829],[38.9125725,48.7468732],[38.9111349,48.7480051],[38.9087746,48.7492502],[38.9047401,48.7506082],[38.9010923,48.7509054],[38.8988178,48.750184],[38.8920372,48.7504385],[38.8813299,48.7501841],[38.8802356,48.7506085],[38.8790769,48.752476],[38.8776176,48.7525889],[38.8716924,48.7513053],[38.863879,48.7513796],[38.8609553,48.7507359],[38.8606013,48.749788],[38.8593783,48.7495899],[38.8553874,48.7496462],[38.8471476,48.7429112],[38.8360755,48.7232671],[38.8300673,48.7170382],[38.8084379,48.7134138],[38.7670674,48.71432],[38.7535137,48.7184915],[38.6917155,48.7293629],[38.6745492,48.7293629],[38.6784116,48.723701],[38.6301672,48.721172],[38.5832177,48.7198696],[38.5784187,48.7094303],[38.577732,48.6967418],[38.5722313,48.6890556],[38.5594455,48.6866947],[38.5489783,48.6752945],[38.5394514,48.6735091],[38.5272842,48.6746424],[38.5161483,48.6705617],[38.5152472,48.6663671],[38.4967076,48.6631925],[38.4802281,48.6591107],[38.4644278,48.6564083],[38.4452016,48.6550476],[38.4314762,48.6504924],[38.4198032,48.6450485],[38.4143025,48.6382619],[38.4088093,48.62964],[38.4046894,48.6169314],[38.4048036,48.6090985],[38.4060702,48.6019302],[38.402637,48.5919397],[38.402637,48.5478669],[38.4143026,48.5206053],[38.4115634,48.5105796],[38.4053767,48.4733655],[38.3930237,48.436606],[38.3892474,48.4322779],[38.390964,48.4158739],[38.3672748,48.3996925],[38.3542284,48.390346],[38.3435779,48.3844372],[38.3217544,48.3710529],[38.2907061,48.361631],[38.2736891,48.3591918],[38.2591203,48.359806],[38.2276837,48.3671755],[38.2149807,48.3690002],[38.2074276,48.371509],[38.1847683,48.3749299],[38.1500926,48.3854193],[38.1544451,48.395536],[38.1630936,48.4021166],[38.1484618,48.4144818],[38.135158,48.4190391],[38.1174769,48.420805],[38.1137059,48.4080126],[38.0685038,48.4086727],[38.0421228,48.4090856],[38.0048018,48.3939537],[37.9786234,48.391275],[37.9749586,48.3811152],[37.9701521,48.3803171],[37.9470402,48.3751555],[37.9346295,48.3739913],[37.9096311,48.3518021],[37.8901968,48.2991598],[37.8881602,48.2836394],[37.8953466,48.268546],[37.89157,48.2550609],[37.8929432,48.2335689],[37.8965706,48.2154292],[37.8833302,48.1997121],[37.8562077,48.1928465],[37.8285927,48.1751503],[37.824622,48.1578177],[37.8198549,48.1438969],[37.8038729,48.1178391],[37.7990601,48.1135245],[37.7920214,48.1045282],[37.7892831,48.1001774],[37.7730529,48.0920319],[37.7564355,48.0866703],[37.7463065,48.0734746],[37.7427884,48.0727514],[37.6997015,48.0722042],[37.6930492,48.0693073],[37.6877494,48.0618935],[37.6942941,48.0565448],[37.6911989,48.0534065],[37.6878504,48.0547535],[37.6699861,48.0433634],[37.6478104,48.0289444],[37.6226618,48.0194438],[37.6164821,48.0180947],[37.6013759,48.0169465],[37.5885656,48.0160207],[37.575455,48.0139608],[37.5733939,48.0068986],[37.556143,48.0098553],[37.5496206,47.9973638],[37.5585462,47.986451],[37.548504,47.9792696],[37.5394871,47.9726323],[37.5251581,47.9572022],[37.5218536,47.94582],[37.5285901,47.9414985],[37.5428393,47.9324766],[37.5394068,47.9242357],[37.5350286,47.917986],[37.5685999,47.9077685],[37.5759066,47.9077328],[37.6440338,47.8866264],[37.6342622,47.838423],[37.6345486,47.8025384],[37.623169,47.7731102],[37.6375888,47.7519939],[37.6726795,47.7247168],[37.7644947,47.6847015],[37.8039769,47.6601962],[37.801917,47.6423879],[37.7686147,47.6354478],[37.7823477,47.5859162],[37.8194267,47.5463034],[37.8925547,47.4697729],[37.8784784,47.4416839],[37.8637154,47.4265885],[37.855819,47.403124],[37.856849,47.3928985],[37.8503258,47.3842983],[37.8383096,47.3780216],[37.841643,47.3690218],[37.8515994,47.3655338],[37.8417428,47.3584893],[37.8376229,47.3524422],[37.8486092,47.3501161],[37.8591525,47.3543707],[37.8612124,47.3478578],[37.856849,47.3436027],[37.8444894,47.3419742],[37.8292834,47.3425074],[37.8273232,47.3284792],[37.8245766,47.3214977],[37.8317864,47.3149807],[37.8348763,47.3082302],[37.8276665,47.3026429],[37.8338464,47.2854117],[37.833503,47.249301],[37.8513558,47.198938],[37.8499825,47.1742053],[37.8180535,47.1190987],[37.8292834,47.1127418],[37.8383095,47.0997045],[37.8621706,47.1062479],[37.8795803,47.1066666],[37.8954729,47.1109213],[37.9839645,47.0835761],[37.9902301,47.0914656],[37.9790722,47.0928096],[37.9758825,47.0956826],[37.9930627,47.0990033],[38.0325448,47.0890697],[38.040012,47.0918746],[38.0407846,47.0962571],[38.054332,47.1083022],[38.0626714,47.1108045],[38.08885,47.1059558],[38.1046619,47.0956273],[38.1228691,47.0806216],[38.1328256,47.0640197],[38.1317956,47.0537286],[38.1060463,47.0471788],[38.0804081,47.0265446],[38.0849876,47.0204182],[38.1632652,47.0654551],[38.1865557,47.0937123],[38.2115022,47.1071826],[38.2301175,47.119406],[38.2284514,47.1226729],[38.2292468,47.1270853],[38.2319091,47.129692],[38.2340685,47.1355459],[38.2363121,47.1395266],[38.2355903,47.1961289],[38.234781,47.2025886],[38.2373783,47.2083908],[38.2396567,47.208713],[38.2410554,47.2101138],[38.2411519,47.2105429],[38.2408246,47.2108546],[38.2412215,47.2117534],[38.2418471,47.2121661],[38.2415415,47.2125292],[38.2418929,47.2148436],[38.2422759,47.2153019],[38.2422804,47.2162117],[38.2427899,47.217117],[38.2425054,47.2178107],[38.2412876,47.2184817],[38.240507,47.2183364],[38.2398263,47.218731],[38.2398971,47.2199239],[38.2400827,47.2201486],[38.2400467,47.2213613],[38.2397605,47.2216179],[38.2387591,47.2217389],[38.2382548,47.2224089],[38.2387143,47.2232165],[38.2385172,47.22364],[38.2364423,47.2242619],[38.2362738,47.2244999],[38.2364096,47.2254132],[38.2361448,47.2256075],[38.2346481,47.2254071],[38.2338694,47.2258012],[38.2340111,47.227113],[38.2336742,47.2280166],[38.2328621,47.2284101],[38.2329066,47.2291897],[38.2343344,47.2309856],[38.2351234,47.2310967],[38.2362475,47.2308171],[38.237346,47.2312165],[38.2378094,47.2320427],[38.2398865,47.2324121],[38.2407512,47.2321463],[38.2416486,47.232812],[38.2427674,47.2326826],[38.2460906,47.2341102],[38.2477027,47.2334227],[38.2535413,47.2336156],[38.2605024,47.2383163],[38.288189,47.2385598],[38.288043,47.2564998],[38.3244906,47.2568209],[38.3307851,47.2634492],[38.3309967,47.2645747],[38.3291431,47.266503],[38.3332861,47.2682715],[38.3337354,47.2689381],[38.3308099,47.2759325],[38.3276326,47.27668],[38.3261871,47.2774834],[38.3271856,47.2795435],[38.3233941,47.2811323],[38.3257662,47.2846011],[38.3284365,47.2848084],[38.3296901,47.2896121],[38.3333538,47.2921318],[38.3337391,47.2962532],[38.3332879,47.2969749],[38.3275474,47.2975272],[38.3270914,47.2990089],[38.3282045,47.3003972],[38.3345111,47.3014077],[38.3363045,47.3064075],[38.2209779,47.3053796],[38.2214722,47.3273446],[38.2272145,47.3297102],[38.2257943,47.3321154],[38.2220794,47.3328526],[38.230493,47.3389025],[38.2306932,47.3431686],[38.2402401,47.346223],[38.246788,47.3514449],[38.2504613,47.357713],[38.2473631,47.3617371],[38.2455592,47.3631933],[38.2587325,47.3733532],[38.2864922,47.3735598],[38.2864155,47.3914768],[38.3004094,47.391514],[38.3020854,47.3928698],[38.3020221,47.4751206],[38.2894022,47.4767537],[38.2940999,47.4907448],[38.2950717,47.5080641],[38.2849085,47.5083765],[38.2848038,47.5444646],[38.3051136,47.5448513],[38.3111495,47.5536189],[38.3109696,47.5760278],[38.3507371,47.5762058],[38.3501205,47.6166892],[38.4566884,47.6170037],[38.4562749,47.6442531],[38.620087,47.6448705],[38.6295892,47.6533363],[38.6292745,47.6692783],[38.6658873,47.6694185],[38.6656155,47.6971765],[38.6591995,47.7000572],[38.6707962,47.6989544],[38.7291235,47.6988072],[38.7303052,47.680361],[38.7540691,47.6848875],[38.7731639,47.6857642],[38.7708688,47.7206292],[38.7889429,47.7370148],[38.7981571,47.7784404],[38.7886773,47.8159738],[38.8351025,47.816059],[38.8421825,47.8631185],[39.0827779,47.8699273],[39.0828906,47.8516037]]],[[[37.8562077,48.1928465],[37.8833302,48.1997121],[37.8965706,48.2154292],[37.8929432,48.2335689],[37.89157,48.2550609],[37.8953466,48.268546],[37.8881602,48.2836394],[37.8696933,48.2818506],[37.8423308,48.2832692],[37.8217294,48.2899051],[37.8082985,48.2875112],[37.8131574,48.2744108],[37.8048352,48.2662158],[37.8012386,48.2582824],[37.7834469,48.2548452],[37.7761512,48.2501586],[37.7849065,48.2446757],[37.7712588,48.2370691],[37.7722466,48.2214534],[37.7521243,48.2193316],[37.7629998,48.2124723],[37.7738199,48.2085361],[37.7809667,48.2013618],[37.7911484,48.1985756],[37.7897429,48.1931575],[37.7938695,48.1889643],[37.7949978,48.1807845],[37.7948393,48.1768397],[37.8015461,48.1746128],[37.80971,48.1649436],[37.7984831,48.1509121],[37.8072325,48.1233214],[37.8198549,48.1438969],[37.824622,48.1578177],[37.8285927,48.1751503],[37.8562077,48.1928465]]],[[[38.5596903,48.8300678],[38.7055563,48.7754613],[38.6917176,48.7293651],[38.7535158,48.7184937],[38.7670695,48.7143222],[38.8084401,48.713416],[38.8300695,48.7170404],[38.8360776,48.7232693],[38.8471497,48.7429134],[38.8553895,48.7496484],[38.8593804,48.7495921],[38.8606035,48.7497902],[38.8609575,48.7507381],[38.8638811,48.7513818],[38.8716946,48.7513075],[38.8776197,48.7525911],[38.879079,48.7524782],[38.8802377,48.7506107],[38.881332,48.7501863],[38.8920393,48.7504407],[38.8988199,48.7501862],[38.9010944,48.7509076],[38.9047423,48.7506104],[38.9087767,48.7492524],[38.911137,48.7480073],[38.9125746,48.7468754],[38.9143233,48.7443851],[38.9180301,48.7429135],[38.9199692,48.7434228],[38.9213076,48.7446113],[38.9227237,48.7450076],[38.9246333,48.745036],[38.9306522,48.7452765],[38.9336673,48.7460263],[38.9350567,48.7468558],[38.9369612,48.7471193],[38.938281,48.7466842],[38.9388603,48.745814],[38.937959,48.7440736],[38.934354,48.7429134],[38.9324656,48.7368002],[38.9340107,48.7357814],[38.9437095,48.7338565],[38.9460695,48.7344511],[38.9569485,48.734069],[38.9610475,48.7365172],[38.9612192,48.7399132],[38.9599318,48.7429131],[38.9611333,48.7461395],[38.9640946,48.7461965],[38.9669485,48.7452061],[38.9698345,48.7437486],[38.972565,48.7435858],[38.974999,48.7447654],[38.9788143,48.7448944],[38.9812181,48.7438471],[38.9823341,48.7421915],[38.9822053,48.7402883],[38.9844583,48.737582],[38.9895432,48.7349888],[38.9914389,48.7306106],[38.9983914,48.7242694],[38.9993354,48.7196263],[38.9980481,48.7174744],[38.9939206,48.716191],[38.988864,48.7152092],[38.9847443,48.7136235],[38.9843076,48.7118303],[38.9869253,48.7101597],[38.9919248,48.7100039],[38.9969247,48.7116038],[38.9989883,48.7111978],[38.9982198,48.7076767],[38.9995071,48.7039949],[38.9998504,48.7001997],[39.001817,48.6980094],[39.0048287,48.6963474],[39.01555,48.6948935],[39.0157292,48.6886421],[39.0143558,48.6834289],[39.0163693,48.680945],[39.0195841,48.6791411],[39.0202783,48.6756083],[39.0205358,48.6722643],[39.023883,48.6698837],[39.0262863,48.6672762],[39.027488,48.6632514],[39.0254279,48.6619759],[39.0216515,48.6624011],[39.0185616,48.6641017],[39.0129825,48.6640451],[39.0096352,48.6626278],[39.0103182,48.6600862],[39.0123742,48.6583382],[39.019155,48.6569775],[39.0285105,48.6530086],[39.0322087,48.652876],[39.0334496,48.6519783],[39.0355485,48.6482454],[39.0380844,48.6471869],[39.0426802,48.6464684],[39.0548681,48.6470355],[39.0743517,48.6504379],[39.0758966,48.6516286],[39.084909,48.6506647],[39.0985561,48.6508915],[39.1036199,48.6498709],[39.1119381,48.6533489],[39.1168304,48.6567508],[39.1231894,48.6600201],[39.1273093,48.6604736],[39.1394898,48.6596423],[39.1419864,48.6608705],[39.1426731,48.6635349],[39.1416432,48.6650656],[39.1419006,48.6666528],[39.1445144,48.6709135],[39.1486736,48.6752874],[39.1519428,48.6762885],[39.1574358,48.6753817],[39.1633508,48.6757409],[39.1742513,48.6803313],[39.1816402,48.6857524],[39.1854168,48.6934014],[39.1909024,48.6998222],[39.1951083,48.7039008],[39.1965103,48.7065157],[39.1975189,48.7064873],[39.1983558,48.7057793],[39.1991498,48.7022673],[39.2003727,48.7000016],[39.2031839,48.6986137],[39.207175,48.6983021],[39.2125393,48.7012195],[39.2194058,48.7051845],[39.2248989,48.7067705],[39.2267874,48.7089794],[39.2323663,48.7114148],[39.2359926,48.7110903],[39.2395901,48.709127],[39.2435169,48.7096215],[39.2497824,48.7125666],[39.2539023,48.720155],[39.2533091,48.7220612],[39.2539646,48.7244039],[39.2561413,48.726874],[39.2592313,48.7338376],[39.2552841,48.7387765],[39.2550255,48.740687],[39.2563131,48.7422719],[39.2585371,48.7427437],[39.2644702,48.7412546],[39.2686652,48.7419513],[39.2708112,48.7439889],[39.2716769,48.7477619],[39.2703037,48.751214],[39.2708111,48.752761],[39.272385,48.7538889],[39.2747777,48.7536833],[39.2766606,48.7523355],[39.2788895,48.7493413],[39.2820625,48.7486107],[39.286436,48.7489032],[39.2895221,48.7515159],[39.2892828,48.7536855],[39.2906454,48.7562503],[39.2914962,48.7594381],[39.2926196,48.7606073],[39.299915,48.7630401],[39.3030909,48.7654163],[39.308834,48.7719976],[39.3118456,48.7740715],[39.3145923,48.7748068],[39.3245486,48.7760513],[39.3262579,48.7755612],[39.3279744,48.7736946],[39.327485,48.7721107],[39.3260862,48.7700176],[39.326605,48.768311],[39.3316726,48.7666043],[39.3361358,48.7659821],[39.3403377,48.766303],[39.3472451,48.7683868],[39.3510629,48.7685469],[39.3527834,48.7679435],[39.3545036,48.7668307],[39.3538953,48.765492],[39.3513279,48.7630966],[39.3491746,48.7621539],[39.3455302,48.7616634],[39.3433649,48.7592115],[39.3431406,48.7573631],[39.346178,48.7510443],[39.3470287,48.7502144],[39.3472079,48.745781],[39.349268,48.7424983],[39.3581944,48.7370077],[39.3588735,48.7361776],[39.3588772,48.7339037],[39.3570785,48.7323091],[39.3540746,48.7296483],[39.3537238,48.7268931],[39.355226,48.7252511],[39.3615344,48.7223068],[39.3691304,48.7200702],[39.3726065,48.7198719],[39.3741848,48.7186546],[39.3737889,48.7174938],[39.3720818,48.7159364],[39.3704606,48.7159645],[39.365268,48.7168424],[39.3601611,48.7156814],[39.3541336,48.7132465],[39.3486404,48.713473],[39.3468571,48.7122268],[39.3486596,48.7087153],[39.3505051,48.707639],[39.3559553,48.6972163],[39.3603134,48.6958003],[39.3658924,48.692231],[39.3673187,48.691976],[39.3779881,48.6862391],[39.3795588,48.6862814],[39.3817046,48.6855165],[39.389601,48.6847515],[39.3909313,48.6837598],[39.3891718,48.680388],[39.3905259,48.6788014],[39.3979931,48.6746075],[39.4026474,48.6744372],[39.4058231,48.6738138],[39.4117261,48.6705266],[39.4138719,48.6684294],[39.4135284,48.6668422],[39.4082071,48.6614568],[39.4080354,48.6598127],[39.4106961,48.6576582],[39.4142345,48.6566941],[39.4207479,48.6582252],[39.4323254,48.6567511],[39.4389503,48.6549424],[39.4465035,48.6563032],[39.4501783,48.6556738],[39.452375,48.6547127],[39.4533874,48.6528147],[39.45131,48.6517105],[39.4497999,48.6504034],[39.4495774,48.6445597],[39.4516422,48.6410356],[39.4542171,48.6397878],[39.4575645,48.6386535],[39.4658154,48.6386672],[39.4673921,48.6372355],[39.4642705,48.634016],[39.464013,48.6310664],[39.4656326,48.628188],[39.4685938,48.6274506],[39.476104,48.6287553],[39.4841506,48.6282023],[39.4862749,48.6288972],[39.4930128,48.6304288],[39.4955448,48.6321306],[39.500437,48.632556],[39.5104364,48.6344562],[39.5140898,48.6338391],[39.5160265,48.632201],[39.5167131,48.6299887],[39.5162713,48.6279728],[39.5154257,48.6261878],[39.5119798,48.6235478],[39.5116491,48.621876],[39.5167863,48.6181009],[39.5257254,48.6130243],[39.5271845,48.6112652],[39.5278218,48.6094624],[39.5272821,48.6082772],[39.523481,48.6051057],[39.5226355,48.6029792],[39.525387,48.5982007],[39.5280477,48.597179],[39.532425,48.596441],[39.53359,48.5954628],[39.5332101,48.593633],[39.5281334,48.5918429],[39.5269143,48.5895523],[39.5287169,48.5859471],[39.5312059,48.5842722],[39.5373858,48.5833923],[39.5450247,48.5839315],[39.5493162,48.5859755],[39.5505609,48.5885871],[39.5494879,48.5932424],[39.5512045,48.5955699],[39.5586718,48.5980108],[39.5617617,48.5980108],[39.5633068,48.5974431],[39.5656367,48.5939539],[39.567304,48.5921221],[39.5672794,48.5902411],[39.5660531,48.5883033],[39.5631476,48.5862329],[39.5629697,48.5836344],[39.5680736,48.5818525],[39.5733488,48.5805247],[39.5765372,48.5812363],[39.5777815,48.5828829],[39.5817729,48.5850406],[39.5925379,48.591299],[39.5963515,48.5923909],[39.6017588,48.5915393],[39.6045913,48.5888143],[39.6050204,48.5867705],[39.6040762,48.5862595],[39.600643,48.5857484],[39.5948066,48.5793322],[39.5949908,48.5766935],[39.596315,48.5750316],[39.6036471,48.5741079],[39.6080245,48.5727165],[39.6124877,48.5729153],[39.6137321,48.5749028],[39.6175517,48.5771177],[39.6212424,48.5819441],[39.621929,48.5858053],[39.6228303,48.5863731],[39.6236458,48.5860891],[39.6319715,48.5806951],[39.6353187,48.5800421],[39.657549,48.5846696],[39.6587505,48.5856348],[39.6675909,48.5867705],[39.672226,48.5884168],[39.6765177,48.5881898],[39.6772901,48.5875652],[39.6872709,48.5870843],[39.6871009,48.5892083],[39.6826722,48.5926894],[39.6809519,48.5926356],[39.6793619,48.5918075],[39.6794674,48.5906025],[39.6787987,48.5900941],[39.6764776,48.5908626],[39.6758393,48.5917852],[39.6754183,48.5935416],[39.6760176,48.5947213],[39.6781781,48.5958601],[39.6796545,48.5954755],[39.6806079,48.5964024],[39.6800407,48.5973815],[39.6786713,48.5981205],[39.6770487,48.5983108],[39.6760012,48.5979503],[39.6752736,48.5969399],[39.6735293,48.5959049],[39.6714269,48.5954506],[39.6700615,48.5957732],[39.6688065,48.5965669],[39.6681762,48.5981814],[39.668158,48.6013107],[39.6709438,48.6032183],[39.6711894,48.6039545],[39.6705761,48.6045881],[39.6689122,48.6050365],[39.6671134,48.6052312],[39.6633738,48.6049218],[39.661023,48.6065514],[39.6606231,48.6090898],[39.6614469,48.6109039],[39.6637976,48.6130042],[39.6661695,48.6177206],[39.6668727,48.6200648],[39.6715351,48.624331],[39.6800633,48.6294977],[39.6877685,48.6328233],[39.6906421,48.6354833],[39.6931611,48.6362378],[39.6937843,48.6367714],[39.6942396,48.6376143],[39.6943624,48.6396733],[39.6937698,48.6432083],[39.6915299,48.644962],[39.6912413,48.6463219],[39.6937148,48.6494079],[39.6973541,48.65103],[39.6999035,48.652604],[39.7022695,48.6533094],[39.7032914,48.6543409],[39.7043634,48.6551469],[39.7050109,48.6563498],[39.7064356,48.6569728],[39.7089808,48.6546183],[39.709877,48.6545451],[39.7106868,48.6550367],[39.7109802,48.6555171],[39.7113809,48.6568763],[39.7104079,48.6580629],[39.7096549,48.6600033],[39.7097211,48.6608817],[39.7095261,48.6622539],[39.7107302,48.6639445],[39.7113082,48.6672185],[39.7109443,48.6676942],[39.7102909,48.6680627],[39.7088219,48.6677581],[39.707323,48.6669638],[39.7050127,48.6669183],[39.7042601,48.6666234],[39.7032933,48.6668371],[39.7029015,48.6672252],[39.7024774,48.6684353],[39.7017208,48.6694045],[39.702434,48.6705154],[39.704033,48.6714854],[39.707944,48.6727922],[39.7121127,48.6746516],[39.7134978,48.6761279],[39.7141965,48.6802254],[39.7170839,48.6814396],[39.7203409,48.681944],[39.7216153,48.6824264],[39.7226817,48.6833759],[39.7230648,48.6834469],[39.7232026,48.6840774],[39.7226753,48.685055],[39.7207782,48.6863296],[39.7206021,48.6867579],[39.718497,48.6874289],[39.7166814,48.6899344],[39.7188272,48.6933173],[39.7159652,48.695208],[39.7202113,48.6972033],[39.7178755,48.7033612],[39.7131581,48.7008348],[39.7044919,48.7068047],[39.7125611,48.7116703],[39.7122616,48.7159156],[39.7048377,48.7214631],[39.7254634,48.7270896],[39.7266149,48.7293715],[39.7227063,48.7318855],[39.7240625,48.734598],[39.7255989,48.7376807],[39.7250112,48.7404521],[39.7288815,48.7410904],[39.7316469,48.7420964],[39.7321916,48.7443334],[39.733671,48.7451619],[39.7344966,48.7449323],[39.7350167,48.7444426],[39.7354377,48.7437944],[39.7361846,48.7433996],[39.7373091,48.743188],[39.7384079,48.7432237],[39.7393649,48.7436306],[39.7395753,48.7444779],[39.7387363,48.7474767],[39.736921,48.7488979],[39.7363764,48.7521826],[39.7400815,48.7664179],[39.7553033,48.7679767],[39.7609401,48.7638619],[39.7662045,48.7642371],[39.7685507,48.7663095],[39.7686596,48.7693288],[39.766036,48.7710309],[39.7636297,48.7710335],[39.7627706,48.7716989],[39.7624264,48.7725623],[39.7639706,48.7745995],[39.7656442,48.7754979],[39.7658051,48.7765126],[39.7654511,48.7780788],[39.7662131,48.7791678],[39.7697056,48.780787],[39.7715164,48.7834911],[39.7734948,48.7844189],[39.7776384,48.7848687],[39.7801942,48.7860818],[39.7858537,48.7991578],[39.7971263,48.8405757],[39.8046722,48.8435763],[39.808044,48.8394801],[39.8075031,48.838581],[39.8278316,48.831465],[39.8304389,48.8335543],[39.8862549,48.8209457],[39.9367367,48.8007946],[39.9764028,48.7939027],[40.0788309,48.8698666],[40.0712862,48.876975],[40.0554947,48.9100982],[40.0484954,48.9101863],[40.0311949,48.9158013],[40.0180629,48.9077912],[40.0039798,48.9007927],[39.9934295,48.8682857],[39.9506521,48.8754591],[39.9403091,48.8866911],[39.924336,48.895717],[39.853161,48.8907371],[39.8458018,48.9029108],[39.8367889,48.9030519],[39.8337412,48.9008231],[39.8189362,48.907791],[39.805377,48.9148422],[39.7823723,48.9157447],[39.7900973,48.9384708],[39.7768793,48.9460251],[39.7520804,48.9865922],[39.7472679,48.9874123],[39.7360446,48.9824833],[39.7333677,48.9807476],[39.7328018,48.9794291],[39.7298327,48.9780683],[39.730221,48.9767382],[39.7270045,48.9755913],[39.7248201,48.9765649],[39.7244781,48.9780682],[39.7264818,48.9786786],[39.7263809,48.9794609],[39.7252267,48.9802357],[39.7233642,48.9805198],[39.721521,48.9812885],[39.7189764,48.9816292],[39.7176226,48.9823543],[39.7179234,48.9833772],[39.7176175,48.9843629],[39.7174133,48.9845882],[39.7167236,48.9849123],[39.7164999,48.9856102],[39.7169186,48.9862422],[39.7167695,48.9870667],[39.7157117,48.9879918],[39.7154075,48.9885802],[39.7153496,48.9897089],[39.7146073,48.9901109],[39.7126395,48.9901287],[39.7118037,48.9908274],[39.7115482,48.9918026],[39.7097153,48.9926127],[39.7083276,48.992446],[39.7077047,48.9927417],[39.7076186,48.9935901],[39.7084981,48.9944314],[39.7076098,48.9955432],[39.7063954,48.9961067],[39.7056744,48.9976415],[39.7038248,48.9993304],[39.6992884,49.0009703],[39.6981028,49.0008268],[39.6970379,49.000206],[39.6963807,48.9993881],[39.6952703,48.999046],[39.6932693,48.9993021],[39.6911344,48.9969722],[39.6911238,48.9962895],[39.6769304,48.9895384],[39.6634114,49.0008718],[39.6702767,49.0031482],[39.6792044,49.0128865],[39.6736576,49.0149338],[39.6756634,49.0268881],[39.6817358,49.0287326],[39.6835816,49.0369246],[39.673217,49.0393297],[39.6820889,49.0457791],[39.6933662,49.0505397],[39.7403201,49.0422198],[39.7666226,49.0401318],[39.7871328,49.0493582],[39.8031433,49.0592018],[39.8203094,49.0583019],[39.8803048,49.0643197],[39.9102626,49.0574623],[39.9379507,49.0562772],[39.942532,49.0713467],[39.9381691,49.0827982],[39.9455145,49.0897976],[39.958701,49.1055643],[39.9727245,49.1252934],[40.031575,49.1802406],[40.0761297,49.1868276],[40.0927592,49.2031637],[40.1082896,49.2108827],[40.1229698,49.2309907],[40.1372265,49.239885],[40.1770838,49.2374891],[40.1882278,49.2386257],[40.2088148,49.242226],[40.2143705,49.2448867],[40.2208062,49.2577735],[40.2192639,49.2651715],[40.1857451,49.2842881],[40.1840397,49.3039851],[40.1885261,49.3074433],[40.196814,49.3452278],[40.1764287,49.3566185],[40.1701818,49.3564001],[40.1598053,49.3660175],[40.1626028,49.3678371],[40.156906,49.3726686],[40.1445985,49.3776671],[40.1295486,49.3823809],[40.1134017,49.3856956],[40.1056311,49.3912919],[40.0769088,49.4099572],[40.0595506,49.4352626],[40.0472045,49.4448782],[40.0291895,49.4535986],[40.04176,49.4991027],[40.037599,49.5198952],[40.1684346,49.5689206],[40.139525,49.5962742],[40.1352584,49.6162537],[40.0635377,49.5992332],[40.0567287,49.6065734],[39.9522226,49.596549],[39.9346008,49.572783],[39.8902242,49.5583589],[39.8389138,49.5635177],[39.8053125,49.5580501],[39.7502318,49.5967191],[39.7127471,49.6059228],[39.6967474,49.6042914],[39.6869259,49.611558],[39.6599951,49.6148107],[39.6383788,49.6350998],[39.613305,49.6913621],[39.5913601,49.7191335],[39.6101091,49.7337983],[39.5338346,49.7408478],[39.4787607,49.7564746],[39.4382009,49.7600062],[39.4120621,49.7531109],[39.3769627,49.7384241],[39.3079236,49.7530435],[39.28556,49.7556663],[39.2754705,49.7680264],[39.2646388,49.7684801],[39.2503713,49.7778017],[39.2403717,49.7911227],[39.2391461,49.7982264],[39.228992,49.8084322],[39.228114,49.8165027],[39.2256563,49.8401842],[39.188395,49.8862222],[39.1784018,49.888001],[39.1307382,49.861568],[39.1103662,49.8377731],[39.069763,49.8187306],[39.0662328,49.8153488],[39.033522,49.8223722],[39.02166,49.8209101],[38.9849055,49.8077831],[38.9711376,49.8072206],[38.9490948,49.7961019],[38.9466628,49.7978063],[38.9403505,49.8008884],[38.9334741,49.7997781],[38.9329103,49.7975803],[38.9307528,49.7971736],[38.927811,49.7985761],[38.9274206,49.8013809],[38.9286996,49.8038881],[38.9203573,49.8049462],[38.9191886,49.8089419],[38.9161629,49.8127235],[38.9191242,49.8146652],[38.9093724,49.8191695],[38.9073925,49.8284121],[38.9135074,49.8286295],[38.9150941,49.8310586],[38.9113984,49.8345887],[38.9138777,49.8361141],[38.9122246,49.8443151],[38.9067062,49.8450441],[38.9050495,49.8491492],[38.90967,49.8508492],[38.9186475,49.8578998],[38.9164883,49.8599253],[38.9093376,49.8601028],[38.8984669,49.8704163],[38.8764156,49.8694227],[38.874563,49.866638],[38.8693985,49.8644883],[38.8567132,49.8691394],[38.8491041,49.865103],[38.8456689,49.8658095],[38.8432897,49.865145],[38.839345,49.8657616],[38.8363462,49.8673664],[38.8353709,49.8709644],[38.8373917,49.8722224],[38.8364145,49.8738963],[38.8355794,49.8744587],[38.8348623,49.8746547],[38.8336541,49.8748065],[38.8285842,49.8771719],[38.8267328,49.8784448],[38.8251048,49.8789649],[38.8224322,49.8789842],[38.7949575,49.8833098],[38.7901498,49.8785098],[38.7834876,49.881113],[38.7776828,49.8853198],[38.7682317,49.896044],[38.7438467,49.897307],[38.7338456,49.9050248],[38.7232471,49.9270052],[38.6929003,49.9347656],[38.6852998,49.9603436],[38.7153149,49.9823836],[38.7151365,49.9877098],[38.6875456,50.0081524],[38.6790523,50.0054483],[38.676054,49.9928137],[38.6797311,49.9744937],[38.6669406,49.9721563],[38.6461959,49.9559371],[38.6160779,49.9743898],[38.5815696,49.977416],[38.5267154,49.9582706],[38.5078984,49.9640299],[38.4877059,49.963602],[38.4833004,49.9765278],[38.4775197,49.9832711],[38.4659138,49.9839611],[38.4680396,49.9952467],[38.4340951,50.0010186],[38.4160076,49.981338],[38.3975626,49.990585],[38.3495747,50.006444],[38.3541639,50.0190482],[38.3512004,50.0347406],[38.3339758,50.0590927],[38.3294421,50.08551],[38.3131955,50.088337],[38.301154,50.087142],[38.2914934,50.0794364],[38.2757814,50.0734395],[38.2540601,50.0725084],[38.1785682,50.0799688],[38.1850665,50.0556923],[38.183827,50.0458318],[38.1879231,50.04072],[38.1882453,50.0236029],[38.1861491,50.0229471],[38.1854156,50.0222224],[38.1868309,50.0216899],[38.1920541,50.0145947],[38.1972857,50.008256],[38.2011173,50.0047277],[38.2007857,50.0037784],[38.2027285,50.0018361],[38.2051352,50.0010043],[38.2045784,49.9976439],[38.207712,49.9915109],[38.2108518,49.9892474],[38.2171261,49.9871815],[38.1963316,49.9697594],[38.1624019,49.9514961],[38.1715654,49.9419009],[38.1266822,49.9221503],[38.1249937,49.942552],[38.0564641,49.9232466],[38.0339211,49.9047607],[38.0123668,49.9184972],[38.0436866,49.932897],[38.0053728,49.9672453],[37.9990746,49.9636008],[37.9805616,49.9767935],[37.9658088,49.9793041],[37.9620412,49.9829178],[37.940048,50.0151423],[37.9247364,50.012396],[37.9130761,50.0030781],[37.9017572,50.0036588],[37.8928326,49.9890988],[37.8875152,49.9877814],[37.8866634,49.9801715],[37.8749089,49.9800635],[37.8546974,49.9702386],[37.831706,49.9716469],[37.8198726,49.9562244],[37.8072596,49.9540787],[37.8022039,49.9430982],[37.7930045,49.9406455],[37.7854396,49.9323385],[37.7737493,49.9070916],[37.7667561,49.8996539],[37.7548533,49.8975943],[37.7404599,49.8845231],[37.7322533,49.8753806],[37.7327465,49.8661068],[37.7358306,49.8591593],[37.7324096,49.8552203],[37.7252863,49.8481636],[37.7256109,49.8470149],[37.7225884,49.8404421],[37.7077101,49.8203757],[37.6886724,49.788554],[37.6948478,49.7857877],[37.713212,49.7821869],[37.7648713,49.7759153],[37.8090809,49.7573073],[37.8425723,49.7553393],[37.8520313,49.7546375],[37.8670869,49.7492446],[37.8841993,49.7455131],[37.8781372,49.7365964],[37.8873795,49.7360766],[37.8949052,49.7372203],[37.9114896,49.7236031],[37.9133,49.7072064],[37.9160062,49.6914252],[37.91796,49.6784257],[37.9128739,49.6587549],[37.9163118,49.6482048],[37.9202906,49.6404341],[37.9283002,49.6341076],[37.9310927,49.6288151],[37.9284486,49.6243686],[37.9289291,49.6203664],[37.938162,49.6005709],[37.9379111,49.5906059],[37.9436672,49.5814197],[37.957508,49.5734676],[37.9542091,49.5659172],[37.9453503,49.5532343],[37.9472726,49.5470042],[37.9567469,49.5427787],[37.9615166,49.5381242],[37.9618227,49.5334697],[37.9641971,49.5199564],[37.9584215,49.5165822],[37.9543516,49.4922139],[37.9384302,49.4630825],[37.9406415,49.4442441],[37.9287805,49.4242894],[37.948687,49.4035625],[37.9427657,49.3989933],[37.9448694,49.3957591],[37.9431965,49.3925249],[37.9526395,49.38037],[37.9677527,49.3663888],[37.9826804,49.3551936],[37.9930635,49.3490968],[38.0003543,49.3421047],[38.0071405,49.333329],[38.0094618,49.3234345],[38.0153055,49.3140494],[38.0134385,49.3093203],[38.0159465,49.3003393],[38.0144392,49.2933468],[38.017964,49.2877812],[38.015094,49.2811796],[38.0104763,49.2723684],[38.0286858,49.2581481],[38.0334954,49.2425221],[38.0565242,49.2143026],[38.0484954,49.2030846],[38.0636372,49.1933237],[38.068001,49.1920865],[38.0816357,49.1790715],[38.0935495,49.1665001],[38.1165487,49.1489461],[38.117907,49.1199374],[38.0998825,49.104206],[38.0858661,49.0945772],[38.0711665,49.0921404],[38.0633982,49.0645636],[38.036173,49.0407851],[38.0441319,49.0218473],[38.065617,49.0225075],[38.078865,49.0294687],[38.1273797,49.0257877],[38.1217691,49.0131562],[38.1410869,49.0019613],[38.1934566,49.0133856],[38.2180508,49.0068164],[38.2333658,48.9820005],[38.2293263,48.9708966],[38.2193674,48.9649744],[38.220054,48.9540413],[38.227269,48.9498521],[38.2342272,48.9465655],[38.2338727,48.9530268],[38.2370485,48.9565212],[38.2448617,48.9562453],[38.2588575,48.9692683],[38.2410615,49.005535],[38.2626974,49.0244189],[38.2845275,49.0264547],[38.2997899,49.0248792],[38.3699793,48.9817692],[38.4023573,48.9556589],[38.4134788,48.9399705],[38.4749063,48.9035945],[38.4952926,48.8707374],[38.5304375,48.8497781],[38.5596903,48.8300678]]],[[[37.6878504,48.0547535],[37.6911989,48.0534065],[37.6942941,48.0565448],[37.6877494,48.0618935],[37.6930492,48.0693073],[37.6997015,48.0722042],[37.7427884,48.0727514],[37.7463065,48.0734746],[37.7564355,48.0866703],[37.7730529,48.0920319],[37.7892831,48.1001774],[37.7920214,48.1045282],[37.7796618,48.1058464],[37.7696197,48.104127],[37.7665297,48.1010318],[37.7631824,48.0947263],[37.7464791,48.0909703],[37.7401052,48.0910064],[37.7328207,48.0915983],[37.7303429,48.0984669],[37.7204797,48.1049264],[37.7134702,48.1046865],[37.7141595,48.0999639],[37.7100134,48.0985876],[37.7021499,48.0983133],[37.6958849,48.0984695],[37.6914001,48.0995497],[37.6843724,48.1024498],[37.6716694,48.1007876],[37.6620263,48.1006885],[37.6614812,48.0978375],[37.6516793,48.0955176],[37.654092,48.0851451],[37.6536878,48.0828899],[37.6415352,48.0759539],[37.636797,48.0717114],[37.6433177,48.0680883],[37.638375,48.065488],[37.6288078,48.0655809],[37.6136609,48.0648122],[37.6099771,48.065283],[37.6059947,48.0651904],[37.60433,48.0629755],[37.6040602,48.0608462],[37.593503,48.0607889],[37.5933623,48.054988],[37.5904535,48.048498],[37.5910648,48.0393112],[37.5857851,48.038418],[37.5852474,48.044275],[37.5843434,48.0442536],[37.584727,48.0382063],[37.5805189,48.037697],[37.5811089,48.0343791],[37.5734594,48.0323812],[37.5707975,48.0142412],[37.5585248,48.0140971],[37.5482884,48.0071995],[37.543246,47.9983477],[37.5431618,47.9954325],[37.5482264,47.9864436],[37.5484825,47.9792624],[37.5585462,47.986451],[37.5496206,47.9973638],[37.556143,48.0098553],[37.5733939,48.0068986],[37.5754335,48.0139536],[37.5885656,48.0160207],[37.6013759,48.0169465],[37.6164821,48.0180947],[37.6226618,48.0194438],[37.6478104,48.0289444],[37.6699861,48.0433634],[37.6794605,48.049407],[37.6878504,48.0547535]]],[[[35.2014582,45.5233432],[35.1098671,45.5990246],[35.0500557,45.6672021],[34.9770528,45.765285],[34.9582188,45.7600372],[34.9493437,45.7629357],[34.8008812,45.8047349],[34.796134,45.8920532],[34.7828789,45.9049747],[34.7527159,45.9102311],[34.7008834,45.9591791],[34.6514148,45.9739079],[34.5560425,45.988691],[34.4785519,45.9469467],[34.4367261,45.9681642],[34.3824645,46.0346918],[34.2277542,46.0608165],[34.1607715,46.0804296],[34.1225822,46.1081224],[34.0383336,46.1169353],[33.82395,46.1870691],[33.7405319,46.1851281],[33.7145537,46.1968941],[33.6897001,46.204334],[33.6066801,46.1468776],[33.6125276,46.1382376],[33.612957,46.1291484],[33.616561,46.11536],[33.6330381,46.0973809],[33.6372819,46.0813513],[33.623699,46.0717219],[33.6113376,46.054819],[33.6187235,46.0125197],[33.6228726,45.9976173],[33.6285431,45.9876045],[33.6293845,45.9774581],[33.6296884,45.9674259],[33.6277585,45.9588485],[33.6164792,45.9490678],[33.6176055,45.9442427],[33.6244967,45.942516],[33.6349923,45.9413261],[33.6420789,45.942885],[33.6475011,45.9451658],[33.640135,45.9493564],[33.6597606,45.9545864],[33.682856,45.9528033],[33.6923145,45.9552601],[33.7229645,45.950158],[33.744939,45.9503295],[33.7472783,45.9466852],[33.7510765,45.9487997],[33.7557842,45.9392824],[33.7579871,45.9344939],[33.7560271,45.9311086],[33.7495064,45.9282755],[33.7309277,45.9301884],[33.7202438,45.9246362],[33.7019952,45.9110037],[33.6975452,45.911367],[33.6919706,45.9134707],[33.6877728,45.9127518],[33.6800935,45.9085396],[33.6762137,45.9039535],[33.6751147,45.8988677],[33.6783673,45.8851388],[33.6799532,45.8750482],[33.6790774,45.8673135],[33.6847163,45.8588878],[33.6841906,45.8500979],[33.6741263,45.8574315],[33.6615976,45.86426],[33.6622334,45.8715236],[33.6546628,45.8752329],[33.642234,45.8763254],[33.6340965,45.8826144],[33.6162717,45.892143],[33.5937246,45.8852915],[33.5816528,45.8712065],[33.5687155,45.8740076],[33.5586395,45.8617199],[33.5517154,45.8516275],[33.5482128,45.8435307],[33.5421287,45.8402584],[33.5371159,45.8457964],[33.527171,45.849723],[33.5176551,45.846594],[33.5076216,45.8410719],[33.5008905,45.8483554],[33.5200621,45.8577082],[33.5441019,45.8803349],[33.5405932,45.8849133],[33.5179512,45.8677769],[33.4829745,45.8543957],[33.4322068,45.8385764],[33.4170901,45.8302054],[33.3734938,45.7971871],[33.3224096,45.7750369],[33.2806132,45.7626695],[33.2386596,45.7528042],[33.2119202,45.7577279],[33.1821144,45.7739016],[33.1724861,45.7866032],[33.1806246,45.7972106],[33.1858308,45.8079522],[33.1823381,45.8099302],[33.1758381,45.8057417],[33.1657369,45.7882695],[33.1591843,45.749182],[33.1529186,45.7333554],[33.1378005,45.7198138],[33.1279075,45.7198415],[33.1146383,45.7127746],[33.0957044,45.7155026],[33.0776807,45.7073927],[33.0691004,45.7068331],[33.0501444,45.6969593],[33.0171537,45.6870091],[33.0063371,45.6793833],[32.9993935,45.6811474],[32.908691,45.6403382],[32.8250404,45.5906112],[32.8201811,45.5868413],[32.8201285,45.5843929],[32.8212988,45.5830103],[32.8292518,45.583603],[32.8372907,45.5833543],[32.8410082,45.582406],[32.8435558,45.5768336],[32.8431411,45.5705971],[32.8406482,45.56511],[32.8339615,45.5602345],[32.8259738,45.5573298],[32.8203169,45.5598252],[32.7931783,45.56389],[32.7721049,45.5578694],[32.7368771,45.5430069],[32.7232198,45.5330262],[32.6917844,45.523882],[32.5905805,45.4855798],[32.562144,45.4702233],[32.5382082,45.4548835],[32.5242712,45.4388715],[32.500388,45.4246631],[32.4880695,45.4079563],[32.4797029,45.4042634],[32.4789393,45.3891629],[32.4886441,45.3849884],[32.5074454,45.3819566],[32.5134582,45.3720378],[32.5103771,45.3608842],[32.4894526,45.3461358],[32.5518462,45.3323851],[32.5698164,45.3328876],[32.578538,45.3276418],[32.599462,45.325318],[32.622109,45.317634],[32.6529901,45.313322],[32.6756878,45.3206142],[32.6855021,45.3321019],[32.7121592,45.3413068],[32.7353927,45.3549724],[32.7652199,45.3638364],[32.8467096,45.3652645],[32.9070191,45.3594365],[32.9667646,45.3366935],[32.9918481,45.3224993],[33.0352435,45.2901602],[33.0627764,45.2756598],[33.0812306,45.2584206],[33.0931987,45.2488335],[33.107907,45.2315099],[33.124087,45.225712],[33.1389117,45.216317],[33.1434036,45.2070898],[33.1488252,45.2021432],[33.1573263,45.1987744],[33.1658262,45.1934696],[33.1798209,45.1876511],[33.1852357,45.1837167],[33.2019842,45.1832253],[33.2252923,45.1746946],[33.2343482,45.1682187],[33.2459386,45.1569381],[33.2572946,45.1478037],[33.2680362,45.1456289],[33.2751597,45.1459006],[33.2842888,45.1482765],[33.2882929,45.1541048],[33.2960348,45.1577192],[33.3001384,45.1620272],[33.29792,45.1656334],[33.2989631,45.1677871],[33.3012214,45.170642],[33.3052393,45.1727705],[33.3100572,45.1740999],[33.3183942,45.1745814],[33.3251431,45.1741248],[33.3315483,45.1718832],[33.3500155,45.1736994],[33.3584289,45.1782517],[33.3749698,45.1836789],[33.3802818,45.1859091],[33.3762863,45.1876599],[33.3764355,45.1918448],[33.3827498,45.1964713],[33.3911961,45.1973752],[33.4007706,45.1960654],[33.408547,45.1934437],[33.4159888,45.1914041],[33.4326521,45.1840929],[33.4508543,45.1742382],[33.4807573,45.1558915],[33.5092654,45.1344501],[33.5363775,45.1095514],[33.5614904,45.0810729],[33.5808605,45.0508807],[33.6025946,44.9979727],[33.6043773,44.9804712],[33.5976519,44.9765496],[33.6109623,44.9257206],[33.6105925,44.8993192],[33.6064479,44.8717023],[33.6052004,44.8663859],[33.6008626,44.857663],[33.5946361,44.847578],[33.5906429,44.8457225],[33.5868637,44.8470001],[33.5789642,44.8404874],[33.5696937,44.838843],[33.5610313,44.8423184],[33.556915,44.840587],[33.5529705,44.8416549],[33.5485127,44.8345975],[33.5502309,44.8222419],[33.549545,44.8108275],[33.5471428,44.8101296],[33.54552,44.8041697],[33.5406327,44.802652],[33.533513,44.7926079],[33.5407223,44.7617581],[33.5397766,44.7443212],[33.5475831,44.7244447],[33.5457743,44.7077982],[33.5474419,44.698563],[33.5463628,44.6779794],[33.5418641,44.6589325],[33.5356674,44.6459898],[33.5311908,44.6411069],[33.5256907,44.6383616],[33.5210499,44.6402578],[33.5124742,44.6331489],[33.5082713,44.6319164],[33.4946154,44.6177665],[33.4501548,44.6159461],[33.373305,44.5840556],[33.4036944,44.5532389],[33.4601297,44.522891],[33.4727333,44.5111351],[33.4862427,44.4949678],[33.5060714,44.5008455],[33.5540478,44.4868769],[33.6019479,44.4917389],[33.6270126,44.4795789],[33.6383395,44.4586871],[33.6455297,44.4219238],[33.673869,44.4128073],[33.7028925,44.4169259],[33.7330924,44.3833316],[33.7590046,44.3869324],[33.7787368,44.3814524],[33.8460272,44.4011421],[33.8824227,44.4002681],[33.939412,44.3896463],[33.9634064,44.3888504],[34.0349861,44.4036735],[34.0572323,44.4165212],[34.1289364,44.4278782],[34.1719835,44.4910109],[34.2603617,44.5075556],[34.3089458,44.5520875],[34.3201349,44.5510937],[34.334843,44.5455071],[34.3490348,44.5467673],[34.349805,44.5718498],[34.3543535,44.5856814],[34.3758165,44.5917031],[34.3778919,44.612309],[34.3834201,44.6158768],[34.3896775,44.6288837],[34.4039237,44.6397506],[34.4121761,44.6588071],[34.4321494,44.682765],[34.4749636,44.7150709],[34.5446135,44.7410058],[34.6256282,44.773956],[34.6778578,44.7878556],[34.7288112,44.8078253],[34.7479866,44.8070582],[34.763731,44.815057],[34.8309312,44.8169077],[34.8451661,44.8132958],[34.9120951,44.8157703],[34.9203178,44.8215301],[34.9209884,44.8287508],[34.9350343,44.8300421],[34.9425288,44.8338415],[34.9678234,44.8380274],[34.9809909,44.8344654],[34.9887006,44.8280748],[35.0007004,44.8320303],[35.0295032,44.8282486],[35.0472737,44.8148367],[35.0436659,44.7994591],[35.0644251,44.7971082],[35.0810615,44.7906125],[35.0939798,44.8013751],[35.1110222,44.8070199],[35.1184551,44.81723],[35.1331009,44.8228116],[35.1305686,44.8293107],[35.1393909,44.861252],[35.1441549,44.8670023],[35.1562446,44.8869106],[35.1693108,44.9002472],[35.177573,44.9009364],[35.1905563,44.9078868],[35.2056017,44.9102155],[35.2166123,44.9090052],[35.2436533,44.9167916],[35.2565197,44.9384226],[35.2498252,44.9528227],[35.2584087,44.9609038],[35.2712818,44.9675955],[35.2836408,44.9661604],[35.2949869,44.9597113],[35.3015176,44.9657761],[35.3228067,44.9664406],[35.3224657,44.9592101],[35.3443152,44.9641879],[35.3518029,44.954952],[35.3829729,44.943891],[35.3940383,44.954933],[35.3561029,44.9773304],[35.3584162,44.9855521],[35.3667392,44.9925592],[35.395224,44.999343],[35.4286932,45.0129122],[35.4126517,45.0257778],[35.3859656,45.0352458],[35.3893992,45.0494442],[35.4146384,45.0754096],[35.4510629,45.0973661],[35.5413462,45.1258609],[35.5849604,45.1293588],[35.6297695,45.1223028],[35.6921353,45.1046258],[35.7487927,45.0814648],[35.7778784,45.0663038],[35.7853272,45.0576281],[35.8048863,45.0455584],[35.8144831,45.0333055],[35.8101654,45.0214182],[35.8219474,45.0192032],[35.8297795,45.0140758],[35.8341133,45.0091003],[35.8282777,45.0045517],[35.834801,44.9992133],[35.8420962,44.9983656],[35.870587,45.0041863],[35.8793425,45.009765],[35.9002865,45.0141894],[35.907658,45.0180791],[35.9258506,45.019111],[35.9540827,45.0112187],[35.9842147,45.0228593],[35.994952,45.0351096],[36.0125613,45.0449319],[36.035405,45.0492158],[36.07129,45.0482523],[36.1600369,45.035925],[36.2010446,45.0330226],[36.2134931,45.0280697],[36.2256841,45.0268156],[36.2479305,45.0406804],[36.2491529,45.0476867],[36.2821366,45.0549895],[36.3093286,45.0579225],[36.3377238,45.0583023],[36.372884,45.0574746],[36.3909776,45.0653589],[36.4400958,45.0833272],[36.456018,45.095623],[36.4546058,45.105555],[36.4396986,45.1167266],[36.4331798,45.1176913],[36.4256283,45.1288927],[36.4258005,45.1344018],[36.4225424,45.1369381],[36.4214277,45.1529159],[36.4177792,45.1642945],[36.4077775,45.1728889],[36.4077336,45.1934044],[36.4039117,45.2141617],[36.4120194,45.2258774],[36.4230493,45.2372296],[36.4237068,45.2452621],[36.4357829,45.2580657],[36.4396195,45.2716223],[36.4363329,45.2762391],[36.4260118,45.2786405],[36.4216626,45.286584],[36.4351793,45.2950728],[36.4844376,45.3054783],[36.499502,45.3186747],[36.4888368,45.3246085],[36.4732904,45.3307439],[36.4720407,45.3412333],[36.4778117,45.3491316],[36.4836435,45.3508635],[36.5182864,45.351539],[36.535225,45.3499175],[36.5349814,45.3456374],[36.5443505,45.3447352],[36.564437,45.3471145],[36.5923381,45.3465005],[36.5965542,45.3450314],[36.6059899,45.3477328],[36.6120254,45.3559382],[36.6256434,45.3607631],[36.6305692,45.360521],[36.6332174,45.362811],[36.6301062,45.3737863],[36.6334998,45.3756526],[36.6432106,45.3778134],[36.6487328,45.3829201],[36.6411992,45.3906659],[36.6346424,45.391737],[36.6112727,45.407542],[36.607593,45.4125733],[36.611498,45.4149214],[36.6155303,45.4222714],[36.6063464,45.4287203],[36.5982765,45.438662],[36.5870361,45.4412702],[36.57528,45.442252],[36.5656719,45.4366253],[36.5659405,45.4284433],[36.5544666,45.4243677],[36.5478306,45.4256107],[36.5326724,45.4271898],[36.5188279,45.433521],[36.506954,45.4422601],[36.4997463,45.4454839],[36.495456,45.450514],[36.4820621,45.455771],[36.4705485,45.4585138],[36.4610927,45.4564353],[36.4471741,45.4601348],[36.4415354,45.4554057],[36.4420638,45.4532818],[36.4340095,45.4506761],[36.4324737,45.4478753],[36.4214228,45.4460021],[36.4154584,45.4468248],[36.40184,45.450177],[36.3766024,45.4636891],[36.372894,45.4713796],[36.357563,45.4716171],[36.3455144,45.4808912],[36.3448483,45.4843068],[36.3393304,45.4825134],[36.3400479,45.4775846],[36.3363024,45.4742206],[36.3228675,45.4712969],[36.307976,45.4754137],[36.2936833,45.483861],[36.2653446,45.4785656],[36.1703899,45.4723606],[36.1238705,45.4636175],[36.0687847,45.4454632],[36.0689422,45.404374],[36.0428495,45.3840091],[35.99701,45.3714908],[35.9412212,45.3800441],[35.8868417,45.4077745],[35.8465069,45.446506],[35.8636895,45.4542195],[35.8760595,45.4638555],[35.8678308,45.4732506],[35.8417749,45.4744726],[35.8236493,45.4663203],[35.8177466,45.4588693],[35.8183678,45.4514182],[35.8264752,45.4401288],[35.8023584,45.4242928],[35.7489289,45.3963309],[35.7457265,45.3906603],[35.7488888,45.3846329],[35.7609848,45.3812582],[35.7537278,45.3665483],[35.7248509,45.3515944],[35.7155703,45.3384578],[35.6329034,45.3245839],[35.5258253,45.2911927],[35.4987587,45.3061765],[35.467835,45.3075439],[35.3820643,45.3525144],[35.3112561,45.411424],[35.2014582,45.5233432]]],[[[35.2525174,46.2505709],[35.2210679,46.2268989],[35.2090233,46.1903722],[35.1330574,46.1634307],[35.0290037,46.14808],[35.0256763,46.127811],[34.9871752,46.1052755],[34.9733811,46.0721051],[35.0708827,46.0957873],[35.1518034,46.1216585],[35.1858838,46.1469167],[35.275482,46.2556112],[35.3602359,46.3546635],[35.4578294,46.4412316],[35.6043534,46.4804352],[35.7360032,46.5839813],[35.9364232,46.6585947],[36.1170931,46.6514246],[36.1898849,46.6670306],[36.2290436,46.6505061],[36.2598962,46.6186212],[36.1908498,46.5346757],[36.1665138,46.5276778],[36.1516335,46.5468178],[36.1472619,46.508948],[36.0911211,46.4924288],[36.1167335,46.4871992],[36.1840637,46.4980304],[36.3170968,46.6501447],[36.3768491,46.7055039],[36.5871045,46.7646623],[36.7055683,46.7776224],[36.8012652,46.7277543],[36.7906962,46.6747997],[36.7783436,46.6636496],[36.7610148,46.6658088],[36.742359,46.6373607],[36.7589376,46.6217212],[36.8049871,46.6591521],[36.8380534,46.7057614],[36.8685198,46.765691],[36.9019536,46.8087899],[36.9930792,46.8624588],[37.0368602,46.8654582],[37.2380483,46.9398175],[37.2972107,46.9273264],[37.3189188,46.8962982],[37.2805705,46.8736902],[37.2872851,46.863351],[37.3214636,46.8692065],[37.526304,47.0495337],[37.5264869,47.0697845],[37.5878876,47.0772638],[37.6204618,47.0865732],[37.6273774,47.0941014],[37.6758112,47.0778874],[37.684032,47.0766772],[37.6858846,47.0804963],[37.7138794,47.0798327],[37.7743938,47.0875496],[37.7940835,47.0837782],[37.8219878,47.0908909],[37.8383095,47.0997045],[37.8292834,47.1127418],[37.8180535,47.1190987],[37.8499825,47.1742053],[37.8513558,47.198938],[37.833503,47.249301],[37.8338464,47.2854117],[37.8276665,47.3026429],[37.8348763,47.3082302],[37.8317864,47.3149807],[37.8245766,47.3214977],[37.8273232,47.3284792],[37.8292834,47.3425074],[37.8444894,47.3419742],[37.856849,47.3436027],[37.8612124,47.3478578],[37.8591525,47.3543707],[37.8486092,47.3501161],[37.8376229,47.3524422],[37.8417428,47.3584893],[37.8515994,47.3655338],[37.841643,47.3690218],[37.8383096,47.3780216],[37.8503258,47.3842983],[37.856849,47.3928985],[37.855819,47.403124],[37.8637154,47.4265885],[37.8784784,47.4416839],[37.8925547,47.4697729],[37.7823477,47.5859162],[37.7686147,47.6354478],[37.801917,47.6423879],[37.8039769,47.6601962],[37.7644947,47.6847015],[37.6726795,47.7247168],[37.6375888,47.7519939],[37.623169,47.7731102],[37.6345486,47.8025384],[37.6342622,47.838423],[37.6440338,47.8866264],[37.5759066,47.9077328],[37.5685999,47.9077685],[37.5350286,47.917986],[37.5394068,47.9242357],[37.5428393,47.9324766],[37.5285901,47.9414985],[37.5218536,47.94582],[37.5251581,47.9572022],[37.5320031,47.9645878],[37.512874,47.9679717],[37.5065544,47.9613983],[37.5066636,47.9539587],[37.5031047,47.9473039],[37.5084721,47.9446733],[37.5085915,47.9422367],[37.5069334,47.9393617],[37.5039022,47.9381758],[37.5019816,47.9372826],[37.4999877,47.9350078],[37.4974878,47.9349143],[37.4950414,47.9338145],[37.5063169,47.9264247],[37.5042799,47.9196175],[37.527733,47.9130963],[37.5333182,47.9032287],[37.5407013,47.8815661],[37.5280859,47.8554011],[37.5329927,47.8436168],[37.5124754,47.8239692],[37.4923097,47.8225267],[37.486523,47.8177572],[37.4670091,47.817087],[37.4566535,47.8109284],[37.4478453,47.8008523],[37.42891,47.79973],[37.4316066,47.7761204],[37.4144621,47.767009],[37.402457,47.7560122],[37.3774924,47.7485324],[37.3620955,47.7457911],[37.3568995,47.7442315],[37.3544172,47.7445792],[37.3465338,47.7473523],[37.3319098,47.7490964],[37.3308037,47.7516756],[37.3323669,47.7561416],[37.3248494,47.7573979],[37.3195127,47.7629671],[37.3047717,47.7661609],[37.2876243,47.7692066],[37.2698074,47.7709217],[37.261479,47.7684457],[37.2598421,47.7666036],[37.257682,47.7608484],[37.2543209,47.7553239],[37.2478477,47.7559083],[37.2406876,47.7577619],[37.2356378,47.7582954],[37.2210635,47.7613765],[37.1954615,47.7653856],[37.1949322,47.7583537],[37.1815405,47.7598825],[37.1772489,47.7508364],[37.1595708,47.742367],[37.1286819,47.7445623],[37.104062,47.7423554],[37.0784584,47.7420896],[37.0535419,47.7436656],[37.0242325,47.7447823],[36.964522,47.7635413],[36.9295202,47.7763473],[36.903955,47.7868254],[36.8879868,47.7953492],[36.8735563,47.805457],[36.8360852,47.8152793],[36.8202493,47.8216769],[36.8008516,47.8216192],[36.7944142,47.8216913],[36.7878481,47.8211943],[36.7872904,47.8186223],[36.7163679,47.8098959],[36.6893186,47.8147973],[36.6783709,47.8209347],[36.6739284,47.8183547],[36.6620066,47.8142984],[36.6672526,47.7931796],[36.660036,47.7841794],[36.6271368,47.7867853],[36.6212992,47.7852522],[36.6197961,47.7767859],[36.6065339,47.7738529],[36.5769316,47.7214694],[36.555749,47.7003403],[36.5552546,47.6730363],[36.538214,47.6689171],[36.5211862,47.6689593],[36.492896,47.6593066],[36.4448402,47.6502396],[36.3683277,47.6315602],[36.290478,47.5935079],[36.265864,47.5889203],[36.2126182,47.5864549],[36.2095011,47.5823617],[36.186966,47.5808432],[36.1331976,47.5751242],[36.1281164,47.5748274],[36.1237841,47.5732861],[36.1118132,47.5732497],[36.1042645,47.5743345],[36.0873625,47.5738544],[36.0829098,47.5518307],[36.0656766,47.5311247],[36.0509103,47.5283262],[36.0314694,47.5271002],[36.0207844,47.5159044],[36.0139186,47.5103296],[35.9808841,47.5134859],[35.9589323,47.4809483],[35.9013705,47.4913487],[35.8862073,47.4909588],[35.8851192,47.4846519],[35.8719548,47.4885087],[35.8688912,47.4894798],[35.8662008,47.481844],[35.8530543,47.4818547],[35.8405587,47.4828747],[35.8387056,47.4852864],[35.8372725,47.4920548],[35.8296893,47.4895813],[35.8280284,47.4927332],[35.8118209,47.4975877],[35.8077012,47.4825107],[35.7965182,47.4821609],[35.7892811,47.4909745],[35.7370363,47.4910741],[35.7269941,47.4996568],[35.7115041,47.5055123],[35.6995238,47.506819],[35.6823576,47.5108774],[35.6653632,47.5035721],[35.6546633,47.5009618],[35.6152801,47.5028513],[35.5925506,47.5193226],[35.5681383,47.5257022],[35.5502503,47.5234982],[35.5390212,47.5190384],[35.5065103,47.5136471],[35.4479265,47.5104877],[35.4462357,47.5111395],[35.4439676,47.5107082],[35.442472,47.5119002],[35.4406824,47.5124289],[35.4363562,47.5147756],[35.4368056,47.5159394],[35.436783,47.5180308],[35.4369954,47.5208223],[35.4378944,47.5214691],[35.4381927,47.5225217],[35.437931,47.5231488],[35.4370684,47.5236021],[35.4349053,47.5233864],[35.4334544,47.5230315],[35.4323468,47.52343],[35.4274595,47.5269798],[35.4266439,47.5317317],[35.3944748,47.5378127],[35.3807378,47.5359816],[35.3719799,47.5329906],[35.3657509,47.5351205],[35.3586767,47.5368768],[35.3532727,47.5364436],[35.3482119,47.5370533],[35.3415303,47.5360151],[35.3347223,47.525255],[35.3301446,47.5200357],[35.3228214,47.5155116],[35.3135041,47.5126535],[35.2993812,47.5109537],[35.2878203,47.5072123],[35.2808962,47.5033687],[35.2746786,47.4968778],[35.2736544,47.4936921],[35.2807955,47.4721641],[35.2644227,47.4738779],[35.2026425,47.4449743],[35.1486619,47.445657],[35.1190963,47.4510955],[35.0702994,47.4507769],[35.0624319,47.4486647],[35.046158,47.4377275],[35.0288206,47.4181151],[34.9686931,47.3892045],[34.9354445,47.3916029],[34.8837144,47.406089],[34.8633723,47.4208554],[34.8747419,47.4375288],[34.8741835,47.4494994],[34.8599235,47.4512248],[34.8252023,47.4647735],[34.7923046,47.467718],[34.7491537,47.492572],[34.7193654,47.4920934],[34.708982,47.4905527],[34.6894139,47.4948642],[34.6801991,47.5107016],[34.6420717,47.5443897],[34.6283781,47.5458007],[34.6180346,47.5444616],[34.5990399,47.5346411],[34.5862489,47.5217799],[34.5445304,47.5326781],[34.5331376,47.5304299],[34.5006234,47.4996444],[34.4358396,47.4968841],[34.3869488,47.5138458],[34.3727587,47.5106463],[34.3383722,47.4677319],[34.3349123,47.4469725],[34.2961027,47.4286586],[34.2696797,47.4395195],[34.19929,47.4120751],[34.1457254,47.4244375],[34.1183461,47.4205374],[34.0648743,47.4242885],[34.0466778,47.4176252],[34.0422354,47.4104],[34.0196507,47.3580093],[33.9827331,47.230633],[33.9678607,47.2112479],[33.9448451,47.1972232],[33.9295544,47.1795519],[33.903127,47.1599485],[33.8635721,47.1451822],[33.8499522,47.1377648],[33.8407881,47.0984953],[33.8023184,47.0589876],[33.7227502,47.0173544],[33.6976692,46.9951021],[33.6956106,46.9553908],[33.6881602,46.9204201],[33.6784469,46.9008966],[33.6568173,46.9046493],[33.6338234,46.8994853],[33.6340293,46.8662278],[33.6202993,46.8290051],[33.4702672,46.8209318],[33.4029391,46.773568],[33.3900249,46.7834027],[33.3773363,46.7767474],[33.3733741,46.7764584],[33.3584344,46.7693577],[33.3547354,46.7627522],[33.3379268,46.7571308],[33.3172596,46.7528588],[33.2863069,46.749369],[33.2557563,46.7540735],[33.2446918,46.7630406],[33.2020773,46.7681197],[33.2012653,46.7659517],[33.2010953,46.7644636],[33.2004954,46.7639693],[33.2003675,46.7634016],[33.1801618,46.7635044],[33.1799922,46.7643704],[33.1797835,46.7645796],[33.1786735,46.7646124],[33.1783312,46.765016],[33.1785604,46.7661159],[33.1778816,46.7662728],[33.1722249,46.7657024],[33.1520633,46.763942],[33.1381951,46.7593093],[33.1401917,46.7566581],[33.1371674,46.7557268],[33.1332216,46.7561281],[33.1180287,46.7512532],[33.1171985,46.7507402],[33.1135736,46.7499425],[33.112764,46.7499094],[33.1112999,46.7492293],[33.1040482,46.747472],[33.1033748,46.7458547],[33.1019611,46.745296],[33.0999599,46.7438403],[33.0975884,46.7431787],[33.0932333,46.7427195],[33.0921505,46.7421426],[33.0915299,46.7419814],[33.0903958,46.7415118],[33.0881064,46.7402198],[33.087433,46.739621],[33.0881461,46.7387026],[33.087448,46.7379836],[33.0865668,46.7377662],[33.0841823,46.7377282],[33.0803578,46.7361817],[33.0798211,46.7357459],[33.0763975,46.73424],[33.0719658,46.7331457],[33.0705269,46.7321924],[33.0660187,46.7311091],[33.0639976,46.7313545],[33.0629166,46.7311979],[33.0544779,46.7273594],[33.0487234,46.7269364],[33.0463163,46.7262559],[33.0433544,46.723431],[33.0317187,46.7208082],[33.0195822,46.7177162],[33.0112229,46.7170358],[32.9910933,46.7145087],[32.9798491,46.7104402],[32.9542331,46.711513],[32.9427782,46.7132742],[32.9333953,46.7171782],[32.9285608,46.7183454],[32.9233571,46.7182974],[32.9053085,46.7112559],[32.89915,46.7123342],[32.8928211,46.7109999],[32.8844568,46.7050945],[32.8591528,46.6969297],[32.836024,46.6847162],[32.824066,46.6792116],[32.8146062,46.6764194],[32.8090409,46.6762034],[32.8035751,46.6756096],[32.7995314,46.6748195],[32.7828181,46.6689693],[32.7720078,46.6669423],[32.7583907,46.6652739],[32.7371441,46.6650856],[32.7182325,46.6664138],[32.6977453,46.6619684],[32.6832724,46.6574626],[32.6651983,46.6512835],[32.6461006,46.6397692],[32.6234688,46.6225744],[32.6155188,46.6168963],[32.6056522,46.6086629],[32.5909427,46.5947402],[32.5734915,46.5711412],[32.5680079,46.564889],[32.5604657,46.5595807],[32.5528615,46.5559411],[32.5483478,46.5468998],[32.5407588,46.5426588],[32.5375475,46.5380339],[32.5318567,46.5368392],[32.5206901,46.5403274],[32.5145875,46.540981],[32.5089916,46.5399852],[32.5056968,46.5379343],[32.5002673,46.533416],[32.4891314,46.5273541],[32.4647838,46.5080307],[32.4570687,46.5037815],[32.4483244,46.50284],[32.4377229,46.5033333],[32.4326909,46.4947303],[32.4316776,46.4891582],[32.4282614,46.4853589],[32.4178426,46.485009],[32.3439224,46.4649397],[32.3020978,46.4677698],[32.2576459,46.4792954],[32.1945942,46.4882908],[32.1486947,46.5145828],[32.1166462,46.517163],[32.0439937,46.4915104],[31.9941309,46.4928168],[31.9665383,46.5082456],[31.879015,46.5354656],[31.8815641,46.5182691],[31.8649158,46.5175934],[31.8070728,46.5294354],[31.7569233,46.5479256],[31.6976527,46.5450053],[31.6690382,46.5387374],[31.6315001,46.5404893],[31.5816742,46.537219],[31.5540849,46.5454363],[31.5305196,46.5576033],[31.5134183,46.5807998],[31.5112983,46.5766614],[31.5216224,46.561578],[31.5469521,46.5387028],[31.6142469,46.5019174],[31.6567519,46.4688867],[31.6943022,46.4403084],[31.7263209,46.4086438],[31.7460697,46.3764563],[31.7738399,46.3585737],[31.7892493,46.3733802],[31.737668,46.4261928],[31.7202659,46.4333261],[31.7069783,46.4454262],[31.6971262,46.4472352],[31.6969189,46.4574832],[31.704266,46.4665485],[31.7164553,46.4786493],[31.7420407,46.4853092],[31.7709055,46.4845495],[31.7970201,46.4781096],[31.89212,46.4568005],[31.9528254,46.4374539],[31.9748459,46.4392025],[32.0022447,46.453429],[32.0290404,46.4375397],[32.0355703,46.4165629],[32.0090507,46.3641139],[31.9697707,46.3483597],[31.8682771,46.3343548],[31.8234499,46.3371015],[31.7725398,46.3271444],[31.7455912,46.306021],[31.7477398,46.2981388],[31.7580932,46.2948403],[31.7680176,46.2965165],[31.7745083,46.2939227],[31.7712141,46.288838],[31.7755462,46.2854607],[31.775112,46.282265],[31.78213,46.2768377],[31.7832894,46.2725096],[31.7771981,46.2681276],[31.7796043,46.2644672],[31.7844089,46.2650835],[31.7845155,46.2688628],[31.7917038,46.2738877],[31.8097262,46.2720936],[31.8143596,46.2694483],[31.8132429,46.2647435],[31.8183057,46.2643109],[31.8346957,46.266138],[31.8331443,46.2697922],[31.8351926,46.2728282],[31.8476993,46.2679219],[31.8507402,46.268254],[31.8612225,46.2721427],[31.8708329,46.2657735],[31.8740032,46.2652566],[31.8832899,46.2734161],[31.8950685,46.2807445],[31.9044902,46.2974386],[31.9368206,46.2921419],[31.9437442,46.2855591],[31.9555985,46.2658955],[31.9695132,46.2572078],[32.0285439,46.2455961],[32.0514181,46.2497849],[32.077753,46.2389204],[32.0878278,46.2214609],[32.1211521,46.2043925],[32.1659652,46.196893],[32.1870241,46.175666],[32.2061324,46.1721801],[32.2081053,46.1867989],[32.2218112,46.18771],[32.2398791,46.1785152],[32.2279414,46.1683471],[32.2366721,46.1501329],[32.2195204,46.1279609],[32.5431059,46.0616925],[32.7101943,46.1028118],[32.9365042,46.1016028],[33.1679366,46.119522],[33.2823694,46.0723123],[33.429206,46.0254405],[33.5256314,46.0267545],[33.4967004,46.0702854],[33.5721609,46.0737878],[33.5309796,46.1101035],[33.6066801,46.1468776],[33.6897001,46.204334],[33.7145537,46.1968941],[33.7405319,46.1851281],[33.82395,46.1870691],[34.0383336,46.1169353],[34.1225822,46.1081224],[34.1607715,46.0804296],[34.2277542,46.0608165],[34.3824645,46.0346918],[34.4367261,45.9681642],[34.4785519,45.9469467],[34.5560425,45.988691],[34.6514148,45.9739079],[34.7008834,45.9591791],[34.7527159,45.9102311],[34.7828789,45.9049747],[34.796134,45.8920532],[34.8008812,45.8047349],[34.9582188,45.7600372],[34.9770528,45.765285],[34.8959643,45.8988106],[34.8524739,46.0092176],[34.8346407,46.1155296],[34.833783,46.2001334],[34.9030041,46.2363897],[35.0248139,46.2563043],[35.079863,46.2766366],[35.1177702,46.3142433],[35.1380024,46.3482526],[35.1783568,46.3629189],[35.1931728,46.3709222],[35.2017945,46.3797144],[35.2567497,46.3752827],[35.2614702,46.3658773],[35.2654164,46.3523256],[35.2690989,46.3553905],[35.2898036,46.3565521],[35.3041691,46.3538716],[35.307895,46.3482888],[35.3142642,46.3437571],[35.3179201,46.3378326],[35.3165158,46.3307144],[35.3174416,46.3170382],[35.2988051,46.314937],[35.2925857,46.3079961],[35.293277,46.302449],[35.2989871,46.2989783],[35.2525174,46.2505709]]],[[[38.1564814,48.7325743],[38.1299329,48.7340887],[38.1175387,48.7325112],[38.1137281,48.7257247],[38.1112483,48.7225321],[38.1057235,48.7220068],[38.0977952,48.7220472],[38.0867776,48.7271831],[38.0860621,48.7307599],[38.081913,48.7330911],[38.0801379,48.7346113],[38.0636821,48.7380874],[38.05538,48.7360302],[38.0454934,48.736051],[38.0401949,48.7349167],[38.029124,48.7354799],[38.0238035,48.73478],[38.0180353,48.7329285],[38.0164193,48.7298592],[38.0144018,48.7221539],[38.0147877,48.7168267],[38.0160744,48.7108143],[38.0165894,48.7059433],[38.0210197,48.7018344],[38.0217303,48.7008032],[38.0211309,48.6983617],[38.022334,48.6959202],[38.0193318,48.6906529],[38.0228289,48.6874566],[38.0245238,48.6838608],[38.0245879,48.6813982],[38.0213684,48.6758776],[38.0186855,48.673495],[38.0171185,48.6702905],[38.0184913,48.6701891],[38.0208728,48.6707477],[38.0304207,48.6663746],[38.0350794,48.6616794],[38.0336481,48.6564687],[38.0321925,48.6534936],[38.0288169,48.651097],[38.0247549,48.6511385],[38.0218667,48.6507677],[38.0187488,48.6530529],[38.0141419,48.6535082],[38.0090478,48.6531998],[38.0034504,48.6500111],[38.0033034,48.6471058],[38.0107771,48.6462569],[38.0152098,48.642801],[38.0175546,48.6391778],[38.0171745,48.6353034],[38.0213865,48.6324356],[38.0229904,48.6303875],[38.0120319,48.6231016],[38.010859,48.6220985],[38.0095005,48.6211418],[38.0090128,48.6200195],[38.0089329,48.6185816],[38.0091479,48.6170522],[38.0099426,48.6149084],[38.0123367,48.6142664],[38.018054,48.6142859],[38.017914,48.6119406],[38.0194338,48.6098395],[38.0173829,48.6061681],[38.019066,48.6030639],[38.0208401,48.6016482],[38.0244596,48.6025028],[38.0278439,48.6018346],[38.0307132,48.6007406],[38.0326907,48.5991525],[38.0304397,48.5970577],[38.0277383,48.5963251],[38.0279789,48.5958179],[38.0290501,48.596102],[38.0300675,48.5959533],[38.0309518,48.5942185],[38.0342465,48.5926988],[38.0355249,48.5903353],[38.0335273,48.5904954],[38.033461,48.5896973],[38.0330279,48.5897761],[38.0330201,48.5895361],[38.032146,48.5896397],[38.0318727,48.5880826],[38.0315141,48.5866083],[38.0292889,48.5858695],[38.0290801,48.5822065],[38.0292147,48.5796648],[38.0280888,48.5786542],[38.0257181,48.5779871],[38.0224731,48.5777814],[38.0191213,48.5764117],[38.0157971,48.5760076],[38.0172795,48.574269],[38.0158854,48.5726156],[38.0196635,48.5655381],[38.0174357,48.5644747],[38.0121161,48.5634389],[38.0119465,48.5628291],[38.0095045,48.5625749],[38.0106958,48.5578448],[38.0083907,48.5573709],[37.999221,48.5563147],[37.9981199,48.551736],[37.9854468,48.5510191],[37.9660442,48.5507538],[37.9610643,48.5471831],[37.9582733,48.5446355],[37.954132,48.543499],[37.9461112,48.5460721],[37.9411187,48.5454501],[37.9385078,48.5443712],[37.9319494,48.5380073],[37.9249269,48.5377065],[37.9120578,48.5345162],[37.8981619,48.5340447],[37.8923348,48.5363859],[37.8873804,48.5378521],[37.8824727,48.5416141],[37.8807833,48.541938],[37.8827264,48.5371301],[37.8854779,48.5322478],[37.8882638,48.525526],[37.8934558,48.5204523],[37.8928109,48.5151512],[37.9014842,48.5165956],[37.907411,48.5157653],[37.910331,48.5104745],[37.9224341,48.5015058],[37.9126949,48.495947],[37.9155724,48.493231],[37.9178076,48.4889226],[37.9266063,48.4822528],[37.9421002,48.4701634],[37.9465286,48.4679425],[37.9464885,48.4613777],[37.9414168,48.4612175],[37.9381754,48.4547049],[37.9352776,48.4537988],[37.9348907,48.4516664],[37.9329805,48.4491356],[37.9352973,48.4486541],[37.9395883,48.4489412],[37.9554589,48.4281472],[37.9593541,48.427095],[37.9654459,48.409444],[37.962852,48.4056988],[37.9630601,48.4005493],[37.9654144,48.3961688],[37.964638,48.3952463],[37.9646221,48.3939796],[37.9586195,48.394496],[37.9471207,48.3751564],[37.9702379,48.3803171],[37.9750444,48.3811152],[37.9787092,48.391275],[38.0048876,48.3939537],[38.0422086,48.4090856],[38.1137917,48.4080126],[38.1175627,48.420805],[38.1352438,48.4190391],[38.1485476,48.4144818],[38.1631794,48.4021166],[38.1545309,48.395536],[38.1501784,48.3854193],[38.1848541,48.3749299],[38.2075134,48.371509],[38.2150665,48.3690002],[38.2277695,48.3671755],[38.2592061,48.359806],[38.2737749,48.3591918],[38.2907919,48.361631],[38.3218402,48.3710529],[38.3436637,48.3844372],[38.3543142,48.390346],[38.3673606,48.3996925],[38.380056,48.4086007],[38.3910498,48.4158739],[38.3893332,48.4322779],[38.3931095,48.436606],[38.4054625,48.4733655],[38.4116492,48.5105796],[38.4143884,48.5206053],[38.4027228,48.5478669],[38.4027228,48.5919397],[38.406156,48.6019302],[38.4048894,48.6090985],[38.4047752,48.6169314],[38.4088951,48.62964],[38.4143883,48.6382619],[38.419889,48.6450485],[38.431562,48.6504924],[38.4452874,48.6550476],[38.4645136,48.6564083],[38.4803139,48.6591107],[38.4967934,48.6631925],[38.515333,48.6663671],[38.5162341,48.6705617],[38.52737,48.6746424],[38.5395372,48.6735091],[38.5490641,48.6752945],[38.5595313,48.6866947],[38.5723171,48.6890556],[38.5778178,48.6967418],[38.5785045,48.7094303],[38.5833035,48.7198696],[38.630253,48.721172],[38.6784974,48.723701],[38.674635,48.7293629],[38.6918013,48.7293629],[38.7056399,48.7754591],[38.559774,48.8300656],[38.5305212,48.8497759],[38.4952926,48.8707374],[38.4749063,48.9035945],[38.4134788,48.9399705],[38.4023573,48.9556589],[38.3699793,48.9817692],[38.2997899,49.0248792],[38.2845275,49.0264547],[38.2626974,49.0244189],[38.2410615,49.005535],[38.2588575,48.9692683],[38.2448617,48.9562453],[38.2370485,48.9565212],[38.2338727,48.9530268],[38.2342272,48.9465655],[38.2443552,48.9466501],[38.2555931,48.9350818],[38.2601369,48.9340288],[38.2691661,48.9314724],[38.2869444,48.9335895],[38.2950275,48.929373],[38.3115136,48.9081755],[38.2745773,48.8950575],[38.272757,48.8915809],[38.2679329,48.8901358],[38.2678978,48.8893335],[38.2607041,48.8888574],[38.2576465,48.8895417],[38.2536774,48.8887089],[38.2526923,48.8855196],[38.2502077,48.8838816],[38.2488446,48.8801542],[38.2450888,48.880488],[38.2446157,48.8794625],[38.2338854,48.8819251],[38.2315473,48.8791154],[38.2350458,48.8773221],[38.2341663,48.8722547],[38.2361295,48.8698902],[38.2382646,48.8698965],[38.242736,48.8667856],[38.24489,48.856506],[38.2453303,48.8313031],[38.2516173,48.8123093],[38.2535817,48.8073555],[38.2559555,48.7939175],[38.2554108,48.7897521],[38.2523985,48.7839601],[38.2432075,48.7808824],[38.2359859,48.7717857],[38.228106,48.7707447],[38.2181661,48.7718527],[38.2171693,48.7707875],[38.2186232,48.7633638],[38.2166902,48.761235],[38.2053164,48.7596717],[38.2054833,48.7583985],[38.2170652,48.7576921],[38.2195486,48.754835],[38.2224438,48.747934],[38.2201523,48.7442194],[38.2155845,48.7439536],[38.2105009,48.7430083],[38.2059126,48.7433609],[38.2008308,48.7443361],[38.1966075,48.7412929],[38.1947876,48.7375131],[38.1968895,48.7358087],[38.2031788,48.7324129],[38.2017709,48.7284225],[38.1967586,48.7243188],[38.1901525,48.7246591],[38.1825161,48.7270372],[38.1564814,48.7325743]]],[[[32.5684313,46.5731634],[32.5702659,46.5722119],[32.5708238,46.5732224],[32.5688712,46.5738271],[32.5684313,46.5731634]]]]}}]}
